,postal_code,city_name,longitude,latitude,lowercase,nis_code
0,1060,Saint-Gilles,4.345668,50.8267409,saintgilles,21013
1,1080,Molenbeek-Saint-Jean,4.3227779,50.8543551,molenbeeksaintjean,21012
2,1083,Ganshoren,4.3175103,50.8712396,ganshoren,21008
3,1120,Neder-Over-Heembeek,4.3904888684211,50.89779605,nederoverheembeek,21004
4,1300,Wavre,4.607744,50.7164189,wavre,25112
5,1301,Bierges,4.5894025,50.7111796,bierges,25112
6,1320,L'ecluse,4.8320079,50.7717493,l'ecluse,25005
7,1340,Ottignies,4.5690502,50.666357,ottignies,25121
8,1348,Louvain-La-Neuve,4.6141567317211,50.6741689,louvainlaneuve,25121
9,1350,Orp-Le-Grand,4.9912852,50.7034875,orplegrand,25120
10,1357,Hélécine,4.9822395,50.7514034,helecine,25118
11,1357,Linsmeau,5.0030144,50.7322517,linsmeau,25118
12,1367,Autre-Eglise,4.9249295,50.6631583,autreeglise,25122
13,1390,Grez-Doiceau,4.6962324,50.7386182,grezdoiceau,25037
14,1420,Braine-L'alleud,4.3548145440335,50.6940942,brainel'alleud,25014
15,1440,Wauthier-Braine,4.3133036337455,50.68083185,wauthierbraine,25015
16,1450,Saint-Géry,4.6202848419069,50.57660545,saintgery,25117
17,1457,Nil-Saint-Vincent-Saint-Martin,4.6743285,50.6407147,nilsaintvincentsaintmartin,25124
18,1457,Walhain,4.6952724,50.6182838,walhain,25124
19,1457,Walhain-Saint-Paul,4.6952241,50.6167794,walhainsaintpaul,25124
20,1460,Ittre,4.2611675641255,50.6463367,ittre,25044
21,1471,Loupoigne,4.4319644959116,50.5929226,loupoigne,25031
22,1480,Tubize,4.204696,50.69302,tubize,25105
23,1570,Galmaarden,3.9709983,50.7527192,galmaarden,23023
24,1601,Ruisbroek,4.298610469732,50.7848617,ruisbroek,23077
25,1652,Alsemberg,4.3281703413079,50.7449476,alsemberg,23003
26,1673,Beert,4.1853449364222,50.7354888,beert,23064
27,1730,Asse,4.1804375072845,50.913594,asse,23002
28,1730,Kobbegem,4.2496669,50.9091629,kobbegem,23002
29,1731,Zellik,4.2744185,50.8842475,zellik,23002
30,1750,Sint-Kwintens-Lennik,4.1456163063499,50.81145495,sintkwintenslennik,23104
31,1755,Kester,4.1212845,50.7631284,kester,23024
32,1755,Oetingen,4.0614624,50.7720719,oetingen,23024
33,1760,Pamel,4.0820664787057,50.83471975,pamel,23097
34,1760,Strijtem,4.1145703,50.8405541,strijtem,23097
35,1770,Liedekerke,4.0860754,50.8711313,liedekerke,23044
36,1831,Diegem,4.4365042,50.8945555,diegem,23047
37,1860,Meise,4.3287322,50.9341625,meise,23050
38,1880,Nieuwenrode,4.3512293,50.9799835,nieuwenrode,23039
39,1910,Nederokkerzeel,4.5645096,50.9190127,nederokkerzeel,23038
40,1930,Nossegem,4.5081025949464,50.88499735,nossegem,23094
41,1930,Zaventem,4.4745515,50.8804355,zaventem,23094
42,1933,Sterrebeek,4.5157438438279,50.85395875,sterrebeek,23094
43,1982,Elewijt,4.5075638918541,50.96953845,elewijt,23096
44,2000,Antwerpen,4.3997081,51.2211097,antwerpen,11002
45,2050,Antwerpen,4.3997081,51.2211097,antwerpen,11002
46,2180,Ekeren,4.4322870782182,51.2842045,ekeren,11002
47,2200,Herentals,4.83464460985,51.1855514,herentals,13011
48,2242,Pulderbos,4.7033852099385,51.2257319,pulderbos,11054
49,2243,Pulle,4.6975445276147,51.2011609,pulle,11054
50,2275,Gierle,4.8676797,51.26758,gierle,13019
51,2275,Lille,4.8242404,51.238218,lille,13019
52,2322,Minderhout,4.8070790487489,51.43155825,minderhout,13014
53,2330,Merksplas,4.8627541,51.3580597,merksplas,13023
54,2370,Arendonk,5.0864557,51.3202315,arendonk,13001
55,2380,Ravels,5.0198122919518,51.3808625,ravels,13035
56,2430,Vorst,5.0188161,51.0790117,vorst,13053
57,2431,Varendonk,4.9552253,51.0801317,varendonk,13053
58,2450,Meerhout,5.0772388,51.1317433,meerhout,13021
59,2470,Retie,5.0843883,51.2675862,retie,13036
60,2491,Olmen,5.1648214462792,51.13368515,olmen,13003
61,2500,Lier,4.5696516,51.131069,lier,12021
62,2560,Kessel,4.6393456001407,51.14453105,kessel,12026
63,2560,Nijlen,4.6709517317049,51.1611887,nijlen,12026
64,2590,Berlaar,4.6640387634597,51.10303735,berlaar,12002
65,2620,Hemiksem,4.3420555,51.1442105,hemiksem,11018
66,2800,Mechelen,4.471321199996,51.02803335,mechelen,12025
67,2811,Hombeek,4.4211910518318,51.01166405,hombeek,12025
68,2820,Bonheiden,4.5378217779072,51.0261294,bonheiden,12005
69,2820,Rijmenam,4.5842221,51.0010818,rijmenam,12005
70,2830,Blaasveld,4.3723517,51.0565194,blaasveld,12040
71,2830,Heindonk,4.4066584,51.0670264,heindonk,12040
72,2830,Tisselt,4.3598407,51.033992,tisselt,12040
73,2830,Willebroek,4.3572324644033,51.0626964,willebroek,12040
74,2840,Reet,4.4058899586301,51.1044854,reet,11037
75,2850,Boom,4.3667216,51.0873789,boom,11005
76,2861,Onze-Lieve-Vrouw-Waver,4.5799614,51.0624913,onzelievevrouwwaver,12035
77,2870,Breendonk,4.3136108625549,51.0452687,breendonk,12041
78,2920,Kalmthout,4.4763255,51.3832723,kalmthout,11022
79,2940,Hoevenen,4.4046996,51.3066168,hoevenen,11044
80,2970,'s Gravenwezel,4.5556038,51.2624856,'sgravenwezel,11039
81,3010,Kessel Lo,4.7307614946269,50.88991545,kessello,24062
82,3020,Herent,4.672714,50.9079329,herent,24038
83,3040,Neerijse,4.6290291125613,50.81115135,neerijse,24045
84,3070,Kortenberg,4.5364707039624,50.88326665,kortenberg,24055
85,3078,Meerbeek,4.5972692536847,50.8782935,meerbeek,24055
86,3080,Tervuren,4.5144027,50.8227718,tervuren,24104
87,3150,Tildonk,4.6595165776069,50.94081955,tildonk,24033
88,3200,Gelrode,4.8042730440984,50.9670761,gelrode,24001
89,3220,Sint-Pieters-Rode,4.8291872982184,50.9208131,sintpietersrode,24043
90,3300,Bost,4.9339239586832,50.7846322,bost,24107
91,3300,Oorbeek,4.9137602382894,50.79215565,oorbeek,24107
92,3300,Vissenaken,4.9111431209758,50.84379005,vissenaken,24107
93,3350,Linter,5.0409717,50.8291537,linter,24133
94,3350,Melkwezer,5.0585292480567,50.8249402,melkwezer,24133
95,3360,Korbeek-Lo,4.7561775068454,50.86176115,korbeeklo,24011
96,3380,Bunsbeek,4.9601107928553,50.8510351,bunsbeek,24137
97,3384,Attenrode,4.9167554140969,50.8694607,attenrode,24137
98,3391,Meensel-Kiezegem,4.9173431325348,50.8950541,meenselkiezegem,24135
99,3400,Ezemaal,4.997333783131,50.7766242,ezemaal,24059
100,3400,Rumsdorp,5.0695564232804,50.76917005,rumsdorp,24059
101,3440,Helen-Bos,5.0802259143417,50.83603965,helenbos,24130
102,3471,Hoeleden,5.0014628020046,50.8668096,hoeleden,24054
103,3510,Kermt,5.2509784643733,50.9524495,kermt,71022
104,3530,Houthalen-Helchteren,5.3713044,51.0281818,houthalenhelchteren,72039
105,3540,Herk-De-Stad,5.1884301868953,50.9222911,herkdestad,71024
106,3540,Schulen,5.171672949688,50.9533364,schulen,71024
107,3580,Beringen,5.2208090823008,51.0502026,beringen,71004
108,3620,Gellik,5.6091315,50.8839456,gellik,73042
109,3620,Neerharen,5.680982,50.907778,neerharen,73042
110,3630,Mechelen-Aan-De-Maas,5.6456979557208,50.9764002,mechelenaandemaas,73107
111,3631,Boorsem,5.7147232,50.9408858,boorsem,73107
112,3640,Kinrooi,5.7414564606985,51.14313325,kinrooi,72018
113,3670,Ellikom,5.5289463613944,51.1303479,ellikom,72042
114,3670,Neerglabbeek,5.6181697688959,51.09677995,neerglabbeek,72042
115,3690,Zutendaal,5.5725548,50.9318992,zutendaal,71067
116,3700,Lauw,5.4147831,50.7399124,lauw,73083
117,3700,Neerrepen,5.4449386,50.8121319,neerrepen,73083
118,3700,Piringen,5.4198462,50.7873928,piringen,73083
119,3700,Vreren,5.495696,50.7520293,vreren,73083
120,3700,Widooie,5.409701,50.7719092,widooie,73083
121,3717,Herstappe,5.4260923,50.7273829,herstappe,73028
122,3723,Guigoven,5.4005632276197,50.84255235,guigoven,73040
123,3724,Vliermaal,5.4259091735787,50.8326029,vliermaal,73040
124,3730,Werm,5.4804957,50.8335665,werm,73032
125,3740,Grote-Spouwen,5.5538483,50.832524,grotespouwen,73006
126,3770,Membruggen,5.5391564,50.8178133,membruggen,73066
127,3770,Vlijtingen,5.5895873,50.8329146,vlijtingen,73066
128,3790,Fouron-Saint-Martin,5.8429342279842,50.74087835,fouronsaintmartin,73109
129,3790,Fourons,5.839052712207,50.7465898,fourons,73109
130,3792,Fouron-Saint-Pierre,5.8242427123549,50.72830265,fouronsaintpierre,73109
131,3793,Teuven,5.8695304694514,50.75322225,teuven,73109
132,3800,Zepperen,5.2579163290148,50.840318,zepperen,71053
133,3831,Herten,5.3322359627296,50.82704785,herten,73098
134,3840,Broekom,5.3324575,50.7819071,broekom,73009
135,3840,Kolmont,5.4206775,50.8027416,kolmont,73083
136,3840,Kuttekoven,5.3310338354044,50.8140833,kuttekoven,73009
137,3850,Binderveld,5.1684479293466,50.86548295,binderveld,71045
138,3850,Kozen,5.2414389,50.8752909,kozen,71045
139,3850,Nieuwerkerken,5.1909741787579,50.87457545,nieuwerkerken,71045
140,3870,Mettekoven,5.2896635,50.7803053,mettekoven,73022
141,3890,Gingelom,5.1325789475434,50.7513838,gingelom,71017
142,3890,Kortijs,5.1485502564418,50.7052793,kortijs,71017
143,3890,Montenaken,5.1386239079133,50.71838125,montenaken,71017
144,3891,Borlo,5.1743785728014,50.7345174,borlo,71017
145,3920,Lommel,5.3076895,51.2305657,lommel,72020
146,3940,Hechtel-Eksel,5.3415643775263,51.11664635,hechteleksel,72038
147,3945,Ham,5.1781109743218,51.11417145,ham,71069
148,3960,Bree,5.6229805058514,51.1386239,bree,72004
149,3971,Heppen,5.2265355962879,51.11582725,heppen,71034
150,4031,Angleur,5.5954054,50.6128164,angleur,62063
151,4041,Milmort,5.5929155,50.6904632,milmort,62051
152,4102,Ougrée,5.5389943,50.5992632,ougree,62096
153,4120,Neupré,5.4901079,50.5431751,neupre,62121
154,4120,Rotheux-Rimière,5.4811796,50.5353385,rotheuxrimiere,62121
155,4162,Hody,5.5009881,50.4869156,hody,61079
156,4170,Comblain-Au-Pont,5.5764707268884,50.474910743586,comblainaupont,62026
157,4190,Ferrières,5.605138,50.3999541,ferrieres,61019
158,4217,Héron,5.0971783,50.5508203,heron,61028
159,4217,Waret-L'evêque,5.0671316,50.5557893,waretl'eveque,61028
160,4250,Boëlhe,5.1679183,50.6841901,boelhe,64029
161,4250,Lens-Saint-Servais,5.16091,50.6637114,lenssaintservais,64029
162,4260,Fumal,5.184607,50.586887,fumal,64015
163,4280,Abolens,5.1498313,50.6720609,abolens,64034
164,4280,Avin,5.067671,50.620859,avin,64034
165,4280,Blehen,5.1255375,50.6629289,blehen,64034
166,4280,Grand-Hallet,5.0340611,50.6941211,grandhallet,64034
167,4280,Villers-Le-Peuplier,5.09579,50.656503,villerslepeuplier,64034
168,4300,Grand-Axhe,5.2243853,50.6789987,grandaxhe,64074
169,4300,Lantremange,5.2947196,50.7114397,lantremange,64074
170,4300,Oleye,5.2808546,50.7125474,oleye,64074
171,4317,Faimes,5.262322,50.665246,faimes,64076
172,4340,Fooz,5.4376155,50.6762489,fooz,62006
173,4340,Villers-L'evêque,5.4418773,50.7028423,villersl'eveque,62006
174,4342,Hognoul,5.4556394,50.6808099,hognoul,62006
175,4347,Fexhe-Le-Haut-Clocher,5.3985197,50.6660818,fexhelehautclocher,64025
176,4347,Freloux,5.4066762,50.6803347,freloux,64025
177,4350,Pousset,5.3034495,50.6956401,pousset,64063
178,4357,Limont,5.3107335,50.6600262,limont,64023
179,4360,Bergilers,5.3277139,50.7145424,bergilers,64056
180,4367,Fize-Le-Marsal,5.386298,50.701353,fizelemarsal,64021
181,4400,Awirs,5.409295,50.5985223,awirs,62120
182,4400,Flémalle-Grande,5.4729319,50.6155715,flemallegrande,62120
183,4420,Montegnée,5.5190161,50.64257,montegnee,62093
184,4450,Juprelle,5.5290689,50.7106926,juprelle,62060
185,4450,Slins,5.5652092,50.7277246,slins,62060
186,4453,Villers-Saint-Siméon,5.5434045,50.7097826,villerssaintsimeon,62060
187,4460,Bierset,5.4512607,50.6547149,bierset,62118
188,4500,Ben-Ahin,5.1773498,50.5033196,benahin,61031
189,4500,Huy,5.2357453,50.5215385,huy,61031
190,4520,Huccorgne,5.1647622,50.56759,huccorgne,61072
191,4520,Moha,5.1878867,50.5471619,moha,61072
192,4530,Vaux-Et-Borset,5.23141,50.6131537,vauxetborset,61068
193,4530,Villers-Le-Bouillet,5.2619239,50.5750242,villerslebouillet,61068
194,4537,Chapon-Seraing,5.2734472,50.609673,chaponseraing,61063
195,4540,Flône,5.3354736,50.5582387,flone,61003
196,4540,Ombret,5.3371708,50.5442809,ombret,61003
197,4550,Nandrin,5.4190411,50.506355,nandrin,61043
198,4557,Fraiture,5.4196671,50.478693,fraiture,61081
199,4557,Ramelot,5.3286278,50.4644497,ramelot,61081
200,4557,Soheit-Tinlot,5.3766541,50.4794492,soheittinlot,61081
201,4560,Clavier,5.3575692,50.4115085,clavier,61012
202,4560,Terwagne,5.3491827,50.4438855,terwagne,61012
203,4570,Vyle-Et-Tharoul,5.2683004,50.4462845,vyleettharoul,61039
204,4590,Ellemelle,5.442913,50.4664238,ellemelle,61048
205,4600,Richelle,5.695354,50.7171434,richelle,62108
206,4607,Bombaye,5.7429371,50.730153,bombaye,62027
207,4610,Beyne-Heusay,5.6534141,50.6220566,beyneheusay,62015
208,4630,Micheroux,5.7355403,50.6315865,micheroux,62099
209,4651,Battice,5.8194813,50.6482697,battice,63035
210,4653,Bolland,5.7594413,50.6614055,bolland,63035
211,4670,Blégny,5.7252372,50.6727185,blegny,62119
212,4670,Mortier,5.7432715,50.6821815,mortier,62119
213,4671,Housse,5.693985,50.6796259,housse,62119
214,4680,Hermée,5.6186068,50.7087526,hermee,62079
215,4682,Houtain-Saint-Siméon,5.6104199,50.7391753,houtainsaintsimeon,62079
216,4690,Boirs,5.5788622,50.7539251,boirs,62011
217,4690,Eben-Emael,5.6702417,50.7994409,ebenemael,62011
218,4690,Glons,5.5398432,50.7518981,glons,62011
219,4690,Roclenge-Sur-Geer,5.59407,50.756864,roclengesurgeer,62011
220,4710,Lontzen,6.0073447,50.6804233,lontzen,63048
221,4711,Walhorn,6.0469422,50.6750768,walhorn,63048
222,4730,Raeren,6.1108404,50.6761305,raeren,63061
223,4750,Butgenbach,6.2053573,50.4267259,butgenbach,63013
224,4770,Meyerode,6.1884932,50.3288415,meyerode,63001
225,4791,Thommen,6.0743425,50.2190586,thommen,63087
226,4800,Lambermont,5.191001,49.7051899,lambermont,85011
227,4801,Stembert,5.8952801,50.593109,stembert,63079
228,4831,Bilstain,5.9212234,50.623535,bilstain,63046
229,4840,Welkenraedt,5.9723396,50.6627086,welkenraedt,63084
230,4850,Plombières,5.9590725,50.7374801,plombieres,63088
231,4860,Pepinster,5.8037101,50.5675217,pepinster,63058
232,4870,Nessonvaux,5.7371309,50.573671,nessonvaux,62122
233,4870,Trooz,5.6883726,50.5728102,trooz,62122
234,4877,Olne,5.7479948,50.5901199,olne,63057
235,4890,Thimister,5.8650125,50.6529465,thimister,63089
236,4890,Thimister-Clermont,5.8634486463407,50.66298735,thimisterclermont,63089
237,4920,Ernonheid,5.6660069,50.4028521,ernonheid,62009
238,4950,Waimes,6.1117543,50.4149134,waimes,63080
239,4960,Bevercé,6.0391879,50.4415348,beverce,63049
240,4970,Stavelot,5.9308362,50.3940846,stavelot,63073
241,4987,Chevron,5.7299282,50.3819564,chevron,63075
242,4987,La Gleize,5.8459307,50.4128545,lagleize,63075
243,4987,Rahier,5.7786187,50.3860353,rahier,63075
244,5000,Namur,4.849314651989,50.45620385,namur,92094
245,5002,Saint-Servais,4.8351266178881,50.48141855,saintservais,92094
246,5003,Saint-Marc,4.8469587132153,50.4948666,saintmarc,92094
247,5020,Daussoulx,4.8769847282413,50.51724395,daussoulx,92094
248,5030,Ernage,4.6739886,50.5941971,ernage,92142
249,5030,Sauvenière,4.7248074,50.5810646,sauveniere,92142
250,5032,Bothey,4.6524505,50.521822,bothey,92142
251,5060,Falisolle,4.621259,50.4182456,falisolle,92137
252,5070,Aisemont,4.6513189,50.4048557,aisemont,92048
253,5070,Fosses-La-Ville,4.6978935,50.3959512,fosseslaville,92048
254,5080,Villers-Lez-Heest,4.8345691476021,50.5379166,villerslezheest,92141
255,5081,Bovesse,4.7787022193209,50.51440005,bovesse,92141
256,5100,Naninne,4.9316703499006,50.4146082,naninne,92094
257,5100,Wépion,4.8633768,50.4212957,wepion,92094
258,5101,Lives-Sur-Meuse,4.9384059263709,50.47132665,livessurmeuse,92094
259,5101,Loyers,4.9409795174479,50.4580989,loyers,92094
260,5140,Tongrinne,4.623887,50.5157258,tongrinne,92114
261,5150,Franière,4.7317891,50.4389093,franiere,92045
262,5190,Balâtre,4.6382422,50.4983123,balatre,92140
263,5300,Bonneville,5.0338525,50.4709296,bonneville,92003
264,5300,Sclayn,5.0284735,50.4897139,sclayn,92003
265,5310,Aische-En-Refail,4.8359955,50.5988682,aischeenrefail,92035
266,5310,Branchon,4.971969,50.629691,branchon,92035
267,5310,Noville-Sur-Méhaigne,4.8909225,50.6082112,novillesurmehaigne,92035
268,5310,Waret-La-Chaussée,4.9217571,50.5417091,waretlachaussee,92035
269,5330,Maillen,4.9699385,50.3775518,maillen,92006
270,5333,Sorinne-La-Longue,5.0294375,50.3896858,sorinnelalongue,92006
271,5340,Gesves,5.0776175,50.4028535,gesves,92054
272,5340,Haltinne,5.0744138,50.4508568,haltinne,92054
273,5350,Ohey,5.1238439,50.4359066,ohey,92097
274,5361,Mohiville,5.1923275,50.3176664,mohiville,91059
275,5370,Barvaux-Condroz,5.2607234,50.3291239,barvauxcondroz,91064
276,5370,Flostoy,5.1845059,50.3883757,flostoy,91064
277,5377,Heure,5.2963125,50.2945343,heure,91120
278,5380,Fernelmont,4.9746742,50.548118,fernelmont,92138
279,5380,Hemptinne,4.9869761,50.6010427,hemptinne,92138
280,5380,Marchovelette,4.9411438,50.5231886,marchovelette,92138
281,5380,Noville-Les-Bois,4.982708,50.5555805,novillelesbois,92138
282,5380,Pontillas,5.01707,50.5500591,pontillas,92138
283,5503,Sorinnes,4.982409,50.260159,sorinnes,91034
284,5530,Dorinne,4.97325,50.3173377,dorinne,91141
285,5530,Houx,4.8978933,50.3031942,houx,91141
286,5537,Denée,4.7512903,50.3179627,denee,91005
287,5540,Hastière,4.8225541872005,50.1973562,hastiere,91142
288,5540,Waulsort,4.8632452,50.2032886,waulsort,91142
289,5550,Bagimont,4.8751221,49.8241964,bagimont,91143
290,5550,Pussemange,4.8697858,49.8110791,pussemange,91143
291,5550,Sugny,4.9032847,49.8140011,sugny,91143
292,5555,Bièvre,5.0168496,49.9411216,bievre,91015
293,5555,Monceau-En-Ardenne,4.9859857,49.9046481,monceauenardenne,91015
294,5560,Hulsonniaux,4.947825,50.201583,hulsonniaux,91072
295,5561,Celles,5.0058339,50.2312617,celles,91072
296,5562,Custinne,5.0484175,50.2117661,custinne,91072
297,5570,Feschaux,4.910576,50.15093,feschaux,91013
298,5571,Wiesme,4.9767431,50.1487792,wiesme,91013
299,5573,Martouzin-Neuville,5.003949,50.1176141,martouzinneuville,91013
300,5574,Pondrôme,5.008842,50.099609,pondrome,91013
301,5580,Han-Sur-Lesse,5.1877385,50.1254505,hansurlesse,91114
302,5580,Villers-Sur-Lesse,5.1050287385834,50.1442751,villerssurlesse,91114
303,5590,Leignon,5.1102616,50.2687357,leignon,91030
304,5590,Pessoux,5.1707753,50.2825466,pessoux,91030
305,5600,Jamagne,4.531286,50.2180956,jamagne,93056
306,5600,Jamiolle,4.5079027,50.2122411,jamiolle,93056
307,5600,Neuville,5.7242282,50.3868446,neuville,63075
308,5620,Rosée,4.6876566,50.2323028,rosee,93022
309,5630,Daussois,4.455439,50.218825,daussois,93010
310,5630,Villers-Deux-Eglises,4.4827391,50.189702,villersdeuxeglises,93010
311,5640,Graux,4.7203188,50.325597,graux,92087
312,5640,Saint-Gérard,4.7395306,50.3463414,saintgerard,92087
313,5644,Ermeton-Sur-Biert,4.7197934,50.2975439,ermetonsurbiert,92087
314,5651,Berzée,4.4012206,50.2892396,berzee,93088
315,5660,Couvin,4.4955009,50.0524906,couvin,93014
316,5660,Mariembourg,4.5233186,50.0941307,mariembourg,93014
317,5660,Petite-Chapelle,4.505529,49.949789,petitechapelle,93014
318,5670,Le Mesnil,4.6712991,50.030867,lemesnil,93090
319,6010,Couillet,4.468631,50.391219,couillet,52011
320,6043,Ransart,4.481573078145,50.45615655,ransart,52011
321,6060,Gilly,4.485649013438,50.4269705,gilly,52011
322,6061,Montignies-Sur-Sambre,4.4729234863084,50.4109216,montigniessursambre,52011
323,6141,Forchies-La-Marche,4.3198191,50.4383794,forchieslamarche,52022
324,6182,Souvret,4.350827,50.450999,souvret,52015
325,6183,Trazegnies,4.3317415,50.4665295,trazegnies,52015
326,6210,Les Bons Villers,4.4252588130793,50.53495775,lesbonsvillers,52075
327,6210,Rèves,4.4054735658856,50.543725,reves,52075
328,6210,Villers-Perwin,4.4783773,50.5262014,villersperwin,52075
329,6223,Wagnelée,4.5273110200086,50.52262195,wagnelee,52021
330,6230,Buzet,4.3713097181263,50.53893345,buzet,52055
331,6230,Obaix,4.3401322241149,50.53439825,obaix,52055
332,6230,Viesville,4.4030299776693,50.4906258,viesville,52055
333,6240,Farciennes,4.553041,50.4273228,farciennes,52018
334,6250,Aiseau,4.5870152,50.4111232,aiseau,52074
335,6440,Fourbechies,4.3166667,50.1666667,fourbechies,56029
336,6460,Bailièvre,4.238617,50.069276,bailievre,56016
337,6460,Robechies,4.278378,50.072802,robechies,56016
338,6460,Villers-La-Tour,4.26287,50.035369,villerslatour,56016
339,6464,Bourlers,4.341293,50.027359,bourlers,56016
340,6464,L'escaillère,4.431664,49.947246,l'escaillere,56016
341,6500,Leugnies,4.196155,50.224642,leugnies,56005
342,6536,Donstiennes,4.3119991,50.2854167,donstiennes,56078
343,6540,Mont-Sainte-Geneviève,4.2377392,50.3766211,montsaintegenevieve,56044
344,6560,Erquelinnes,4.1241436,50.3102184,erquelinnes,56022
345,6567,Merbes-Le-Château,4.1644816,50.3234035,merbeslechateau,56049
346,6593,Macquenoise,4.1802891,49.9755399,macquenoise,56051
347,6594,Beauwelz,4.156972,50.015365,beauwelz,56051
348,6596,Forge-Philippe,4.2520681,49.96543,forgephilippe,56051
349,6596,Seloignes,4.255615,50.016087,seloignes,56051
350,6600,Villers-La-Bonne-Eau,5.7477792,49.9345566,villerslabonneeau,82003
351,6637,Tintange,5.7518438,49.878638,tintange,82009
352,6640,Sibret,5.6352461,49.968275,sibret,82036
353,6662,Tavigny,5.837773,50.1081487,tavigny,82014
354,6673,Cherain,5.8646609,50.1806741,cherain,82037
355,6690,Bihain,5.8082072,50.2390245,bihain,82032
356,6700,Bonnert,5.8190143,49.7107729,bonnert,81001
357,6700,Heinsch,5.7464566,49.7007526,heinsch,81001
358,6704,Guirsch,5.853381,49.7193575,guirsch,81001
359,6730,Tintigny,5.5185152,49.6820986,tintigny,85039
360,6742,Chantemelle,5.6551334,49.6535106,chantemelle,85009
361,6747,Meix-Le-Tige,5.7187012,49.6151951,meixletige,85034
362,6760,Ethe,5.5766897,49.5814209,ethe,85045
363,6761,Latour,5.5704642,49.5581925,latour,85045
364,6767,Torgny,5.4735035,49.5085018,torgny,85047
365,6769,Villers-La-Loue,5.481043,49.5749479,villerslaloue,85024
366,6780,Messancy,5.8169286,49.5969055,messancy,81015
367,6780,Wolkrange,5.7983045,49.6350021,wolkrange,81015
368,6812,Suxy,5.4005563,49.7626877,suxy,85007
369,6820,Florenville,5.3100518,49.6993182,florenville,85011
370,6820,Fontenoille,5.234469,49.71508,fontenoille,85011
371,6821,Lacuisine,5.318262,49.7170106,lacuisine,85011
372,6823,Villers-Devant-Orval,5.331466,49.6185771,villersdevantorval,85011
373,6824,Chassepierre,5.2621817,49.7076905,chassepierre,85011
374,6836,Dohan,5.1418578,49.7973741,dohan,84010
375,6840,Grandvoir,5.3717959,49.8576034,grandvoir,84043
376,6840,Tournay,5.3969928,49.8543387,tournay,84043
377,6856,Fays-Les-Veneurs,5.1607144,49.8662058,fayslesveneurs,84050
378,6860,Mellier,5.5209461,49.7671531,mellier,84033
379,6860,Witry,5.6138516,49.8589203,witry,84033
380,6870,Arville,5.3166577,50.0323986,arville,84059
381,6870,Awenne,5.306188,50.074242,awenne,84059
382,6870,Hatrival,5.348119,50.0052874,hatrival,84059
383,6870,Saint-Hubert,5.3738561,50.0251428,sainthubert,84059
384,6880,Cugnon,5.2033082,49.8020427,cugnon,84009
385,6887,Herbeumont,5.2377736,49.7815364,herbeumont,84029
386,6887,Straimont,5.3811714,49.7961667,straimont,84029
387,6890,Anloy,5.2215609,49.9499043,anloy,84035
388,6920,Wellin,5.1146708,50.0822967,wellin,84075
389,6927,Bure,5.261162,50.0885262,bure,84068
390,6927,Grupont,5.2798077,50.0923432,grupont,84068
391,6929,Gembes,5.063233,49.997198,gembes,84016
392,6940,Grandhan,5.4086678,50.3299795,grandhan,83012
393,6940,Septon,5.423028,50.3570338,septon,83012
394,6941,Heyd,5.562158,50.346445,heyd,83012
395,6941,Izier,5.5793252,50.3848936,izier,83012
396,6951,Bande,5.4154822,50.1665822,bande,83040
397,6953,Ambly,5.3142288,50.1441815,ambly,83040
398,6953,Lesterny,5.2799209,50.1109713,lesterny,83040
399,6960,Malempré,5.7155249,50.2816159,malempre,83055
400,6960,Vaux-Chavanne,5.6968767,50.3021516,vauxchavanne,83055
401,6972,Erneuville,5.5507905,50.1137831,erneuville,83049
402,6980,La Roche-En-Ardenne,5.5701521878995,50.182916023074,larocheenardenne,83031
403,6990,Hampteau,5.4729019,50.2579039,hampteau,83028
404,6990,Marenne,5.4165812,50.2418351,marenne,83028
405,7020,Maisières,3.962763,50.4901522,maisieres,53053
406,7021,Havre,4.0453329,50.4643434,havre,53053
407,7024,Ciply,3.9438349,50.4193042,ciply,53053
408,7033,Cuesmes,3.9206652,50.436171,cuesmes,53053
409,7050,Herchies,3.8577095,50.528238,herchies,53044
410,7060,Horrues,4.0413076,50.6093445,horrues,55040
411,7070,Gottignies,4.0622054,50.4971875,gottignies,55035
412,7070,Mignault,4.152112,50.5291801,mignault,55035
413,7080,Frameries,3.8905656,50.4087571,frameries,53028
414,7080,La Bouverie,3.8774491,50.407951,labouverie,53028
415,7090,Braine-Le-Comte,4.1425138,50.6123481,brainelecomte,55004
416,7090,Steenkerque,4.0698505,50.6432692,steenkerque,55004
417,7100,Haine-Saint-Paul,4.1883094,50.454942,hainesaintpaul,58001
418,7110,Houdeng-Aimeries,4.1524459,50.4835958,houdengaimeries,58001
419,7133,Buvrinnes,4.2055425,50.3897538,buvrinnes,58002
420,7134,Epinois,4.2093685,50.4049792,epinois,58002
421,7134,Leval-Trahegnies,4.218073,50.416547,levaltrahegnies,58002
422,7180,Seneffe,4.2664609240834,50.52505545,seneffe,55085
423,7190,Ecaussinnes-D'enghien,4.1776303,50.5714795,ecaussinnesd'enghien,55050
424,7190,Marche-Lez-Ecaussinnes,4.1832813,50.5468953,marchelezecaussinnes,55050
425,7301,Hornu,3.8276077,50.4337613,hornu,53014
426,7321,Blaton,3.6611754,50.5011724,blaton,51009
427,7321,Harchies,3.6936,50.4794445,harchies,51009
428,7330,Saint-Ghislain,3.8214781396442,50.448359502766,saintghislain,53070
429,7340,Warquignies,3.8223517,50.4002638,warquignies,53082
430,7350,Hensies,3.6847215,50.4328388,hensies,53039
431,7387,Angre,3.6954509,50.366983,angre,53083
432,7387,Angreau,3.6911259,50.3509285,angreau,53083
433,7387,Montignies-Sur-Roc,3.7333223,50.3680079,montigniessurroc,53083
434,7522,Hertain,3.2880161,50.6141111,hertain,57081
435,7533,Thimougies,3.5102508,50.6349458,thimougies,57081
436,7536,Vaulx,3.426172,50.589889,vaulx,57081
437,7538,Vezon,3.5017888,50.5683976,vezon,57081
438,7540,Melles,3.4818996,50.646728,melles,57081
439,7540,Rumillies,3.4372618,50.6201039,rumillies,57081
440,7543,Mourcourt,3.445164,50.6530409,mourcourt,57081
441,7600,Péruwelz,3.5908864,50.5097897,peruwelz,57064
442,7604,Wasmes-Audemez-Briffoeil,3.5352247,50.5539524,wasmesaudemezbriffoeil,57064
443,7608,Wiers,3.533035,50.508665,wiers,57064
444,7620,Bléharies,3.4155171,50.5131151,bleharies,57093
445,7621,Lesdain,3.3880963285681,50.520291,lesdain,57093
446,7623,Rongy,3.3815632027097,50.50665205,rongy,57093
447,7640,Antoing,3.4513116,50.565911,antoing,57003
448,7712,Herseaux,3.2342044,50.7227127,herseaux,57096
449,7730,Néchin,3.2690175,50.6669438,nechin,57027
450,7740,Warcoing,3.3451985,50.702173,warcoing,57062
451,7743,Obigies,3.364281,50.662055,obigies,57062
452,7784,Bas-Warneton,2.9625206,50.7588153,baswarneton,57097
453,7784,Warneton,2.9502023,50.7529932,warneton,57097
454,7800,Lanquesaint,3.8042549,50.6534242,lanquesaint,51004
455,7802,Ormeignies,3.7516336,50.5947224,ormeignies,51004
456,7804,Rebaix,3.7836911,50.660198,rebaix,51004
457,7812,Ligne,3.7054981,50.6222783,ligne,51004
458,7812,Moulbaix,3.7156806,50.600191,moulbaix,51004
459,7812,Villers-Notre-Dame,3.7360962,50.617881,villersnotredame,51004
460,7822,Meslin-L'evêque,3.8480962,50.6485784,meslinl'eveque,51004
461,7830,Graty,3.9967288,50.6311726,graty,51068
462,7830,Hellebecq,3.8887882,50.663165,hellebecq,51068
463,7850,Enghien,4.0406912,50.6927553,enghien,51067
464,7860,Lessines,3.8301131,50.7123036,lessines,51069
465,7861,Papignies,3.819132,50.6861533,papignies,51069
466,7864,Deux-Acren,3.8522036,50.7307336,deuxacren,51069
467,7870,Bauffe,3.8537045,50.5701441,bauffe,53046
468,7870,Cambron-Saint-Vincent,3.9162237,50.5827811,cambronsaintvincent,53046
469,7904,Pipaix,3.575887,50.582865,pipaix,57094
470,7904,Tourpes,3.6493593,50.572688,tourpes,57094
471,7910,Anvaing,3.5617225,50.6817661,anvaing,51065
472,7911,Buissenal,3.6551307,50.6648633,buissenal,51065
473,7911,Moustier,3.619931,50.6557475,moustier,51065
474,7912,Saint-Sauveur,3.5977459,50.7061803,saintsauveur,51065
475,7940,Brugelette,3.8546563,50.5954253,brugelette,51012
476,7940,Cambron-Casteau,3.8807488,50.5885597,cambroncasteau,51012
477,7941,Attre,3.8410951,50.6102428,attre,51012
478,7943,Gages,3.8910777,50.6068018,gages,51012
479,7950,Tongre-Saint-Martin,3.7907921,50.5860413,tongresaintmartin,51014
480,7972,Aubechies,3.6769173,50.573932,aubechies,51008
481,8210,Veldegem,3.1606518,51.1048944,veldegem,31040
482,8370,Uitkerke,3.1404868099971,51.2996935,uitkerke,31004
483,8377,Meetkerke,3.1469831971503,51.2356311,meetkerke,31042
484,8380,Lissewege,3.1991824156265,51.31711375,lissewege,31005
485,8433,Schore,2.8402112,51.1110889,schore,35011
486,8434,Lombardsijde,2.7549864166944,51.15402425,lombardsijde,35011
487,8460,Oudenburg,3.0061089520182,51.20118315,oudenburg,35014
488,8460,Roksem,3.0333284671459,51.1662204,roksem,35014
489,8470,Gistel,2.9670810948205,51.1582502,gistel,35005
490,8470,Snaaskerke,2.9333678137411,51.17625885,snaaskerke,35005
491,8510,Marke,3.2336226,50.8070452,marke,34022
492,8520,Kuurne,3.2736322150643,50.86005145,kuurne,34023
493,8530,Harelbeke,3.3425511,50.8293249,harelbeke,34013
494,8540,Deerlijk,3.3622790229139,50.83878495,deerlijk,34009
495,8553,Otegem,3.4245499365566,50.80927585,otegem,34042
496,8560,Moorsele,3.1549318040629,50.84259085,moorsele,34041
497,8587,Espierres,3.3465264652837,50.72568025,espierres,34043
498,8600,Beerst,2.873227743412,51.05367055,beerst,32003
499,8600,Driekapellen,3.9855229,50.7059709,driekapellen,23032
500,8600,Esen,2.8990845692587,51.02078675,esen,32003
501,8600,Lampernisse,2.7703028703735,51.0396362,lampernisse,32003
502,8620,Nieuwpoort,2.7283986495034,51.14416005,nieuwpoort,38016
503,8620,Ramskapelle,2.7811249526825,51.10665355,ramskapelle,38016
504,8630,Bulskamp,2.6434487702288,51.0444613,bulskamp,38025
505,8650,Houthulst,2.9438110508216,50.97407785,houthulst,32006
506,8670,Wulpen,2.7073119164927,51.09779175,wulpen,38014
507,8690,Alveringem,2.7225688102727,51.01509585,alveringem,38002
508,8700,Kanegem,3.4035567083156,51.021401,kanegem,37015
509,8720,Oeselgem,3.429680547389,50.94008805,oeselgem,37002
510,8740,Pittem,3.2622730034453,50.99996475,pittem,37011
511,8800,Beveren,3.14416,50.9687312,beveren,36015
512,8810,Lichtervelde,3.1422717715338,51.03033065,lichtervelde,36011
513,8840,Staden,3.001340623187,50.97048785,staden,36019
514,8850,Ardooie,3.2045936674459,50.97076545,ardooie,37020
515,8870,Izegem,3.2090654210557,50.91382225,izegem,36008
516,8880,Sint-Eloois-Winkel,3.179116,50.8765142,sintelooiswinkel,36010
517,8890,Dadizele,3.1056665757612,50.84693275,dadizele,36012
518,8890,Moorslede,3.0732075972642,50.89006565,moorslede,36012
519,8900,Sint-Jan,2.9038085,50.8646017,sintjan,33011
520,8904,Boezinge,2.8624482523982,50.89329445,boezinge,33011
521,8940,Geluwe,3.0689009201802,50.826939,geluwe,33029
522,8940,Wervik,3.0429882329964,50.79981455,wervik,33029
523,8950,Nieuwkerke,2.8251932,50.7457387,nieuwkerke,33039
524,8970,Poperinge,2.7222592638771,50.84362245,poperinge,33021
525,8972,Roesbrugge-Haringe,2.6262588,50.9150531,roesbruggeharinge,33021
526,8980,Beselare,3.0293494282427,50.85048855,beselare,33037
527,8980,Geluveld,2.9962568059484,50.8340552,geluveld,33037
528,9070,Destelbergen,3.7978887,51.0556204,destelbergen,44013
529,9080,Zaffelare,3.8601634,51.1323736,zaffelare,44034
530,9090,Gontrode,3.7976423,50.9842505,gontrode,44040
531,9090,Melle,3.7988833,51.00303,melle,44040
532,9100,Nieuwkerken-Waas,4.1780279,51.1933908,nieuwkerkenwaas,46021
533,9100,Sint-Niklaas,4.149464320724,51.163813060072,sintniklaas,46021
534,9120,Haasdonk,4.2383861,51.1806482,haasdonk,46003
535,9120,Melsele,4.2821446,51.2211394,melsele,46003
536,9140,Steendorp,4.2646567358993,51.1310863,steendorp,46025
537,9140,Temse,4.2133505278525,51.1421436,temse,46025
538,9150,Rupelmonde,4.2906315,51.1283692,rupelmonde,46013
539,9200,Mespelare,4.0652617659305,50.99557415,mespelare,42006
540,9220,Moerzeke,4.1585956393745,51.06183125,moerzeke,42008
541,9230,Wetteren,3.8855494,51.0068804,wetteren,42025
542,9255,Opdorp,4.2213781726505,51.0286063,opdorp,42004
543,9260,Wichelen,3.9806438098974,51.0020843,wichelen,42026
544,9308,Gijzegem,4.0413684723722,50.9831967,gijzegem,41002
545,9320,Nieuwerkerken,4.0060975097656,50.92226365,nieuwerkerken,41002
546,9340,Oordegem,3.90209,50.9574043,oordegem,41034
547,9400,Appelterre-Eichem,3.9673266115113,50.819114,appelterreeichem,41048
548,9400,Denderwindeke,4.0241352,50.7986183,denderwindeke,41048
549,9400,Lieferinge,4.0533344,50.7918522,lieferinge,41048
550,9403,Neigem,4.0606636,50.803005,neigem,41048
551,9420,Ottergem,3.9468882,50.9341483,ottergem,41082
552,9500,Geraardsbergen,3.879789,50.7689045,geraardsbergen,41018
553,9500,Overboelare,3.8625157,50.7622936,overboelare,41018
554,9521,Letterhoutem,3.8812597,50.92696,letterhoutem,41063
555,9551,Ressegem,3.9109808,50.8920791,ressegem,41027
556,9552,Borsbeke,3.8945771,50.9047179,borsbeke,41027
557,9570,Deftinge,3.8409061,50.7863579,deftinge,45063
558,9570,Sint-Maria-Lierde,3.8370299582538,50.8217365,sintmarialierde,45063
559,9620,Grotenberge,3.8333978,50.872305,grotenberge,41081
560,9620,Leeuwergem,3.829278,50.8880639,leeuwergem,41081
561,9620,Velzeke-Ruddershove,3.7825766,50.8824839,velzekeruddershove,41081
562,9630,Meilegem,3.6992879,50.9051876,meilegem,45065
563,9630,Paulatem,3.7148522,50.8963806,paulatem,45065
564,9630,Sint-Maria-Latem,3.7059521,50.890215,sintmarialatem,45065
565,9660,Opbrakel,3.7463234,50.7921614,opbrakel,45059
566,9667,Sint-Maria-Horebeke,3.6875097,50.8383442,sintmariahorebeke,45062
567,9680,Maarkedal,3.642779,50.7973072,maarkedal,45064
568,9700,Eine,3.6226347,50.8695429,eine,45035
569,9700,Melden,3.5655354,50.8155547,melden,45035
570,9700,Mullem,3.6039655,50.8964155,mullem,45035
571,9700,Volkegem,3.6356493,50.8408663,volkegem,45035
572,9750,Zingem,3.653793,50.9039326,zingem,45068
573,9790,Elsegem,3.5366137,50.8247164,elsegem,45061
574,9790,Petegem-Aan-De-Schelde,3.5581136,50.8330877,petegemaandeschelde,45061
575,9800,Bachte-Maria-Leerne,3.5624453,51.0038237,bachtemarialeerne,44083
576,9800,Deinze,3.5274017,50.9840526,deinze,44083
577,9800,Gottem,3.4640122,50.9646883,gottem,44083
578,9800,Wontergem,3.4443004,50.9786839,wontergem,44083
579,9800,Zeveren,3.5031988,50.9967515,zeveren,44083
580,9810,Eke,3.6418029,50.9569377,eke,44048
581,9820,Melsen,3.6928827,50.9579283,melsen,44043
582,9831,Deurle,3.6111658724762,51.0000909,deurle,44064
583,9850,Landegem,3.5888091437976,51.0546369,landegem,44083
584,9850,Nevele,3.5491068,51.0330372,nevele,44083
585,9880,Aalter,3.4176803282422,51.088195,aalter,44084
586,9880,Poeke,3.4455642,51.0414698,poeke,44084
587,9910,Knesselare,3.412339,51.1392692,knesselare,44084
588,9932,Ronsele,3.5532444,51.1303816,ronsele,44085
589,9940,Sleidinge,3.6789045,51.131929,sleidinge,44019
590,9980,Sint-Laureins,3.5374820679851,51.2330483,sintlaureins,43014
591,1020,Laeken,4.3487134,50.883392,laeken,21004
592,1030,Schaerbeek,4.3737121,50.8676041,schaerbeek,21015
593,1090,Jette,4.3260903,50.8777634,jette,21010
594,1140,Evere,4.4021602,50.8704524,evere,21006
595,1170,Watermael-Boitsfort,4.4158177,50.799394,watermaelboitsfort,21017
596,1200,Woluwe-Saint-Lambert,4.4284842,50.8466928,woluwesaintlambert,21018
597,1210,Saint-Josse-Ten-Noode,4.3723364,50.8530739,saintjossetennoode,21014
598,1331,Rosières,4.5463113019639,50.73713045,rosieres,25091
599,1340,Ottignies-Louvain-La-Neuve,4.5804937701303,50.6726725,ottignieslouvainlaneuve,25121
600,1350,Enines,4.9260633,50.6943193,enines,25120
601,1350,Jauche,4.9552091,50.6816078,jauche,25120
602,1350,Marilles,4.9529173,50.7072943,marilles,25120
603,1350,Noduwez,4.9640083,50.7293197,noduwez,25120
604,1357,Neerheylissem,4.9890154,50.7567681,neerheylissem,25118
605,1357,Opheylissem,4.9780806,50.7478407,opheylissem,25118
606,1360,Orbais,4.7631073,50.6376269,orbais,25084
607,1360,Thorembais-Les-Béguines,4.8183242,50.6584082,thorembaislesbeguines,25084
608,1370,Dongelberg,4.8203333,50.7016251,dongelberg,25048
609,1370,Jodoigne-Souveraine,4.8405644,50.7081169,jodoignesouveraine,25048
610,1370,Lathuy,4.824622,50.7230097,lathuy,25048
611,1370,Saint-Jean-Geest,4.8957659,50.7397177,saintjeangeest,25048
612,1370,Saint-Remy-Geest,4.8583707,50.7471089,saintremygeest,25048
613,1380,Couture-Saint-Germain,4.4825691512066,50.6628104,couturesaintgermain,25119
614,1380,Plancenoit,4.4212124182736,50.66254755,plancenoit,25119
615,1390,Nethen,4.6736552349571,50.78382875,nethen,25037
616,1401,Baulers,4.3586482570372,50.6172472,baulers,25072
617,1430,Bierghes,4.1227257983451,50.69657845,bierghes,25123
618,1435,Mont-Saint-Guibert,4.6127019,50.6365628,montsaintguibert,25068
619,1440,Braine-Le-Château,4.2666690726132,50.68088165,brainelechateau,25015
620,1470,Bousval,4.5192034141632,50.63205335,bousval,25031
621,1472,Vieux-Genappe,4.4015030981612,50.62902485,vieuxgenappe,25031
622,1474,Ways,4.4729429472611,50.6269861,ways,25031
623,1495,Sart-Dames-Avelines,4.4895548874612,50.554167,sartdamesavelines,25107
624,1495,Tilly,4.5522187220517,50.57640235,tilly,25107
625,1540,Herfelingen,4.0974868,50.747729,herfelingen,23032
626,1540,Herne,4.0260115663497,50.72329555,herne,23032
627,1541,Sint-Pieters-Kapelle,3.9985766720315,50.70721955,sintpieterskapelle,23032
628,1570,Vollezele,4.0247359,50.76088,vollezele,23023
629,1600,Oudenaken,4.1958992,50.7804875,oudenaken,23077
630,1600,Sint-Pieters-Leeuw,4.2452186173064,50.78118355,sintpietersleeuw,23077
631,1620,Drogenbos,4.3173542,50.786532,drogenbos,23098
632,1651,Lot,4.2729986221483,50.76514035,lot,23003
633,1674,Bellingen,4.1601450278998,50.73779765,bellingen,23064
634,1700,Sint-Martens-Bodegem,4.2150592,50.8627233,sintmartensbodegem,23016
635,1700,Sint-Ulriks-Kapelle,4.2206526,50.8800337,sintulrikskapelle,23016
636,1701,Itterbeek,4.2501187,50.8395994,itterbeek,23016
637,1702,Groot-Bijgaarden,4.2635668372339,50.8714357,grootbijgaarden,23016
638,1755,Leerbeek,4.1192641,50.7773538,leerbeek,23024
639,1785,Brussegem,4.2658869,50.9277713,brussegem,23052
640,1790,Teralfene,4.09834,50.8921419,teralfene,23105
641,1820,Perk,4.4960702,50.9331623,perk,23081
642,1840,Malderen,4.2437819,51.0198436,malderen,23045
643,1840,Steenhuffel,4.2624672,50.9944384,steenhuffel,23045
644,1850,Grimbergen,4.4013732626459,50.95030565,grimbergen,23025
645,1880,Kapelle-Op-Den-Bos,4.3599725,51.0131904,kapelleopdenbos,23039
646,1910,Buken,4.617418,50.937546,buken,23038
647,1950,Kraainem,4.4691371,50.8606105,kraainem,23099
648,1980,Eppegem,4.4556575,50.961429,eppegem,23096
649,1981,Hofstade,4.5042526607237,50.9939033,hofstade,23096
650,2040,Antwerpen,4.3997081,51.2211097,antwerpen,11002
651,2140,Borgerhout,4.4403895064496,51.21029905,borgerhout,11002
652,2220,Heist-Op-Den-Berg,4.7193765534389,51.06251415,heistopdenberg,12014
653,2221,Booischot,4.7692867998141,51.0471677,booischot,12014
654,2230,Ramsel,4.8336098,51.0324718,ramsel,13013
655,2235,Houtvenne,4.8012932645531,51.04605145,houtvenne,13016
656,2260,Zoerle-Parwijs,4.8729402,51.0880889,zoerleparwijs,13049
657,2280,Grobbendonk,4.7318844301963,51.18870335,grobbendonk,13010
658,2381,Weelde,5.0182445420616,51.41206885,weelde,13035
659,2387,Baarle-Hertog,4.9004051710883,51.412750431352,baarlehertog,13002
660,2390,Malle,4.7149828,51.3001124,malle,11057
661,2390,Oostmalle,4.7331618,51.3019209,oostmalle,11057
662,2430,Eindhout,4.9972890275518,51.10171295,eindhout,13053
663,2460,Kasterlee,4.967812,51.2407915,kasterlee,13017
664,2460,Lichtaart,4.9037390737022,51.2309182,lichtaart,13017
665,2520,Oelegem,4.5972162,51.2110687,oelegem,11035
666,2540,Hove,4.477387,51.1486117,hove,11021
667,2570,Duffel,4.5061988,51.0957176,duffel,12009
668,2580,Beerzel,4.6630807412987,51.06299735,beerzel,12029
669,2630,Aartselaar,4.3870241,51.133297,aartselaar,11001
670,2660,Hoboken,4.3511502171395,51.1757824,hoboken,11002
671,2860,Sint-Katelijne-Waver,4.5114278140147,51.06232435,sintkatelijnewaver,12035
672,2950,Kapellen,4.4312318305558,51.332759,kapellen,11023
673,2960,Brecht,4.5972381789962,51.3347679,brecht,11009
674,3012,Wilsele,4.7136294,50.9095362,wilsele,24062
675,3020,Veltem-Beisem,4.6255138,50.9020979,veltembeisem,24038
676,3040,Huldenberg,4.5828587400028,50.7950895,huldenberg,24045
677,3040,Ottenburg,4.6258024576448,50.7540955,ottenburg,24045
678,3052,Blanden,4.7056796612254,50.8281673,blanden,24086
679,3080,Vossem,4.5565660886042,50.83488335,vossem,24104
680,3150,Haacht,4.6386824,50.9769286,haacht,24033
681,3202,Rillaar,4.8970494266873,50.97591095,rillaar,24001
682,3220,Holsbeek,4.7557296717686,50.92172015,holsbeek,24043
683,3271,Averbode,4.9770845794874,51.0278406,averbode,24134
684,3271,Zichem,4.984958799435,51.0085771,zichem,24134
685,3290,Deurne,5.0964572,51.0392379,deurne,24020
686,3290,Diest,5.052873496255,50.98456645,diest,24020
687,3300,Hakendover,4.9886552612345,50.7971718,hakendover,24107
688,3320,Hoegaarden,4.88114193614,50.7877912,hoegaarden,24041
689,3321,Outgaarden,4.9193571,50.7665968,outgaarden,24041
690,3350,Neerhespen,5.0579336298623,50.78801405,neerhespen,24133
691,3350,Wommersom,5.0183106289924,50.812361,wommersom,24133
692,3360,Opvelp,4.7912847996064,50.80732735,opvelp,24011
693,3370,Boutersem,4.8336178052558,50.8473461,boutersem,24016
694,3370,Kerkom,4.8643358054912,50.85699665,kerkom,24016
695,3380,Glabbeek,4.9513009,50.8725203,glabbeek,24137
696,3400,Eliksem,5.0074922319452,50.78710135,eliksem,24059
697,3400,Laar,4.4410406,51.2687557,laar,11002
698,3400,Neerwinden,5.0409975765006,50.7652288,neerwinden,24059
699,3400,Overwinden,5.0448025257015,50.75242545,overwinden,24059
700,3401,Waasmont,5.0609420487376,50.72608345,waasmont,24059
701,3401,Walsbets,5.0878535498936,50.7385007,walsbets,24059
702,3450,Grazen,5.1299277800431,50.8754117,grazen,24028
703,3454,Rummen,5.1564917481959,50.88594765,rummen,24028
704,3560,Lummen,5.2025589998731,51.00313255,lummen,71037
705,3570,Alken,5.3079873,50.8754731,alken,73001
706,3582,Koersel,5.271159654589,51.06978945,koersel,71004
707,3600,Genk,5.5001456,50.9654864,genk,71016
708,3630,Leut,5.7355142,50.9921686,leut,73107
709,3630,Maasmechelen,5.696445,50.9635024,maasmechelen,73107
710,3650,Stokkem,5.7508381619462,51.0197939,stokkem,72041
711,3660,Opglabbeek,5.581962,51.0429949,opglabbeek,72042
712,3670,Meeuwen,5.5029170798132,51.07822635,meeuwen,72042
713,3670,Wijshagen,5.532541372001,51.0770409,wijshagen,72042
714,3700,'s Herenelderen,5.5030479,50.8064756,'sherenelderen,73083
715,3700,Berg,5.1521172,51.1695659,berg,13003
716,3700,Haren,4.4125708732431,50.8919661,haren,21004
717,3700,Kolmont,5.4206775,50.8027416,kolmont,73083
718,3700,Mal,5.5223906,50.7689604,mal,73083
719,3700,Nerem,5.5102044,50.7630913,nerem,73083
720,3700,Sluizen,2.7568247,51.133268,sluizen,38016
721,3740,Bilzen,5.5163011,50.8713356,bilzen,73006
722,3740,Waltwilder,5.5464648,50.8638819,waltwilder,73006
723,3770,Genoelselderen,5.5369013,50.8017668,genoelselderen,73066
724,3791,Remersdaal,5.8818776028446,50.72838165,remersdaal,73109
725,3800,Ordingen,5.2381902322176,50.8137716,ordingen,71053
726,3803,Duras,5.1461581286779,50.83411245,duras,71053
727,3806,Velm,5.1322112767812,50.78000075,velm,71053
728,3840,Gors-Opleeuw,5.3849412792168,50.8308593,gorsopleeuw,73009
729,3870,Opheers,5.2944311,50.7366903,opheers,73022
730,3870,Rukkelingen-Loon,5.2539162,50.7278444,rukkelingenloon,73022
731,3870,Veulen,5.3063809,50.7633827,veulen,73022
732,3910,Sint-Huibrechts-Lille,5.4937001151083,51.2253075,sinthuibrechtslille,72043
733,3940,Hechtel,5.3415643775263,51.11664635,hechtel,72038
734,3941,Eksel,5.3440439268887,51.1567865,eksel,72038
735,3980,Tessenderlo,5.0893974,51.0681628,tessenderlo,71057
736,4000,Glain,5.541864,50.648205,glain,62063
737,4000,Liège,5.5734203,50.6451381,liege,62063
738,4032,Chênee,5.619261,50.6111024,chenee,62063
739,4041,Vottem,5.5846274,50.672653,vottem,62051
740,4050,Chaudfontaine,5.6469688,50.5847922,chaudfontaine,62022
741,4121,Neuville-En-Condroz,5.4514318,50.5520337,neuvilleencondroz,62121
742,4122,Plainevaux,5.5215011,50.5446771,plainevaux,62121
743,4140,Sprimont,5.6466570762919,50.5065636,sprimont,62100
744,4141,Louveigné,5.7172477995985,50.5248417,louveigne,62100
745,4171,Poulseur,5.5827847,50.5097627,poulseur,62026
746,4180,Comblain-Fairon,5.5428656,50.4454473,comblainfairon,61024
747,4180,Hamoir,5.5328465,50.4253958,hamoir,61024
748,4181,Filot,5.5680501,50.426751,filot,61024
749,4190,Werbomont,5.686798,50.3800099,werbomont,61019
750,4210,Lamontzée,5.0899261,50.583727,lamontzee,61010
751,4210,Marneffe,5.1448898,50.5790977,marneffe,61010
752,4254,Ligney,5.182381,50.66174,ligney,64029
753,4257,Corswarem,5.2131541,50.7095698,corswarem,64008
754,4260,Avennes,5.1159746,50.6287517,avennes,64015
755,4260,Ville-En-Hesbaye,5.1157512,50.6182889,villeenhesbaye,64015
756,4280,Bertrée,5.089556,50.6941776,bertree,64034
757,4280,Crehen,5.0621464,50.6605954,crehen,64034
758,4280,Hannut,5.0779916,50.6724649,hannut,64034
759,4280,Lens-Saint-Remy,5.1329047,50.6534024,lenssaintremy,64034
760,4280,Merdorp,4.9987365,50.6492972,merdorp,64034
761,4280,Wansin,5.02018,50.678627,wansin,64034
762,4300,Bovenistier,5.2843336,50.6674954,bovenistier,64074
763,4317,Viemme,5.2683121,50.6482877,viemme,64076
764,4340,Othée,5.4680939,50.7159281,othee,62006
765,4367,Kemexhe,5.4060353,50.6961807,kemexhe,64021
766,4367,Odeur,5.4158293,50.707654,odeur,64021
767,4367,Thys,5.3894005,50.7225262,thys,64021
768,4400,Flémalle-Haute,5.4474684,50.6018434,flemallehaute,62120
769,4420,Saint-Nicolas,5.539419,50.6305341,saintnicolas,62093
770,4420,Tilleur,5.5307061,50.620651,tilleur,62093
771,4431,Loncin,5.502732,50.665153,loncin,62003
772,4452,Wihogne,5.5064112,50.7277451,wihogne,62060
773,4480,Clermont-Sous-Huy,5.3922,50.569046,clermontsoushuy,61080
774,4520,Wanze,5.2166503,50.5332587,wanze,61072
775,4530,Warnant-Dreye,5.2254442,50.5951052,warnantdreye,61068
776,4537,Seraing-Le-Château,5.2989318,50.6216405,serainglechateau,61063
777,4537,Verlaine,5.3184439,50.6075114,verlaine,61063
778,4550,Villers-Le-Temple,5.3708571,50.5081151,villersletemple,61043
779,4557,Abée,5.3564571,50.4735257,abee,61081
780,4577,Outrelouxhe,5.335294,50.504232,outrelouxhe,61041
781,4577,Strée-Lez-Huy,5.3271603,50.4922647,streelezhuy,61041
782,4590,Warzée,5.427096,50.4487876,warzee,61048
783,4600,Lanaye,5.6944381,50.7806558,lanaye,62108
784,4606,Saint-André,5.7536486,50.6953487,saintandre,62027
785,4607,Feneur,5.7138885,50.7041818,feneur,62027
786,4607,Mortroux,5.7513854,50.7132408,mortroux,62027
787,4610,Queue-Du-Bois,5.6785831,50.6371513,queuedubois,62015
788,4630,Soumagne,5.739941,50.6147718,soumagne,62099
789,4650,Herve,5.7935245,50.6392112,herve,63035
790,4672,Saint-Remy,5.700802,50.6958409,saintremy,62119
791,4728,Hergenrath,6.0316891,50.7091279,hergenrath,63040
792,4750,Elsenborn,6.2213827,50.4573116,elsenborn,63013
793,4771,Heppenbach,6.218691,50.3631661,heppenbach,63001
794,4821,Andrimont,5.8901888,50.4386821,andrimont,63075
795,4837,Baelen,5.9715011,50.6311898,baelen,63004
796,4837,Membach,5.9953656,50.6193792,membach,63004
797,4850,Montzen,5.9620321,50.7075126,montzen,63088
798,4851,Gemmenich,5.9967631,50.7463908,gemmenich,63088
799,4861,Soiron,5.7906072,50.5921673,soiron,63058
800,4900,Spa,5.8626233,50.4920838,spa,63072
801,4910,Polleur,5.873929354985,50.542907,polleur,63076
802,4920,Harzé,5.6672743,50.4409138,harze,62009
803,4950,Faymonville,6.1407071,50.4054037,faymonville,63080
804,4983,Basse-Bodeux,5.826789,50.3579736,bassebodeux,63086
805,5004,Bouge,4.891664450549,50.47887385,bouge,92094
806,5020,Flawinne,4.8120768,50.456602,flawinne,92094
807,5020,Vedrin,4.8742389,50.5019599,vedrin,92094
808,5024,Gelbressée,4.9578287274527,50.5113799,gelbressee,92094
809,5030,Lonzée,4.7273547,50.5533536,lonzee,92142
810,5031,Grand-Leez,4.7609593378472,50.57820735,grandleez,92142
811,5032,Isnes,4.7406918,50.5105186,isnes,92142
812,5032,Mazy,4.6745108,50.5127674,mazy,92142
813,5060,Keumiée,4.5960062,50.4655148,keumiee,92137
814,5060,Sambreville,4.6196692,50.4409806,sambreville,92137
815,5060,Tamines,4.607595,50.4340969,tamines,92137
816,5070,Sart-Saint-Laurent,4.7411668,50.4027187,sartsaintlaurent,92048
817,5080,Emines,4.8279560785714,50.5157255,emines,92141
818,5080,La Bruyère,5.7266989,50.4133942,labruyere,63075
819,5080,Warisoulx,4.8587823219021,50.5348173,warisoulx,92141
820,5140,Ligny,4.5757572,50.5126287,ligny,92114
821,5190,Onoz,4.6696856,50.4923374,onoz,92140
822,5310,Dhuy,4.8573789,50.5596814,dhuy,92035
823,5310,Hanret,4.9440702,50.5834955,hanret,92035
824,5310,Leuze,4.9103111,50.5605615,leuze,92035
825,5310,Saint-Germain,4.8427332,50.5730646,saintgermain,92035
826,5332,Crupet,4.9581149,50.3468626,crupet,92006
827,5334,Florée,5.0704373,50.3730757,floree,92006
828,5360,Hamois,5.1594475,50.3408694,hamois,91059
829,5360,Natoye,5.0562173,50.3413559,natoye,91059
830,5361,Scy,5.2094413,50.3079186,scy,91059
831,5364,Schaltin,5.1237159,50.3579006,schaltin,91059
832,5370,Havelange,5.23958,50.3870946,havelange,91064
833,5377,Baillonville,5.338213,50.288759,baillonville,91120
834,5377,Bonsin,5.3788758,50.3727364,bonsin,91120
835,5377,Nettinne,5.2612996,50.2910362,nettinne,91120
836,5380,Cortil-Wodon,4.958369,50.567323,cortilwodon,92138
837,5380,Franc-Waret,4.9759589,50.5210841,francwaret,92138
838,5500,Falmagne,4.8971396,50.2003101,falmagne,91034
839,5500,Falmignoul,4.8924373,50.2037856,falmignoul,91034
840,5502,Thynes,4.9882689,50.2798224,thynes,91034
841,5523,Sommière,4.8454743,50.274944,sommiere,91103
842,5530,Spontin,5.006949,50.322619,spontin,91141
843,5530,Yvoir,4.8806618,50.3264425,yvoir,91141
844,5537,Anhée,4.8796936,50.310778,anhee,91005
845,5537,Annevoie-Rouillon,4.841866,50.343103,annevoierouillon,91005
846,5537,Haut-Le-Wastia,4.8417104,50.3053165,hautlewastia,91005
847,5537,Sosoye,4.7815722,50.2955787,sosoye,91005
848,5540,Hastière-Lavaux,4.8242423,50.216541,hastierelavaux,91142
849,5543,Heer,4.831747,50.161698,heer,91142
850,5550,Chairière,4.9489546,49.8612272,chairiere,91143
851,5550,Membre,4.9002694,49.8655398,membre,91143
852,5550,Mouzaive,4.9620137,49.8534637,mouzaive,91143
853,5550,Orchimont,4.9274653,49.8936753,orchimont,91143
854,5555,Baillamont,5.0267634,49.8994469,baillamont,91015
855,5555,Bellefontaine,4.973101,49.9177,bellefontaine,91015
856,5555,Cornimont,4.9979774,49.8626123,cornimont,91015
857,5555,Graide,5.0674675,49.9514336,graide,91015
858,5570,Dion,4.8883798,50.1178162,dion,91013
859,5570,Felenne,4.8490158,50.0680742,felenne,91013
860,5570,Javingue,4.9187569,50.1018962,javingue,91013
861,5570,Vonêche,4.9800374,50.0608665,voneche,91013
862,5572,Focant,5.0408552,50.1314538,focant,91013
863,5575,Patignies,4.9521201,49.9999798,patignies,91054
864,5575,Sart-Custinne,4.9175574,50.0014538,sartcustinne,91054
865,5575,Willerzie,4.8475671,49.9874142,willerzie,91054
866,5580,Mont-Gauthier,5.120824,50.2092771,montgauthier,91114
867,5580,Rochefort,5.2140311511356,50.1725817,rochefort,91114
868,5600,Villers-En-Fagne,4.5846227,50.1457902,villersenfagne,93056
869,5630,Soumoy,4.4366472,50.1896906,soumoy,93010
870,5640,Biesme,4.6073303,50.3346461,biesme,92087
871,5640,Mettet,4.6584949,50.3212094,mettet,92087
872,5650,Chastrès,4.4592009,50.2649096,chastres,93088
873,5651,Rognée,4.3892146,50.2691529,rognee,93088
874,5660,Brûly-De-Pesche,4.4602842,50.0009202,brulydepesche,93014
875,5660,Presgaux,4.4206168,50.0247898,presgaux,93014
876,5670,Dourbes,4.59145,50.091356,dourbes,93090
877,5670,Nismes,4.5486173,50.0745275,nismes,93090
878,6000,Charleroi,4.4491649999234,50.41571025,charleroi,52011
879,6031,Monceau-Sur-Sambre,4.382402,50.4170168,monceausursambre,52011
880,6041,Gosselies,4.4301757,50.4653846,gosselies,52011
881,6042,Lodelinsart,4.4489421,50.431853,lodelinsart,52011
882,6120,Marbaix,4.3713936,50.3268072,marbaix,56086
883,6181,Gouy-Lez-Piéton,4.3287132,50.4875628,gouylezpieton,52015
884,6230,Pont-À-Celles,4.3622972938902,50.5043242,pontacelles,52055
885,6238,Liberchies,4.4243830944654,50.5152429,liberchies,52055
886,6238,Luttre,4.3888817117527,50.51456265,luttre,52055
887,6250,Pont-De-Loup,4.5459892,50.4173702,pontdeloup,52074
888,6250,Presles,4.5786617,50.3850088,presles,52074
889,6280,Villers-Poterie,4.547498,50.3513008,villerspoterie,52025
890,6440,Vergnies,4.3059105,50.198614,vergnies,56029
891,6460,Chimay,4.3173338,50.0479266,chimay,56016
892,6460,Saint-Remy,4.309222,50.050354,saintremy,56016
893,6464,Rièzes,4.368311,49.960822,riezes,56016
894,6470,Sivry,4.1792797,50.1678978,sivry,56088
895,6470,Sivry-Rance,4.1899982,50.1640023,sivryrance,56088
896,6500,Beaumont,4.2383115,50.2355294,beaumont,56005
897,6500,Leval-Chaudeville,4.2289677,50.2349363,levalchaudeville,56005
898,6500,Solre-Saint-Géry,4.246304,50.216245,solresaintgery,56005
899,6530,Thuin,4.2870475,50.3397445,thuin,56078
900,6531,Biesme-Sous-Thuin,4.3079897,50.320724,biesmesousthuin,56078
901,6533,Biercée,4.2591396,50.3250862,biercee,56078
902,6542,Sars-La-Buissière,4.209803,50.3352549,sarslabuissiere,56044
903,6590,Momignies,4.1649981,50.0286317,momignies,56051
904,6600,Wardin,5.7857948,49.9902268,wardin,82003
905,6630,Martelange,5.7376366,49.8313323,martelange,81013
906,6637,Hollange,5.6881541,49.9064531,hollange,82009
907,6640,Vaux-Sur-Sûre,5.5908285596978,49.908755829225,vauxsursure,82036
908,6681,Lavacherie,5.5136455,50.052317,lavacherie,82038
909,6700,Toernich,5.7795299,49.6512359,toernich,81001
910,6717,Attert,5.7872217,49.7514982,attert,81003
911,6717,Nothomb,5.7861375,49.7717529,nothomb,81003
912,6717,Thiaumont,5.7291343,49.7159959,thiaumont,81003
913,6724,Houdemont,5.5843337,49.7189016,houdemont,85046
914,6740,Villers-Sur-Semois,5.5614663,49.6987456,villerssursemois,85009
915,6750,Musson,5.705881,49.5580794,musson,85026
916,6760,Bleid,5.6272894,49.5680419,bleid,85045
917,6762,Saint-Mard,5.5284511,49.5577562,saintmard,85045
918,6769,Gérouville,5.4287902,49.6184295,gerouville,85024
919,6769,Robelmont,5.5071291,49.595344,robelmont,85024
920,6800,Bras,5.3877654,49.9760182,bras,84077
921,6800,Libramont-Chevigny,5.3823537,49.9197154,libramontchevigny,84077
922,6800,Moircy,5.468077,49.9894846,moircy,84077
923,6800,Recogne,5.3607943,49.9112853,recogne,84077
924,6800,Sainte-Marie-Chevigny,5.4578106,49.9235741,saintemariechevigny,84077
925,6810,Izel,5.3747807,49.693986,izel,85007
926,6820,Muno,5.1759524,49.717679,muno,85011
927,6830,Bouillon,5.0672528,49.7949836,bouillon,84010
928,6830,Les Hayons,5.1456628,49.8133379,leshayons,84010
929,6833,Vivy,5.0388784,49.8675973,vivy,84010
930,6840,Hamipré,5.4564462,49.8359615,hamipre,84043
931,6840,Longlier,5.4609005,49.8562222,longlier,84043
932,6850,Paliseul,5.1349041,49.9035269,paliseul,84050
933,6852,Maissin,5.1805775,49.9651106,maissin,84050
934,6853,Framont,5.1601932,49.9185629,framont,84050
935,6860,Léglise,5.5381496,49.8003582,leglise,84033
936,6880,Auby-Sur-Semois,5.1823728,49.8157173,aubysursemois,84009
937,6880,Orgeo,5.3022804,49.8343079,orgeo,84009
938,6890,Redu,5.1601828,50.0077873,redu,84035
939,6890,Smuid,5.2662483,50.0188027,smuid,84035
940,6900,Humain,5.2552435,50.2053202,humain,83034
941,6900,On,5.2862777,50.1715967,on,83034
942,6924,Lomprez,5.092143,50.0762474,lomprez,84075
943,6927,Resteigne,5.1778089,50.0828516,resteigne,84068
944,6927,Tellin,5.216837,50.081019,tellin,84068
945,6940,Wéris,5.5307553,50.3266395,weris,83012
946,6941,Bende,5.4142387,50.4176261,bende,83012
947,6941,Tohogne,5.481405,50.3810361,tohogne,83012
948,6950,Harsin,5.3475606,50.173788,harsin,83040
949,6950,Nassogne,5.3455462,50.1294031,nassogne,83040
950,6952,Grune,5.3828952,50.1549918,grune,83040
951,6970,Tenneville,5.5242133,50.091248,tenneville,83049
952,6987,Marcourt,5.5268173,50.2145396,marcourt,83044
953,6997,Amonines,5.5571509,50.2655197,amonines,83013
954,6997,Soy,5.5100929,50.285577,soy,83013
955,7022,Hyon,3.9619447,50.4392359,hyon,53053
956,7034,Saint-Denis,4.0181787,50.4920472,saintdenis,53053
957,7040,Asquillies,3.9570563,50.4020009,asquillies,53084
958,7040,Bougnies,3.9391701,50.386751,bougnies,53084
959,7041,Havay,3.9841693,50.3611541,havay,53084
960,7050,Jurbise,3.9113179,50.5325067,jurbise,53044
961,7063,Neufvilles,4.0029098,50.5683075,neufvilles,55040
962,7070,Thieu,4.0922224,50.473352,thieu,55035
963,7070,Ville-Sur-Haine,4.0655313,50.4767906,villesurhaine,55035
964,7090,Ronquières,4.2235457,50.6084328,ronquieres,55004
965,7100,Haine-Saint-Pierre,4.2000181,50.4547557,hainesaintpierre,58001
966,7100,La Louvière,4.1852682,50.479487,lalouviere,58001
967,7100,Trivières,4.1475857,50.4517378,trivieres,58001
968,7110,Houdeng-Goegnies,4.1575303,50.4879863,houdenggoegnies,58001
969,7120,Croix-Lez-Rouveroy,4.0758701,50.3609408,croixlezrouveroy,58003
970,7120,Fauroeulx,4.1095709,50.3703355,fauroeulx,58003
971,7130,Binche,4.1701677159951,50.412824846085,binche,58002
972,7134,Péronnes-Lez-Binche,4.1458468,50.4364165,peronneslezbinche,58002
973,7134,Ressaix,4.1910482,50.4238109,ressaix,58002
974,7160,Piéton,4.2984261,50.4414944,pieton,52010
975,7170,Bois-D'haine,4.2156931,50.5023427,boisd'haine,55086
976,7170,Fayt-Lez-Manage,4.2282511,50.4898236,faytlezmanage,55086
977,7170,Manage,4.2343288,50.5036133,manage,55086
978,7181,Arquennes,4.287514819651,50.5640405,arquennes,55085
979,7181,Feluy,4.2430926037513,50.5625639,feluy,55085
980,7181,Petit-Roeulx-Lez-Nivelles,4.3186986634815,50.55876715,petitroeulxleznivelles,55085
981,7190,Ecaussinnes,4.1752492,50.5696129,ecaussinnes,55050
982,7191,Ecaussinnes-Lalaing,4.1785518,50.5703563,ecaussinneslalaing,55050
983,7332,Sirault,3.7881267,50.5060592,sirault,53070
984,7340,Wasmes,3.846637,50.414181,wasmes,53082
985,7350,Thulin,3.7393229,50.4292832,thulin,53039
986,7370,Dour,3.7806897,50.3978815,dour,53020
987,7380,Quiévrain,3.6819263,50.4084818,quievrain,53068
988,7387,Erquennes,3.7933404,50.3590043,erquennes,53083
989,7387,Honnelles,3.731019,50.352089,honnelles,53083
990,7387,Onnezies,3.71633,50.363513,onnezies,53083
991,7390,Wasmuel,3.8466719,50.445727,wasmuel,53065
992,7502,Esplechin,3.3038112,50.5743852,esplechin,57081
993,7506,Willemeau,3.350025,50.573981,willemeau,57081
994,7520,Ramegnies-Chin,3.335337,50.651295,ramegnieschin,57081
995,7522,Lamain,3.2931148,50.5982618,lamain,57081
996,7522,Marquain,3.3226398,50.6078843,marquain,57081
997,7534,Barry,3.5430623,50.5875423,barry,57081
998,7604,Brasmenil,3.5472808,50.5417372,brasmenil,57064
999,7640,Péronnes-Lez-Antoing,3.4538057,50.551862,peronneslezantoing,57003
1000,7642,Calonne,3.4371661,50.578325,calonne,57003
1001,7750,Anseroeul,3.520558,50.728033,anseroeul,57095
1002,7750,Mont-De-L'enclus,3.5110542,50.7456511,montdel'enclus,57095
1003,7750,Russeignies,3.5309528,50.7447633,russeignies,57095
1004,7760,Molenbaix,3.4294567,50.6930043,molenbaix,57018
1005,7760,Velaines,3.4865934,50.6685604,velaines,57018
1006,7781,Houthem,2.9640553,50.7868243,houthem,57097
1007,7782,Ploegsteert,2.8803139,50.7262204,ploegsteert,57097
1008,7783,Bizet,2.88999,50.7060943,bizet,57097
1009,7800,Ath,3.7926793502157,50.639504499385,ath,51004
1010,7811,Arbre,3.8148309,50.6103517,arbre,51004
1011,7823,Gibecq,3.8878195,50.637673,gibecq,51004
1012,7830,Bassilly,3.9360497,50.6724203,bassilly,51068
1013,7830,Fouleng,3.9282801,50.6182841,fouleng,51068
1014,7830,Gondregnies,3.9118667,50.627067,gondregnies,51068
1015,7850,Marcq,4.0173479,50.6903571,marcq,51067
1016,7861,Wannebecq,3.7998354,50.6940794,wannebecq,51069
1017,7862,Ogy,3.780225,50.7208405,ogy,51069
1018,7890,Lahamaide,3.7246735,50.69558,lahamaide,51017
1019,7911,Herquegies,3.5785557,50.6349335,herquegies,51065
1020,7950,Chièvres,3.810128,50.587693,chievres,51014
1021,7971,Ramegnies,3.6351295,50.544393,ramegnies,51008
1022,7971,Thumaide,3.6304664,50.5404186,thumaide,51008
1023,8020,Hertsberge,3.2612349549978,51.10996785,hertsberge,31022
1024,8340,Lapscheure,3.3523918963854,51.2821424,lapscheure,31006
1025,8340,Moerkerke,3.3558017705651,51.2422333,moerkerke,31006
1026,8340,Oostkerke,3.2884674049058,51.2751719,oostkerke,31006
1027,8340,Sijsele,3.3435315097294,51.210525,sijsele,31006
1028,8377,Zuienkerke,3.1567406094326,51.2685834,zuienkerke,31042
1029,8400,Oostende,2.9203275,51.2303177,oostende,35013
1030,8400,Stene,2.9200835535007,51.20214645,stene,35013
1031,8430,Middelkerke,2.8063401225473,51.18331695,middelkerke,35011
1032,8433,Mannekensvere,2.8183418,51.1258003,mannekensvere,35011
1033,8460,Ettelgem,3.0384504834689,51.19765475,ettelgem,35014
1034,8480,Eernegem,3.023122345129,51.12819605,eernegem,35006
1035,8510,Bellegem,3.2800137,50.7781502,bellegem,34022
1036,8510,Kooigem,3.3261001,50.739664,kooigem,34022
1037,8550,Zwevegem,3.3419067426276,50.80406995,zwevegem,34042
1038,8560,Gullegem,3.2026154878227,50.84493445,gullegem,34041
1039,8570,Ingooigem,3.4271837357678,50.8297876,ingooigem,34002
1040,8572,Kaster,3.4976090001837,50.8121917,kaster,34002
1041,8580,Avelgem,3.4468985313677,50.7754997,avelgem,34003
1042,8582,Outrijve,3.4257331809137,50.75868715,outrijve,34003
1043,8600,Keiem,2.8814585998043,51.08623835,keiem,32003
1044,8600,Nieuwkapelle,2.8042814087195,50.9974451,nieuwkapelle,32003
1045,8600,Oostkerke,2.7997074366181,51.04353425,oostkerke,32003
1046,8600,Vladslo,2.9207800886428,51.06253345,vladslo,32003
1047,8610,Werken,2.9637026,51.0290062,werken,32011
1048,8630,Wulveringem,2.6550439487441,51.03030765,wulveringem,38025
1049,8630,Zoutenaaie,2.7515311775286,51.05092295,zoutenaaie,38025
1050,8640,Oostvleteren,2.7492224474635,50.92313355,oostvleteren,33041
1051,8640,Westvleteren,2.7205508961772,50.9103823,westvleteren,33041
1052,8647,Noordschote,2.8217318560837,50.9484727,noordschote,32030
1053,8660,De Panne,2.5806696887141,51.09437775,depanne,38008
1054,8670,Koksijde,2.6353426015022,51.1091101,koksijde,38014
1055,8680,Koekelare,2.9682187344976,51.0911765,koekelare,32010
1056,8680,Zande,2.9186353800579,51.1174383,zande,32010
1057,8691,Stavele,2.673321,50.9398411,stavele,38002
1058,8700,Schuiferskapelle,3.3283107336881,51.03700665,schuiferskapelle,37015
1059,8710,Sint-Baafs-Vijve,3.3862545030012,50.9245338,sintbaafsvijve,37017
1060,8720,Markegem,3.394380172379,50.95014795,markegem,37002
1061,8730,Sint-Joris,3.3646568393591,51.125095,sintjoris,31003
1062,8740,Egem,3.2540634837689,51.0209559,egem,37011
1063,8750,Wingene,3.2847683081115,51.06808895,wingene,37018
1064,8770,Ingelmunster,3.2617189739329,50.92196635,ingelmunster,36007
1065,8780,Oostrozebeke,3.3468206372996,50.93434535,oostrozebeke,37010
1066,8793,Sint-Eloois-Vijve,3.4036062,50.9057236,sintelooisvijve,34040
1067,8800,Rumbeke,3.1223026883986,50.91511475,rumbeke,36015
1068,8830,Hooglede,3.0687215849639,50.98218015,hooglede,36006
1069,8902,Zillebeke,2.9224029,50.8346385,zillebeke,33011
1070,8908,Vlamertinge,2.8146596555515,50.84722495,vlamertinge,33011
1071,8930,Menen,3.1156565,50.7969879,menen,34027
1072,8956,Kemmel,2.8383675286243,50.7952131,kemmel,33039
1073,8970,Reningelst,2.7636029,50.8170498,reningelst,33021
1074,8980,Passendale,3.0054428297242,50.89915125,passendale,33037
1075,8980,Zandvoorde,2.9770015427192,50.8151226,zandvoorde,33037
1076,9050,Gentbrugge,3.7588813,51.0447236,gentbrugge,44021
1077,9051,Afsnee,3.6575415863856,51.0299989,afsnee,44021
1078,9060,Zelzate,3.8105002,51.2000036,zelzate,43018
1079,9080,Zeveneken,3.9000296,51.1078751,zeveneken,44034
1080,9120,Kallo,4.2588008641609,51.2652143,kallo,46003
1081,9140,Elversele,4.1457568844955,51.12017065,elversele,46025
1082,9150,Bazel,4.2873842506575,51.14685855,bazel,46013
1083,9170,De Klinge,4.0898144,51.2564526,deklinge,46020
1084,9170,Meerdonk,4.1511549,51.2588943,meerdonk,46020
1085,9200,Dendermonde,4.098112,51.0312293,dendermonde,42006
1086,9200,Schoonaarde,4.0158906182168,50.9986902,schoonaarde,42006
1087,9200,Sint-Gillis-Dendermonde,4.1276622058379,51.0226035,sintgillisdendermonde,42006
1088,9310,Baardegem,4.1400064082098,50.9559778,baardegem,41002
1089,9310,Meldert,4.1339380209476,50.93483295,meldert,41002
1090,9340,Lede,3.9775435,50.9660758,lede,41034
1091,9340,Wanzele,3.9570133,50.9741595,wanzele,41034
1092,9400,Ninove,4.0242373,50.8353611,ninove,41048
1093,9402,Meerbeke,4.0458501718008,50.81972985,meerbeke,41048
1094,9404,Aspelare,3.9584406,50.8421637,aspelare,41048
1095,9420,Bambrugge,3.4154479,51.0545566,bambrugge,37012
1096,9420,Erondegem,3.9555369,50.9407226,erondegem,41082
1097,9450,Haaltert,4.0057717,50.9022532,haaltert,41024
1098,9470,Denderleeuw,4.0665468327116,50.8843903,denderleeuw,41011
1099,9500,Nederboelare,3.8718226231289,50.78113635,nederboelare,41018
1100,9500,Onkerzele,3.9040294677949,50.77876845,onkerzele,41018
1101,9500,Viane,3.923884698906,50.7386591,viane,41018
1102,9500,Zarlardinge,3.8252714980661,50.76432255,zarlardinge,41018
1103,9520,Vlierzele,3.9009360317784,50.935088,vlierzele,41063
1104,9620,Oombergen,3.8381185,50.8988376,oombergen,41081
1105,9620,Sint-Goriks-Oudenhove,3.7863829,50.8522592,sintgoriksoudenhove,41081
1106,9630,Roborst,3.7535689,50.8636242,roborst,45065
1107,9630,Sint-Denijs-Boekel,3.7130873,50.8660879,sintdenijsboekel,45065
1108,9636,Nederzwalm-Hermelgem,3.6879894099711,50.8867594,nederzwalmhermelgem,45065
1109,9660,Elst,5.5556351,50.7685711,elst,73066
1110,9660,Everbeek,3.7859967948024,50.7685909,everbeek,45059
1111,9660,Nederbrakel,3.7617767441185,50.8052186,nederbrakel,45059
1112,9661,Parike,3.799316,50.7849168,parike,45059
1113,9700,Ename,3.6317612,50.8553126,ename,45035
1114,9771,Nokere,3.5108474,50.8853618,nokere,45068
1115,9790,Ooike,3.5514004,50.8711812,ooike,45061
1116,9790,Wortegem,3.5101135,50.8533808,wortegem,45061
1117,9790,Wortegem-Petegem,3.5329831121506,50.845989,wortegempetegem,45061
1118,9800,Vinkt,3.4808321,51.0078663,vinkt,44083
1119,9820,Lemberge,3.7726469,50.9779856,lemberge,44043
1120,9850,Vosselare,3.5661276338188,51.0289033,vosselare,44083
1121,9860,Oosterzele,3.8032713,50.9456388,oosterzele,44052
1122,9860,Scheldewindeke,3.78971,50.9392571,scheldewindeke,44052
1123,9870,Zulte,3.4485632,50.9206638,zulte,44081
1124,9880,Lotenhulle,3.4596784,51.0497022,lotenhulle,44084
1125,9890,Dikkelvenne,3.6894495,50.9176673,dikkelvenne,44020
1126,9920,Lovendegem,3.6076129,51.0956807,lovendegem,44085
1127,9930,Zomergem,3.5642436785112,51.1195778,zomergem,44085
1128,9950,Waarschoot,3.6061712,51.1515304,waarschoot,44085
1129,9960,Assenede,3.7568076657628,51.23004155,assenede,43002
1130,1050,Ixelles,4.3815707,50.8222854,ixelles,21009
1131,1081,Koekelberg,4.3257084,50.8622633,koekelberg,21011
1132,1130,Haren,4.4125708732431,50.8919661,haren,21004
1133,1150,Woluwe-Saint-Pierre,4.4432967,50.8292429,woluwesaintpierre,21019
1134,1315,Incourt,4.798944,50.6918004,incourt,25043
1135,1315,Opprebais,4.7957745,50.681817,opprebais,25043
1136,1315,Roux-Miroir,4.7848246,50.7085122,rouxmiroir,25043
1137,1325,Bonlez,4.6896145,50.7021372,bonlez,25018
1138,1325,Corroy-Le-Grand,4.6747213,50.6617107,corroylegrand,25018
1139,1341,Céroux-Mousty,4.5291742660159,50.6625713,cerouxmousty,25121
1140,1350,Folx-Les-Caves,4.9370984,50.6610719,folxlescaves,25120
1141,1360,Perwez,4.8134719,50.6234469,perwez,25084
1142,1367,Bomal,4.8735246,50.6681389,bomal,25122
1143,1367,Grand-Rosière-Hottomont,4.8674622,50.6316098,grandrosierehottomont,25122
1144,1367,Huppaye,4.8921703,50.6927557,huppaye,25122
1145,1367,Mont-Saint-André,4.8635811,50.6550272,montsaintandre,25122
1146,1370,Jodoigne,4.8709616,50.7218206,jodoigne,25048
1147,1380,Lasne,4.4844157,50.6860037,lasne,25119
1148,1380,Maransart,4.4559942489341,50.6561328,maransart,25119
1149,1390,Biez,4.7033973,50.7267076,biez,25037
1150,1430,Rebecq-Rognon,4.1350275503194,50.67355825,rebecqrognon,25123
1151,1450,Chastre,4.636678,50.6080835,chastre,25117
1152,1450,Gentinnes,4.5927221009772,50.57939665,gentinnes,25117
1153,1495,Marbais,4.5380975970878,50.55047955,marbais,25107
1154,1495,Mellery,4.5691118,50.5817537,mellery,25107
1155,1495,Villers-La-Ville,4.516035801462,50.5640258,villerslaville,25107
1156,1500,Halle,4.2374349,50.7360524,halle,23027
1157,1501,Buizingen,4.2605080818496,50.73793415,buizingen,23027
1158,1600,Sint-Laureins-Berchem,4.1993838,50.7877313,sintlaureinsberchem,23077
1159,1602,Vlezenbeek,4.2360410720845,50.805593,vlezenbeek,23077
1160,1670,Heikruis,4.1126567,50.7348458,heikruis,23064
1161,1671,Elingen,4.174198071757,50.7793527,elingen,23064
1162,1700,Dilbeek,4.2657299667643,50.84408625,dilbeek,23016
1163,1740,Ternat,4.1834171401216,50.87155835,ternat,23086
1164,1742,Sint-Katherina-Lombeek,4.1535568,50.8726659,sintkatherinalombeek,23086
1165,1745,Mazenzele,4.1717632,50.9428791,mazenzele,23060
1166,1750,Lennik,4.1648626,50.8085632,lennik,23104
1167,1750,Sint-Martens-Lennik,4.1695303908975,50.8115319,sintmartenslennik,23104
1168,1780,Wemmel,4.3108723,50.9145955,wemmel,23102
1169,1785,Hamme,4.1202807810427,51.0881618,hamme,42008
1170,1852,Beigem,4.3638682,50.9527061,beigem,23025
1171,1910,Kampenhout,4.5711630873694,50.94924405,kampenhout,23038
1172,1982,Weerde,4.479869,50.9722782,weerde,23096
1173,2040,Zandvliet,4.2836261784487,51.35984975,zandvliet,11002
1174,2100,Deurne,4.4695254092764,51.2115284,deurne,11002
1175,2200,Morkhoven,4.8207801,51.1203399,morkhoven,13011
1176,2200,Noorderwijk,4.8401277,51.1415564,noorderwijk,13011
1177,2220,Hallaar,4.7191120718788,51.08755725,hallaar,12014
1178,2222,Wiekevorst,4.7853558986493,51.10609435,wiekevorst,12014
1179,2235,Hulshout,4.7885461,51.0753923,hulshout,13016
1180,2240,Massenhoven,4.6356924683019,51.19902125,massenhoven,11054
1181,2240,Zandhoven,4.6595103,51.2147918,zandhoven,11054
1182,2260,Tongerlo,4.9012622781849,51.1220734,tongerlo,13049
1183,2320,Hoogstraten,4.7440656414186,51.39574085,hoogstraten,13014
1184,2323,Wortel,4.8085930879726,51.3975366,wortel,13014
1185,2340,Vlimmeren,4.7821797,51.2988018,vlimmeren,13004
1186,2400,Mol,5.1155267,51.1840421,mol,13025
1187,2520,Broechem,4.5967162,51.1813951,broechem,11035
1188,2550,Waarloos,4.453,51.1052659,waarloos,11024
1189,2627,Schelle,4.3361875,51.1245635,schelle,11038
1190,2650,Edegem,4.4384284,51.1574786,edegem,11013
1191,2800,Walem,4.4568748,51.0657941,walem,12025
1192,2801,Heffen,4.4124762563322,51.0519355,heffen,12025
1193,2870,Liezele,4.2808516096232,51.05486435,liezele,12041
1194,2870,Ruisbroek,4.3379815821239,51.0802059,ruisbroek,12041
1195,2880,Bornem,4.2423260051519,51.0924649,bornem,12007
1196,2880,Hingene,4.2930862930359,51.103114,hingene,12007
1197,2880,Mariekerke,4.2010309553894,51.06647005,mariekerke,12007
1198,2890,Lippelo,4.2519213925908,51.0451478,lippelo,12041
1199,2910,Essen,4.4701309,51.4677957,essen,11016
1200,2960,Sint-Job-In-'t-Goor,4.5759347,51.2955923,sintjobin'tgoor,11009
1201,2970,Schilde,4.5955157359888,51.257095,schilde,11039
1202,2980,Halle,4.6455565344486,51.2428446,halle,11055
1203,2980,Zoersel,4.7132557,51.2716725,zoersel,11055
1204,2990,Loenhout,4.6428328,51.3994474,loenhout,11053
1205,2990,Wuustwezel,4.5651743450402,51.38525,wuustwezel,11053
1206,3001,Heverlee,4.6931307510281,50.85172925,heverlee,24062
1207,3020,Winksele,4.6404471957661,50.9124843,winksele,24038
1208,3040,Loonbeek,4.6067572,50.8070345,loonbeek,24045
1209,3050,Oud-Heverlee,4.6678971,50.8217682,oudheverlee,24086
1210,3054,Vaalbeek,4.6852713590102,50.82408165,vaalbeek,24086
1211,3060,Bertem,4.6322907,50.8706469,bertem,24009
1212,3060,Korbeek-Dijle,4.6299439737893,50.847010125156,korbeekdijle,24009
1213,3071,Erps-Kwerps,4.5750864125531,50.9104969,erpskwerps,24055
1214,3128,Baal,4.7505367662714,51.0075269,baal,24109
1215,3130,Begijnendijk,4.7826403117004,51.02422075,begijnendijk,24007
1216,3191,Hever,4.5553278,50.9925865,hever,24014
1217,3201,Langdorp,4.8856989624279,51.0118664,langdorp,24001
1218,3212,Pellenberg,4.7894086649098,50.87211325,pellenberg,24066
1219,3270,Scherpenheuvel,4.9547327768843,50.9725745,scherpenheuvel,24134
1220,3270,Scherpenheuvel-Zichem,4.9754325657663,50.9689147,scherpenheuvelzichem,24134
1221,3272,Testelt,4.9484707287374,51.0192772,testelt,24134
1222,3294,Molenstede,5.0247465287649,51.0071839,molenstede,24020
1223,3300,Oplinter,4.9950692073381,50.8284931,oplinter,24107
1224,3350,Drieslinter,5.0533455578997,50.84486375,drieslinter,24133
1225,3350,Neerlinter,5.0283876,50.843352,neerlinter,24133
1226,3350,Overhespen,5.0300432882597,50.7968421,overhespen,24133
1227,3370,Roosbeek,4.8620269340011,50.84022445,roosbeek,24016
1228,3381,Kapellen,4.9608776189751,50.88734525,kapellen,24137
1229,3390,Tielt,4.9155513317582,50.9346235,tielt,24135
1230,3390,Tielt-Winge,4.8863781815823,50.9242724,tieltwinge,24135
1231,3404,Attenhoven,5.1006534330464,50.7653693,attenhoven,24059
1232,3404,Neerlanden,5.0793874624497,50.7821026,neerlanden,24059
1233,3440,Halle-Booienhoven,5.1205761783641,50.8127265,hallebooienhoven,24130
1234,3450,Geetbets,5.1015810029407,50.89519195,geetbets,24028
1235,3470,Kortenaken,5.068392495735,50.90566935,kortenaken,24054
1236,3470,Sint-Margriete-Houtem,4.9623805201831,50.83464645,sintmargrietehoutem,24107
1237,3500,Hasselt,5.3368383970676,50.930358,hasselt,71022
1238,3520,Zonhoven,5.3677683,50.9909835,zonhoven,71066
1239,3540,Berbroek,5.2098576659451,50.94876395,berbroek,71024
1240,3581,Beverlo,5.2443565507181,51.08973005,beverlo,71004
1241,3640,Kessenich,5.8089243331137,51.1492029,kessenich,72018
1242,3640,Molenbeersel,5.7260763418645,51.1684178,molenbeersel,72018
1243,3650,Dilsen,5.6991443859626,51.0328615,dilsen,72041
1244,3650,Dilsen-Stokkem,5.7311405,51.0284779,dilsenstokkem,72041
1245,3650,Rotem,5.7205216032604,51.053086,rotem,72041
1246,3670,Gruitrode,5.5813814347439,51.08477665,gruitrode,72042
1247,3670,Meeuwen-Gruitrode,5.5540751,51.0933149,meeuwengruitrode,72042
1248,3700,Henis,5.4696959,50.7993981,henis,73083
1249,3700,Koninksem,5.4417282,50.7678379,koninksem,73083
1250,3720,Kortessem,5.3770000287821,50.86195255,kortessem,73040
1251,3732,Schalkhoven,5.4481669278797,50.8422859,schalkhoven,73032
1252,3740,Beverst,5.4734935,50.8921566,beverst,73006
1253,3740,Eigenbilzen,5.5755614,50.8743904,eigenbilzen,73006
1254,3740,Hees,5.6124793,50.8460673,hees,73006
1255,3740,Rosmeer,5.5753682,50.8458315,rosmeer,73006
1256,3746,Hoelbeek,5.556142701219,50.883259,hoelbeek,73006
1257,3770,Herderen,5.5744881,50.8071071,herderen,73066
1258,3770,Millen,5.560302,50.7844721,millen,73066
1259,3798,Fouron-Le-Comte,5.7719461900567,50.7611375,fouronlecomte,73109
1260,3800,Brustem,5.230273192058,50.79912435,brustem,71053
1261,3800,Engelmanshoven,5.2518063089799,50.77280875,engelmanshoven,71053
1262,3800,Gelinden,5.2509345230414,50.7602497,gelinden,71053
1263,3800,Kerkom-Bij-Sint-Truiden,5.1787834432079,50.77333875,kerkombijsinttruiden,71053
1264,3800,Sint-Truiden,5.2034249116034,50.82694775,sinttruiden,71053
1265,3830,Berlingen,5.3111748927674,50.82338225,berlingen,73098
1266,3832,Ulbeek,5.2936725006792,50.84319895,ulbeek,73098
1267,3840,Gotem,5.3055250033294,50.80105865,gotem,73009
1268,3840,Groot-Loon,5.3659957408679,50.7938946,grootloon,73009
1269,3840,Kerniel,5.3616421143445,50.82372165,kerniel,73009
1270,3840,Rijkel,5.2612885523105,50.80429285,rijkel,73009
1271,3850,Wijer,5.2233097,50.8972323,wijer,71045
1272,3870,Bovelingen,5.2551977,50.7375944,bovelingen,73022
1273,3870,Heks,5.3567635,50.7687571,heks,73022
1274,3870,Horpmaal,5.3328245,50.7582823,horpmaal,73022
1275,3870,Klein-Gelmen,5.2763925,50.7713536,kleingelmen,73022
1276,3870,Mechelen-Bovelingen,5.2629291,50.7427937,mechelenbovelingen,73022
1277,3930,Achel,5.4792895720018,51.2684314,achel,72037
1278,3930,Hamont,5.5312873136301,51.25458535,hamont,72037
1279,3960,Beek,5.6378178047643,51.16613895,beek,72004
1280,3990,Wijchmaal,5.4147469555164,51.1272018,wijchmaal,72030
1281,4020,Liège,5.5734203,50.6451381,liege,62063
1282,4040,Herstal,5.6403906,50.6701887,herstal,62051
1283,4042,Liers,5.563754,50.6933806,liers,62051
1284,4052,Beaufays,5.6387759,50.5589633,beaufays,62022
1285,4190,Vieuxville,5.5512446,50.3955089,vieuxville,61019
1286,4210,Hannêche,5.0495231,50.5795921,hanneche,61010
1287,4217,Lavoir,5.1257368,50.5487123,lavoir,61028
1288,4218,Couthuin,5.1318708,50.5331675,couthuin,61028
1289,4253,Darion,5.187047,50.6649171,darion,64029
1290,4257,Berloz,5.2146261,50.6977331,berloz,64008
1291,4260,Braives,5.1435257,50.6300711,braives,64015
1292,4260,Fallais,5.1738356,50.6093088,fallais,64015
1293,4261,Latinne,5.1632447,50.6242037,latinne,64015
1294,4263,Tourinne,5.1765528,50.639549,tourinne,64015
1295,4280,Moxhe,5.0813689,50.6300028,moxhe,64034
1296,4280,Thisnes,5.0480724,50.6655625,thisnes,64034
1297,4300,Bleret,5.2888884,50.6893285,bleret,64074
1298,4317,Aineffe,5.256235,50.6229561,aineffe,64076
1299,4347,Voroux-Goreux,5.4271453,50.6547034,vorouxgoreux,64025
1300,4350,Remicourt,5.3267174,50.6807151,remicourt,64063
1301,4357,Donceel,5.3199408,50.6478971,donceel,64023
1302,4357,Haneffe,5.3192131,50.6387144,haneffe,64023
1303,4360,Lens-Sur-Geer,5.3537922,50.7214501,lenssurgeer,64056
1304,4360,Oreye,5.3530675,50.7291681,oreye,64056
1305,4367,Crisnée,5.397318,50.715885,crisnee,64021
1306,4400,Flémalle,5.4580872,50.6022808,flemalle,62120
1307,4450,Lantin,5.5234944,50.6879619,lantin,62060
1308,4452,Paifve,5.5241784,50.7280141,paifve,62060
1309,4458,Fexhe-Slins,5.5714611,50.7219179,fexheslins,62060
1310,4460,Grâce-Hollogne,5.503152,50.644955,gracehollogne,62118
1311,4480,Ehein,5.4444346,50.5445135,ehein,62121
1312,4480,Hermalle-Sous-Huy,5.3622542,50.5569911,hermallesoushuy,61080
1313,4500,Tihange,5.259369,50.527586,tihange,61031
1314,4520,Bas-Oha,5.1880583,50.522397,basoha,61072
1315,4530,Fize-Fontaine,5.2835083,50.5849842,fizefontaine,61068
1316,4530,Vieux-Waleffe,5.2044866,50.6161817,vieuxwaleffe,61068
1317,4537,Bodegnée,5.3041269,50.5857931,bodegnee,61063
1318,4540,Jehay,5.3202782,50.575487,jehay,61003
1319,4557,Seny,5.4029395,50.4595451,seny,61081
1320,4577,Vierset-Barse,5.2948879,50.4811242,viersetbarse,61041
1321,4600,Visé,5.695536,50.7336644,vise,62108
1322,4602,Cheratte,5.670164,50.682809,cheratte,62108
1323,4630,Tignée,5.7042703,50.6493983,tignee,62099
1324,4631,Evegnée,5.7060994,50.6418082,evegnee,62099
1325,4650,Chaineux,5.8342711,50.6319367,chaineux,63035
1326,4650,Grand-Rechain,5.8107674,50.6072867,grandrechain,63035
1327,4652,Xhendelesse,5.7726472,50.6037018,xhendelesse,63035
1328,4670,Trembleur,5.7268086,50.6953295,trembleur,62119
1329,4671,Barchon,5.6969122,50.6682189,barchon,62119
1330,4682,Heure-Le-Romain,5.6295554,50.7316969,heureleromain,62079
1331,4701,Kettenis,6.0458005,50.6461317,kettenis,63023
1332,4720,La Calamine,6.013341,50.7154957,lacalamine,63040
1333,4721,Neu-Moresnet,6.0240702,50.7199902,neumoresnet,63040
1334,4760,Bullange,6.257827,50.4075533,bullange,63012
1335,4761,Rocherath,6.3009381,50.4344078,rocherath,63012
1336,4784,Crombach,6.0680547,50.2591318,crombach,63067
1337,4790,Burg-Reuland,6.1216793580592,50.174780874297,burgreuland,63087
1338,4790,Reuland,6.1362567,50.1954121,reuland,63087
1339,4800,Verviers,5.8638544,50.5932274,verviers,63079
1340,4820,Dison,5.854735,50.611374,dison,63020
1341,4845,Jalhay,5.9647526,50.5592528,jalhay,63038
1342,4860,Cornesse,5.7910525,50.5747936,cornesse,63058
1343,4870,Fraipont,5.7227768,50.5663484,fraipont,62122
1344,4880,Aubel,5.8585553,50.7041498,aubel,63003
1345,4910,La Reid,5.7905664,50.4894593,lareid,63076
1346,4950,Sourbrodt,6.1143694,50.4772534,sourbrodt,63080
1347,4970,Francorchamps,5.952833,50.4531568,francorchamps,63073
1348,4980,Fosse,5.8378154,50.3388474,fosse,63086
1349,4980,Wanne,5.9213974,50.3557319,wanne,63086
1350,4987,Lorcé,5.7321495,50.4145319,lorce,63075
1351,4987,Stoumont,5.80836,50.4069504,stoumont,63075
1352,5000,Beez,4.9219558,50.4687313,beez,92094
1353,5020,Malonne,4.7966661,50.4382517,malonne,92094
1354,5021,Boninne,4.9291903523068,50.49239555,boninne,92094
1355,5022,Cognelée,4.9127293838106,50.5171876,cognelee,92094
1356,5030,Gembloux,4.6986933030313,50.5621964,gembloux,92142
1357,5032,Corroy-Le-Château,4.6546979,50.5359706,corroylechateau,92142
1358,5060,Arsimont,4.6388177,50.4273479,arsimont,92137
1359,5080,Rhisnes,4.7909700280289,50.5005948,rhisnes,92141
1360,5081,Meux,4.7986774536609,50.552563,meux,92141
1361,5100,Jambes,4.8785294244785,50.458883332027,jambes,92094
1362,5140,Boignée,4.6119938,50.5018413,boignee,92114
1363,5150,Floreffe,4.758878,50.4348064,floreffe,92045
1364,5170,Profondeville,4.8694363,50.3776473,profondeville,92101
1365,5190,Moustier-Sur-Sambre,4.6967162,50.4660542,moustiersursambre,92140
1366,5190,Saint-Martin,4.6472621,50.5008367,saintmartin,92140
1367,5300,Andenne,5.1043923,50.4900943,andenne,92003
1368,5300,Landenne,5.0646275,50.5142495,landenne,92003
1369,5310,Bolinne,4.9299565,50.6003478,bolinne,92035
1370,5330,Sart-Bernard,4.9506941,50.405155,sartbernard,92006
1371,5336,Courrière,4.9845433,50.378301,courriere,92006
1372,5370,Verlée,5.2795649,50.3675402,verlee,91064
1373,5374,Maffe,5.3125869,50.3533462,maffe,91064
1374,5377,Hogne,5.279464,50.24859,hogne,91120
1375,5377,Noiseux,5.3737372,50.2976637,noiseux,91120
1376,5380,Bierwart,5.0360917,50.5580545,bierwart,92138
1377,5380,Forville,5.0006655,50.574642,forville,92138
1378,5380,Hingeon,5.008801,50.5244901,hingeon,92138
1379,5520,Onhaye,4.840864,50.2435657,onhaye,91103
1380,5523,Weillen,4.8245344,50.2596445,weillen,91103
1381,5524,Gerin,4.8158102,50.2452911,gerin,91103
1382,5530,Evrehailles,4.9125689,50.3202787,evrehailles,91141
1383,5537,Bioul,4.7976225,50.3335584,bioul,91005
1384,5540,Hermeton-Sur-Meuse,4.8189189,50.1967082,hermetonsurmeuse,91142
1385,5541,Hastière-Par-Delà,4.8294854,50.2150767,hastierepardela,91142
1386,5542,Blaimont,4.8352693,50.192216,blaimont,91142
1387,5550,Nafraiture,4.9172157,49.9106502,nafraiture,91143
1388,5555,Petit-Fays,4.9675442,49.9015726,petitfays,91015
1389,5560,Houyet,5.0051364,50.1900646,houyet,91072
1390,5560,Mesnil-Eglise,4.9616357,50.1635695,mesnileglise,91072
1391,5563,Hour,5.0372408,50.1613066,hour,91072
1392,5564,Wanlin,5.061512,50.1593381,wanlin,91072
1393,5570,Honnay,5.0123245,50.0666286,honnay,91013
1394,5570,Winenne,4.8930998,50.0980233,winenne,91013
1395,5575,Bourseigne-Neuve,4.855026,50.0250695,bourseigneneuve,91054
1396,5575,Gedinne,4.9388966,49.9792667,gedinne,91054
1397,5575,Houdremont,4.9445943,49.942041,houdremont,91054
1398,5575,Rienne,4.8847815,49.9922547,rienne,91054
1399,5580,Eprave,5.1713525249725,50.1502721,eprave,91114
1400,5590,Chevetogne,5.1188335,50.223801,chevetogne,91030
1401,5600,Franchimont,4.6393972,50.1900466,franchimont,93056
1402,5600,Samart,4.534019,50.17794,samart,93056
1403,5600,Villers-Le-Gambon,4.6084845,50.1904615,villerslegambon,93056
1404,5620,Flavion,4.7134091,50.2496186,flavion,93022
1405,5620,Florennes,4.6030187,50.2514227,florennes,93022
1406,5640,Biesmerée,4.6803521,50.297376,biesmeree,92087
1407,5650,Pry,4.4326804,50.273814,pry,93088
1408,5650,Walcourt,4.4347509,50.2532022,walcourt,93088
1409,5650,Yves-Gomezée,4.4947935,50.2392649,yvesgomezee,93088
1410,5651,Laneffe,4.4950207,50.2778386,laneffe,93088
1411,5651,Tarcienne,4.4983015,50.3119341,tarcienne,93088
1412,5660,Cul-Des-Sarts,4.4549981,49.9615402,culdessarts,93014
1413,5660,Dailly,4.4360525,50.0577541,dailly,93014
1414,5670,Oignies-En-Thiérache,4.6396988,50.0237221,oigniesenthierache,93090
1415,5670,Olloy-Sur-Viroin,4.607218,50.0726831,olloysurviroin,93090
1416,5680,Gochenée,4.7597215,50.1841874,gochenee,93018
1417,5680,Romerée,4.6748777,50.135223,romeree,93018
1418,5680,Vaucelles,4.7424981,50.1131712,vaucelles,93018
1419,6001,Marcinelle,4.4442531,50.3977245,marcinelle,52011
1420,6044,Roux,4.3907758274107,50.4415002,roux,52011
1421,6120,Nalinnes,4.4466922,50.3249486,nalinnes,56086
1422,6140,Fontaine-L'evêque,4.3239637925238,50.411224661019,fontainel'eveque,52022
1423,6220,Heppignies,4.4935448,50.4817059,heppignies,52021
1424,6240,Pironchamps,4.526056,50.4285932,pironchamps,52018
1425,6250,Aiseau-Presles,4.584081,50.4065228,aiseaupresles,52074
1426,6250,Roselies,4.5728849,50.4289142,roselies,52074
1427,6280,Gerpinnes,4.5276771,50.3378166,gerpinnes,52025
1428,6464,Baileux,4.3755329,50.0298544,baileux,56016
1429,6470,Grandrieu,4.1714631,50.200517,grandrieu,56088
1430,6470,Rance,4.2731851,50.1430111,rance,56088
1431,6500,Renlies,4.2670432,50.189927,renlies,56005
1432,6532,Ragnies,4.2837674,50.3081977,ragnies,56078
1433,6540,Lobbes,4.2654874,50.3460194,lobbes,56044
1434,6560,Hantes-Wihéries,4.1783639,50.3057605,hanteswiheries,56022
1435,6560,Solre-Sur-Sambre,4.1558267,50.3067709,solresursambre,56022
1436,6567,Fontaine-Valmont,4.2137302,50.3208131,fontainevalmont,56049
1437,6567,Labuissière,4.194796,50.3141612,labuissiere,56049
1438,6567,Merbes-Sainte-Marie,4.1711042,50.3552041,merbessaintemarie,56049
1439,6600,Bastogne,5.7153203,50.0009951,bastogne,82003
1440,6600,Longvilly,5.8368151,50.0249524,longvilly,82003
1441,6640,Hompré,5.6866728,49.9437838,hompre,82036
1442,6640,Morhet,5.5824265,49.957603,morhet,82036
1443,6640,Nives,5.602746,49.9121387,nives,82036
1444,6642,Juseret,5.5493342,49.8805193,juseret,82036
1445,6663,Mabompré,5.7384527,50.098929,mabompre,82014
1446,6670,Gouvy,5.9549305,50.1907895,gouvy,82037
1447,6680,Tillet,5.5297763,50.0097939,tillet,82038
1448,6688,Longchamps,5.6892466,50.0535428,longchamps,82005
1449,6690,Vielsalm,5.9170187,50.2883685,vielsalm,82032
1450,6706,Autelbas,5.8675666,49.6499559,autelbas,81001
1451,6720,Habay-La-Neuve,5.6503942,49.7286061,habaylaneuve,85046
1452,6721,Anlier,5.620414,49.772082,anlier,85046
1453,6730,Rossignol,5.4851582,49.718767,rossignol,85039
1454,6730,Saint-Vincent,5.475602,49.6774116,saintvincent,85039
1455,6740,Sainte-Marie-Sur-Semois,5.5644887,49.6732168,saintemariesursemois,85009
1456,6741,Vance,5.6698138,49.6701655,vance,85009
1457,6747,Châtillon,5.6983633,49.6255848,chatillon,85034
1458,6747,Saint-Léger,5.6569569,49.6134362,saintleger,85034
1459,6750,Signeulx,5.6403955,49.5528606,signeulx,85026
1460,6760,Virton,5.5329559,49.5677263,virton,85045
1461,6767,Dampicourt,5.4979579,49.5553011,dampicourt,85047
1462,6767,Harnoncourt,5.4996797,49.534288,harnoncourt,85047
1463,6780,Hondelange,5.8350151,49.6351714,hondelange,81015
1464,6790,Aubange,5.804352,49.5675296,aubange,81004
1465,6792,Rachecourt,5.7248143,49.5903125,rachecourt,81004
1466,6810,Chiny,5.3394252,49.738581,chiny,85007
1467,6810,Jamoigne,5.420477,49.6958089,jamoigne,85007
1468,6820,Sainte-Cécile,5.2429556,49.7293745,saintececile,85011
1469,6832,Sensenruth,5.0738804,49.8254037,sensenruth,84010
1470,6834,Bellevaux,6.0129575,50.3912772,bellevaux,63049
1471,6850,Carlsbourg,5.0830529,49.8947611,carlsbourg,84050
1472,6850,Offagne,5.175013,49.8855714,offagne,84050
1473,6852,Opont,5.1201252,49.9348514,opont,84050
1474,6860,Assenois,5.4625426,49.8029977,assenois,84033
1475,6860,Ebly,5.534876707362,49.8508818,ebly,84033
1476,6870,Vesqueville,5.3968709,50.0058391,vesqueville,84059
1477,6880,Bertrix,5.2529266,49.8546564,bertrix,84009
1478,6900,Aye,5.2931158,50.2232964,aye,83034
1479,6900,Marche-En-Famenne,5.3428796,50.2240814,marcheenfamenne,83034
1480,6900,Roy,5.4095929,50.1879034,roy,83034
1481,6929,Daverdisse,5.1184644,50.0217646,daverdisse,84016
1482,6929,Porcheresse,5.0866787,49.978801,porcheresse,84016
1483,6941,Bomal-Sur-Ourthe,5.5223752,50.3760087,bomalsurourthe,83012
1484,6941,Borlon,5.4048529,50.3783963,borlon,83012
1485,6941,Villers-Sainte-Gertrude,5.5764092,50.3619168,villerssaintegertrude,83012
1486,6960,Grandmenil,5.6625445,50.2922823,grandmenil,83055
1487,6960,Harre,5.6587925,50.3516772,harre,83055
1488,6984,Hives,5.5783344,50.1506704,hives,83031
1489,6997,Erezée,5.5597229,50.2930897,erezee,83013
1490,7012,Jemappes,3.8894392,50.448422,jemappes,53053
1491,7022,Mesvin,3.960668,50.4283672,mesvin,53053
1492,7030,Saint-Symphorien,4.012574,50.4366253,saintsymphorien,53053
1493,7032,Spiennes,3.9868957,50.4254505,spiennes,53053
1494,7034,Obourg,4.0062232,50.4760289,obourg,53053
1495,7040,Genly,3.9168758,50.3922864,genly,53084
1496,7040,Quévy-Le-Petit,3.93752,50.367996,quevylepetit,53084
1497,7050,Erbaut,3.884409,50.53309,erbaut,53044
1498,7050,Erbisoeul,3.8961158,50.5155495,erbisoeul,53044
1499,7050,Masnuy-Saint-Pierre,3.9598418,50.5369939,masnuysaintpierre,53044
1500,7090,Henripont,4.1861019,50.5996119,henripont,55004
1501,7100,Saint-Vaast,4.1604101,50.4525018,saintvaast,58001
1502,7120,Estinnes,4.0975758,50.3976702,estinnes,58003
1503,7120,Rouveroy,4.062845,50.3555625,rouveroy,58003
1504,7120,Vellereille-Le-Sec,4.0573258,50.401796,vellereillelesec,58003
1505,7130,Bray,4.1024947,50.4299906,bray,58002
1506,7140,Morlanwelz,4.2523562,50.4509843,morlanwelz,58004
1507,7140,Morlanwelz-Mariemont,4.243909,50.4544626,morlanwelzmariemont,58004
1508,7170,La Hestre,4.2358174,50.4738724,lahestre,55086
1509,7181,Familleureux,4.199657690926,50.52567625,familleureux,52063
1510,7320,Bernissart,3.6504677,50.475502,bernissart,51009
1511,7340,Colfontaine,3.8513958,50.4056635,colfontaine,53082
1512,7350,Montroeul-Sur-Haine,3.703666,50.436001,montroeulsurhaine,53039
1513,7370,Blaugies,3.8051335,50.3729779,blaugies,53020
1514,7370,Elouges,3.7521047,50.4036968,elouges,53020
1515,7370,Wihéries,3.7521224,50.3852902,wiheries,53020
1516,7382,Audregnies,3.7177788,50.3830135,audregnies,53068
1517,7387,Athis,3.776059,50.3647711,athis,53083
1518,7387,Autreppe,3.7317059,50.3463188,autreppe,53083
1519,7500,Tournai,3.3878259,50.60566,tournai,57081
1520,7504,Froidmont,3.3287795,50.57792,froidmont,57081
1521,7532,Beclers,3.5028761,50.6217774,beclers,57081
1522,7534,Maulde,3.5483951,50.6169646,maulde,57081
1523,7540,Quartes,3.5120068,50.6501425,quartes,57081
1524,7542,Mont-Saint-Aubert,3.4000171,50.6554352,montsaintaubert,57081
1525,7602,Bury,3.59458,50.5426384,bury,57064
1526,7603,Bon-Secours,3.607483,50.4976184,bonsecours,57064
1527,7604,Baugnies,3.552247,50.561586,baugnies,57064
1528,7604,Braffe,3.5828589,50.5523518,braffe,57064
1529,7604,Callenelle,3.5253447,50.5297342,callenelle,57064
1530,7620,Guignies,3.3663017,50.5471385,guignies,57093
1531,7620,Hollain,3.4271843,50.5421847,hollain,57093
1532,7620,Wez-Velvain,3.388586,50.5468427,wezvelvain,57093
1533,7624,Howardries,3.3541900391658,50.5170287,howardries,57093
1534,7641,Bruyelle,3.426992,50.557403,bruyelle,57003
1535,7730,Estaimbourg,3.3180722,50.6826198,estaimbourg,57027
1536,7730,Estaimpuis,3.2640184,50.7059794,estaimpuis,57027
1537,7730,Leers-Nord,3.2703911,50.6875576,leersnord,57027
1538,7740,Pecq,3.3407492,50.685616,pecq,57062
1539,7742,Hérinnes-Lez-Pecq,3.3623581,50.7008798,herinneslezpecq,57062
1540,7750,Orroir,3.481663,50.747596,orroir,57095
1541,7780,Comines,2.998666,50.768736,comines,57097
1542,7780,Comines-Warneton,3.0019077817068,50.77120012074,comineswarneton,57097
1543,7801,Irchonwelz,3.7536768,50.6201619,irchonwelz,51004
1544,7804,Ostiches,3.7584252,50.6788509,ostiches,51004
1545,7830,Hoves,4.0358365,50.6717098,hoves,51068
1546,7830,Silly,3.9243973,50.6489028,silly,51068
1547,7830,Thoricourt,3.9509699,50.6101161,thoricourt,51068
1548,7850,Petit-Enghien,4.0845939,50.6899321,petitenghien,51067
1549,7866,Bois-De-Lessines,3.8856306,50.6953023,boisdelessines,51069
1550,7870,Lombise,3.9397913,50.6007682,lombise,53046
1551,7870,Montignies-Lez-Lens,3.9433795,50.5643065,montignieslezlens,53046
1552,7890,Wodecq,3.7444299,50.7178459,wodecq,51017
1553,7900,Leuze-En-Hainaut,3.617736902638,50.599042981582,leuzeenhainaut,57094
1554,7903,Chapelle-À-Wattines,3.6551354,50.6125001,chapelleawattines,57094
1555,7904,Willaupuis,3.6038961,50.566635,willaupuis,57094
1556,7910,Arc-Wattripont,3.5489704,50.7282535,arcwattripont,51065
1557,7910,Ellignies-Lez-Frasnes,3.5903652,50.6747768,ellignieslezfrasnes,51065
1558,7910,Forest,3.5373149,50.6736151,forest,51065
1559,7910,Frasnes-Lez-Anvaing,3.5455253970222,50.684567271165,frasneslezanvaing,51065
1560,7950,Huissignies,3.7532905,50.5658217,huissignies,51014
1561,7970,Beloeil,3.7361279,50.5479197,beloeil,51008
1562,7971,Basècles,3.6472042,50.5252131,basecles,51008
1563,8200,Sint-Andries,3.1750054151928,51.18830895,sintandries,31005
1564,8210,Loppem,3.1955523,51.1557488,loppem,31040
1565,8211,Aartrijke,3.0913265545139,51.1180002,aartrijke,31040
1566,8300,Knokke,3.3233738606453,51.34942965,knokke,31043
1567,8301,Ramskapelle,3.2505004,51.3126954,ramskapelle,31043
1568,8310,Assebroek,3.2570785402003,51.1933202,assebroek,31005
1569,8380,Zeebrugge,3.2078842,51.331382,zeebrugge,31005
1570,8400,Zandvoorde,2.9668008654261,51.20484775,zandvoorde,35013
1571,8431,Wilskerke,2.8401373,51.1809498,wilskerke,35011
1572,8433,Slijpe,2.8476959,51.1543955,slijpe,35011
1573,8470,Zevekote,2.9016605351732,51.1381923,zevekote,35005
1574,8480,Bekegem,3.0582322396597,51.14886485,bekegem,35006
1575,8490,Jabbeke,3.0902953889402,51.1846386,jabbeke,31012
1576,8490,Stalhille,3.0730014206469,51.21970915,stalhille,31012
1577,8490,Zerkegem,3.0612486455732,51.1712593,zerkegem,31012
1578,8500,Kortrijk,3.2784153903743,50.81788085,kortrijk,34022
1579,8501,Heule,3.2382004806211,50.8511736,heule,34022
1580,8511,Aalbeke,3.2186046321991,50.77745545,aalbeke,34022
1581,8551,Heestert,3.4120184,50.7821543,heestert,34042
1582,8554,Sint-Denijs,3.349745322203,50.76440175,sintdenijs,34042
1583,8570,Gijzelbrechtegem,3.5060602,50.8279177,gijzelbrechtegem,34002
1584,8581,Kerkhove,3.5058971661987,50.8008418,kerkhove,34003
1585,8587,Helchin,3.3837254,50.7300021,helchin,34043
1586,8600,Kaaskerke,2.8387074,51.0358094,kaaskerke,32003
1587,8600,Oudekapelle,2.8040816730756,51.0206897,oudekapelle,32003
1588,8600,Woumen,2.8520595441482,50.99494815,woumen,32003
1589,8610,Handzame,2.996075151704,51.0321939,handzame,32011
1590,8630,Booitshoeke,2.7399983485035,51.08832895,booitshoeke,38025
1591,8630,Steenkerke,2.6895389537109,51.0527661,steenkerke,38025
1592,8630,Veurne,2.6548858237238,51.071043,veurne,38025
1593,8630,Vinkem,2.6570581890086,51.01364415,vinkem,38025
1594,8640,Woesten,2.7887585311487,50.9035513,woesten,33041
1595,8647,Reninge,2.7771170853989,50.94228475,reninge,32030
1596,8680,Bovekerke,2.9633414725432,51.05621365,bovekerke,32010
1597,8690,Oeren,2.7051716,51.0235332,oeren,38002
1598,8691,Leisele,2.622401,50.9844835,leisele,38002
1599,8720,Dentergem,3.4022937173313,50.966125,dentergem,37002
1600,8730,Oedelem,3.3441122702909,51.166016,oedelem,31003
1601,8790,Waregem,3.4257380400092,50.87620025,waregem,34040
1602,8800,Oekene,3.1627760972777,50.9042588,oekene,36015
1603,8800,Roeselare,3.124765,50.9444948,roeselare,36015
1604,8820,Torhout,3.0913072045454,51.0585915,torhout,31033
1605,8851,Koolskamp,3.2016142835313,51.0075272,koolskamp,37020
1606,8860,Lendelede,3.2320134658174,50.8850661,lendelede,34025
1607,8900,Brielen,2.8475388,50.8689046,brielen,33011
1608,8900,Dikkebus,2.8309734,50.8192065,dikkebus,33011
1609,8900,Ieper,2.8914774512132,50.851808,ieper,33011
1610,8902,Hollebeke,2.9383694,50.8056486,hollebeke,33011
1611,8902,Voormezele,2.8757825,50.8169949,voormezele,33011
1612,8920,Bikschote,2.863108835832,50.92504495,bikschote,33040
1613,8951,Dranouter,2.7832991,50.7662832,dranouter,33039
1614,8952,Wulvergem,2.840869239241,50.7675035,wulvergem,33039
1615,8953,Wijtschate,2.9126192876216,50.7832683,wijtschate,33039
1616,9000,Gent,3.7141549000597,51.0397129,gent,44021
1617,9031,Drongen,3.6395168043236,51.0528944,drongen,44021
1618,9032,Wondelgem,3.7034612746567,51.09349535,wondelgem,44021
1619,9050,Ledeberg,3.7414088,51.0372053,ledeberg,44021
1620,9080,Beervelde,3.8792625,51.0802144,beervelde,44034
1621,9130,Doel,4.2456374474582,51.3181461,doel,46003
1622,9130,Kallo,4.27803,51.2519515,kallo,46003
1623,9160,Eksaarde,3.965212,51.1487608,eksaarde,46014
1624,9170,Sint-Gillis-Waas,4.1233014,51.2180687,sintgilliswaas,46020
1625,9170,Sint-Pauwels,4.1016628795877,51.1939255,sintpauwels,46020
1626,9180,Moerbeke-Waas,3.9446436,51.1742698,moerbekewaas,44045
1627,9200,Grembergen,4.1025435644905,51.0533487,grembergen,42006
1628,9200,Oudegem,4.0513674371884,51.0081807,oudegem,42006
1629,9230,Massemen,3.8735741,50.9809343,massemen,42025
1630,9240,Zele,4.0385864,51.0683621,zele,42028
1631,9270,Laarne,3.8504738,51.029657,laarne,42010
1632,9280,Lebbeke,4.1307711,51.0004013,lebbeke,42011
1633,9290,Berlare,4.0113470297154,51.0301606,berlare,42003
1634,9290,Overmere,3.9569121644559,51.05073005,overmere,42003
1635,9310,Moorsel,4.1008746699882,50.95235015,moorsel,41002
1636,9320,Erembodegem,4.0573610045016,50.9160962,erembodegem,41002
1637,9340,Impe,3.9521618,50.9605364,impe,41034
1638,9400,Nederhasselt,3.9750229,50.8463587,nederhasselt,41048
1639,9400,Voorde,3.9454543,50.8254777,voorde,41048
1640,9406,Outer,3.9976558921405,50.84658595,outer,41048
1641,9420,Burst,3.9203695,50.9136525,burst,41082
1642,9500,Ophasselt,3.897035,50.8218582,ophasselt,41018
1643,9506,Waarbeke,3.968228,50.7779309,waarbeke,41018
1644,9506,Zandbergen,3.9673318,50.8013287,zandbergen,41018
1645,9550,Woubrechtegem,3.9158325,50.8726761,woubrechtegem,41027
1646,9570,Lierde,3.8249605,50.815045,lierde,45063
1647,9600,Renaix,3.6020465,50.7476192,renaix,45041
1648,9620,Elene,3.8078492,50.8907864,elene,41081
1649,9630,Munkzwalm,3.7327378,50.8776841,munkzwalm,45065
1650,9630,Rozebeke,3.7533417,50.8488955,rozebeke,45065
1651,9660,Brakel,3.762778,50.7979739,brakel,45059
1652,9660,Michelbeke,3.7638335,50.834125,michelbeke,45059
1653,9660,Sint-Maria-Oudenhove,3.7998568349562,50.82512665,sintmariaoudenhove,41081
1654,9660,Zegelsem,3.7170799912553,50.8135755,zegelsem,45059
1655,9680,Maarke-Kerkem,3.6489314,50.807217,maarkekerkem,45064
1656,9681,Nukerke,3.5954667,50.7965606,nukerke,45064
1657,9690,Berchem,3.5082669,50.7903918,berchem,45060
1658,9700,Nederename,3.6322868,50.8678376,nederename,45035
1659,9700,Ooike,3.5514004,50.8711812,ooike,45061
1660,9772,Wannegem-Lede,3.5605794173077,50.8902386,wannegemlede,45068
1661,9800,Meigem,3.5413767,51.0175334,meigem,44083
1662,9800,Sint-Martens-Leerne,3.5837978,51.0134905,sintmartensleerne,44083
1663,9810,Nazareth,3.5963218,50.959802,nazareth,44048
1664,9820,Merelbeke,3.7459119,50.9942924,merelbeke,44043
1665,9840,De Pinte,3.6495958,50.9924205,depinte,44012
1666,9840,Zevergem,3.6943144,50.9786614,zevergem,44012
1667,9850,Merendree,3.5715236988666,51.0829292,merendree,44083
1668,9860,Moortsele,3.7800022,50.9591122,moortsele,44052
1669,9870,Machelen,3.4858873,50.9591856,machelen,44081
1670,9881,Bellem,3.4994525656039,51.0902776,bellem,44084
1671,9890,Vurste,3.6845236,50.9459212,vurste,44020
1672,9900,Eeklo,3.5665965,51.1844827,eeklo,43005
1673,9910,Ursel,3.4841052,51.1285879,ursel,44084
1674,9940,Evergem,3.7078565,51.1087891,evergem,44019
1675,9968,Bassevelde,3.6789952,51.2311917,bassevelde,43002
1676,9968,Oosteeklo,3.687828,51.1929943,oosteeklo,43002
1677,9988,Watervliet,3.626982177111,51.2776499,watervliet,43014
1678,1040,Etterbeek,4.3895104,50.8368511,etterbeek,21005
1679,1070,Anderlecht,4.3123401,50.8381411,anderlecht,21001
1680,1160,Auderghem,4.4331389,50.8156571,auderghem,21002
1681,1180,Uccle,4.3372348,50.8018201,uccle,21016
1682,1190,Forest,4.3177512,50.8091426,forest,21007
1683,1300,Limal,4.5738899,50.6930127,limal,25112
1684,1320,Tourinnes-La-Grosse,4.7472104,50.7777654,tourinneslagrosse,25005
1685,1325,Dion-Valmont,4.6614812,50.7158849,dionvalmont,25018
1686,1325,Longueville,4.7392389,50.7024404,longueville,25018
1687,1367,Ramillies,4.9148994,50.6366892,ramillies,25122
1688,1370,Jauchelette,4.8435069,50.6866092,jauchelette,25048
1689,1380,Ohain,4.4505534162388,50.695114,ohain,25119
1690,1390,Archennes,4.6702286,50.7516077,archennes,25037
1691,1400,Nivelles,4.3319091758631,50.58916295,nivelles,25072
1692,1402,Thines,4.3825954093731,50.58678735,thines,25072
1693,1430,Quenast,4.1627021400155,50.6719076,quenast,25123
1694,1430,Rebecq,4.1355466,50.6645894,rebecq,25123
1695,1435,Corbais,4.6408286063936,50.6491686,corbais,25068
1696,1435,Hévillers,4.6167772,50.6220893,hevillers,25068
1697,1473,Glabais,4.4464886939844,50.63691535,glabais,25031
1698,1476,Houtain-Le-Val,4.4110339517433,50.5762935,houtainleval,25031
1699,1547,Biévène,3.943147,50.7164481,bievene,23009
1700,1630,Linkebeek,4.3345641,50.7716092,linkebeek,23100
1701,1640,Rhode-Saint-Genèse,4.3463687,50.74503,rhodesaintgenese,23101
1702,1650,Beersel,4.3051321494591,50.7684432,beersel,23003
1703,1654,Huizingen,4.2732545968764,50.74931535,huizingen,23003
1704,1670,Pepingen,4.1785882891377,50.7511702,pepingen,23064
1705,1741,Wambeek,4.1646372476962,50.85672975,wambeek,23086
1706,1745,Opwijk,4.1896665,50.9690529,opwijk,23060
1707,1760,Roosdaal,4.0972238,50.8341383,roosdaal,23097
1708,1761,Borchtlombeek,4.1369148649611,50.84817805,borchtlombeek,23097
1709,1785,Merchtem,4.2327769,50.9591981,merchtem,23052
1710,1790,Affligem,4.1174675,50.9035063,affligem,23105
1711,1790,Hekelgem,4.1118354895388,50.9137991,hekelgem,23105
1712,1800,Peutie,4.4551981,50.9271744,peutie,23088
1713,1820,Melsbroek,4.4758811,50.9170725,melsbroek,23081
1714,1820,Steenokkerzeel,4.5110471,50.9093488,steenokkerzeel,23081
1715,1851,Humbeek,4.3777599282045,50.9728229,humbeek,23025
1716,1910,Berg,5.1521172,51.1695659,berg,13003
1717,1932,Sint-Stevens-Woluwe,4.4359939711919,50.8662434,sintstevenswoluwe,23094
1718,1980,Zemst,4.44412333945,50.9865028,zemst,23096
1719,2018,Antwerpen,4.3997081,51.2211097,antwerpen,11002
1720,2030,Antwerpen,4.3997081,51.2211097,antwerpen,11002
1721,2040,Berendrecht,4.319401,51.3455396,berendrecht,11002
1722,2040,Lillo,4.2900122,51.3045534,lillo,11002
1723,2060,Antwerpen,4.3997081,51.2211097,antwerpen,11002
1724,2150,Borsbeek,4.488953,51.1928907,borsbeek,11007
1725,2170,Merksem,4.4453401635115,51.24994295,merksem,11002
1726,2223,Schriek,4.4361161,51.2907379,schriek,11002
1727,2235,Westmeerbeek,4.8351334,51.0603638,westmeerbeek,13016
1728,2260,Westerlo,4.9168675,51.086694,westerlo,13049
1729,2288,Bouwel,4.7370614385825,51.16210045,bouwel,13010
1730,2300,Turnhout,4.948461,51.3233812,turnhout,13040
1731,2310,Rijkevorsel,4.760708,51.3495046,rijkevorsel,13037
1732,2340,Beerse,4.837570452313,51.3134921,beerse,13004
1733,2360,Oud-Turnhout,4.9817086,51.3178319,oudturnhout,13031
1734,2382,Poppel,5.0488069670452,51.45063155,poppel,13035
1735,2390,Westmalle,4.6713095211155,51.29940565,westmalle,11057
1736,2431,Veerle,4.9805536902848,51.0592049,veerle,13053
1737,2440,Geel,4.9903187,51.1610826,geel,13008
1738,2480,Dessel,5.113243,51.2395713,dessel,13006
1739,2490,Balen,5.1937730761009,51.171804,balen,13003
1740,2520,Emblem,4.6047327,51.1625761,emblem,11035
1741,2547,Lint,4.4922187,51.1268305,lint,11025
1742,2550,Kontich,4.4456359,51.134377,kontich,11024
1743,2560,Bevel,4.6922875770195,51.1364316,bevel,12026
1744,2590,Gestel,4.6646313199891,51.12758685,gestel,12002
1745,2610,Wilrijk,4.3876309610455,51.1638451,wilrijk,11002
1746,2811,Leest,4.4150058,51.0350559,leest,12025
1747,2812,Muizen,4.5182999731643,51.0083206,muizen,12025
1748,2840,Rumst,4.4240472,51.0792853,rumst,11037
1749,2870,Puurs,4.2861928678797,51.07199845,puurs,12041
1750,2880,Weert,4.1855882750296,51.10151195,weert,12007
1751,2890,Oppuurs,4.2389889523045,51.06220625,oppuurs,12041
1752,2930,Brasschaat,4.489307,51.2930933,brasschaat,11008
1753,2940,Stabroek,4.370312016044,51.33518735,stabroek,11044
1754,2960,Sint-Lenaarts,4.6782162,51.3453831,sintlenaarts,11009
1755,3000,Leuven,4.6929903215189,50.8812533,leuven,24062
1756,3040,Sint-Agatha-Rode,4.6329556561262,50.7794761,sintagatharode,24045
1757,3051,Sint-Joris-Weert,4.6458289787229,50.8051035,sintjorisweert,24086
1758,3053,Haasrode,4.7283706944623,50.81785645,haasrode,24086
1759,3090,Overijse,4.5385226,50.7729254,overijse,23062
1760,3110,Rotselaar,4.7143205960258,50.9543637,rotselaar,24094
1761,3111,Wezemaal,4.7683306885409,50.9482552,wezemaal,24094
1762,3118,Werchter,4.7026877230529,50.9707189,werchter,24094
1763,3130,Betekom,4.7908301771478,50.99602795,betekom,24007
1764,3150,Wespelaar,4.6325890563885,50.95645295,wespelaar,24033
1765,3200,Aarschot,4.8245687,50.9841594,aarschot,24001
1766,3210,Lubbeek,4.8400599406417,50.8821122,lubbeek,24066
1767,3220,Kortrijk-Dutsel,4.7854555627527,50.91851005,kortrijkdutsel,24043
1768,3272,Messelbroek,4.924667681525,50.98948425,messelbroek,24134
1769,3360,Lovenjoel,4.7866873360324,50.85475565,lovenjoel,24011
1770,3370,Neervelp,4.8136699565725,50.8166881,neervelp,24016
1771,3370,Vertrijk,4.8270179962162,50.83400235,vertrijk,24016
1772,3400,Landen,5.0790966118688,50.7493167,landen,24059
1773,3401,Walshoutem,5.0869975953341,50.71820555,walshoutem,24059
1774,3401,Wezeren,5.1094961371256,50.732168,wezeren,24059
1775,3460,Assent,5.0136688435307,50.94677135,assent,24008
1776,3461,Molenbeek-Wersbeek,4.9541212,50.9212106,molenbeekwersbeek,24008
1777,3470,Ransberg,5.0360646174319,50.8758246,ransberg,24054
1778,3472,Kersbeek-Miskom,5.0065116045983,50.8930932577,kersbeekmiskom,24054
1779,3501,Wimmertingen,5.3512906396928,50.8769276,wimmertingen,71022
1780,3510,Spalbeek,5.2277944313068,50.9490449,spalbeek,71022
1781,3511,Kuringen,5.3052007,50.9439384,kuringen,71022
1782,3512,Stevoort,5.2444291944072,50.91698375,stevoort,71022
1783,3530,Helchteren,5.3844821648536,51.0743268,helchteren,72039
1784,3545,Halen,5.1073913444455,50.9384339,halen,71020
1785,3545,Zelem,5.1092670735921,50.980158,zelem,71020
1786,3550,Heusden,5.2835531292784,51.04153335,heusden,71070
1787,3560,Meldert,5.1472099707378,51.0067479,meldert,71037
1788,3583,Paal,5.1616725572109,51.04746375,paal,71004
1789,3590,Diepenbeek,5.4200307,50.9078485,diepenbeek,71011
1790,3620,Lanaken,5.6513208,50.8892784,lanaken,73042
1791,3620,Veldwezelt,5.6323869,50.8655982,veldwezelt,73042
1792,3621,Rekem,5.6626094755366,50.9284078,rekem,73042
1793,3630,Eisden,5.7128515,50.9863045,eisden,73107
1794,3630,Meeswijk,5.7468352,51.001413,meeswijk,73107
1795,3630,Opgrimbie,5.6810305,50.9436011,opgrimbie,73107
1796,3630,Vucht,5.7134261,50.9770425,vucht,73107
1797,3650,Elen,5.7404005925371,51.06941595,elen,72041
1798,3665,As,5.5722025852462,51.0005396,as,71002
1799,3680,Maaseik,5.791733,51.0947181,maaseik,72021
1800,3680,Opoeteren,5.6487312543959,51.05340005,opoeteren,72021
1801,3700,Diets-Heur,5.4843527,50.7450193,dietsheur,73083
1802,3730,Romershoven,5.4593316,50.8580527,romershoven,73032
1803,3730,Sint-Huibrechts-Hern,5.4487057,50.8292918,sinthuibrechtshern,73032
1804,3740,Rijkhoven,5.5163495,50.8342984,rijkhoven,73006
1805,3770,Val-Meer,5.5971013,50.7871228,valmeer,73066
1806,3790,Mouland,5.7148469912943,50.7551858,mouland,73109
1807,3800,Aalst,5.2127604,50.7813901,aalst,71053
1808,3800,Groot-Gelmen,5.2621170756458,50.78320635,grootgelmen,71053
1809,3800,Halmaal,5.1499121468986,50.80055285,halmaal,71053
1810,3803,Gorsem,5.1658988739064,50.8380493,gorsem,71053
1811,3830,Wellen,5.3421653176727,50.8434693,wellen,73098
1812,3840,Haren,5.3972985,50.7913472,haren,73009
1813,3840,Hendrieken,5.3287966873717,50.797246,hendrieken,73009
1814,3840,Voort,4.6797906,51.1674467,voort,12026
1815,3870,Heers,5.3017509,50.750995,heers,73022
1816,3870,Vechmaal,5.373733,50.7608875,vechmaal,73022
1817,3891,Buvingen,5.1788950800586,50.75022405,buvingen,71017
1818,3891,Mielen-Boven-Aalst,5.2141041746035,50.7573342,mielenbovenaalst,71017
1819,3891,Muizen,5.1781361499823,50.7614659,muizen,71017
1820,3900,Overpelt,5.422976,51.2113458,overpelt,72043
1821,3945,Kwaadmechelen,5.1325674800534,51.0966275,kwaadmechelen,71069
1822,3950,Bocholt,5.5995581946268,51.1924818,bocholt,72003
1823,3950,Reppel,5.5522997799873,51.1470494,reppel,72003
1824,3960,Opitter,5.6477954812084,51.1184171,opitter,72004
1825,3990,Grote-Brogel,5.5087098376886,51.1420032,grotebrogel,72030
1826,4030,Grivegnee,5.599573,50.621845,grivegnee,62063
1827,4053,Embourg,5.619201,50.5893639,embourg,62022
1828,4120,Ehein,5.4444346,50.5445135,ehein,62121
1829,4140,Dolembreux,5.628000939321,50.53758625,dolembreux,62100
1830,4140,Rouvreux,5.6642552366155,50.4893408,rouvreux,62100
1831,4161,Villers-Aux-Tours,5.5122974,50.4969412,villersauxtours,61079
1832,4163,Tavier,5.4707571,50.4960227,tavier,61079
1833,4190,Xhoris,5.602069,50.443983,xhoris,61019
1834,4210,Oteppe,5.1270159,50.5823574,oteppe,61010
1835,4219,Ambresin,5.0305133,50.6266779,ambresin,64075
1836,4219,Meeffe,5.016335,50.608964,meeffe,64075
1837,4219,Wasseiges,5.006384,50.6221762,wasseiges,64075
1838,4252,Omal,5.1969427,50.6554534,omal,64029
1839,4260,Ciplet,5.0953487,50.6171393,ciplet,64015
1840,4280,Avernas-Le-Bauduin,5.0789239,50.694616,avernaslebauduin,64034
1841,4280,Petit-Hallet,5.0184357,50.6875594,petithallet,64034
1842,4280,Poucet,5.1124332,50.6777766,poucet,64034
1843,4280,Trognée,5.1242082,50.6878033,trognee,64034
1844,4287,Lincent,5.0318166,50.711613,lincent,64047
1845,4300,Bettincourt,5.235361,50.7099793,bettincourt,64074
1846,4317,Borlez,5.245072,50.632984,borlez,64076
1847,4317,Celles,5.2455346,50.6538847,celles,64076
1848,4317,Les Waleffes,5.2180365,50.6402367,leswaleffes,64076
1849,4340,Awans,5.4620018,50.6669712,awans,62006
1850,4350,Lamine,5.333978,50.689076,lamine,64063
1851,4350,Momalle,5.3730111,50.6852325,momalle,64063
1852,4351,Hodeige,5.3426579,50.6960127,hodeige,64063
1853,4360,Grandville,5.3379451,50.7220498,grandville,64056
1854,4360,Otrange,5.384458,50.7370788,otrange,64056
1855,4400,Ivoz-Ramet,5.4523491,50.5822766,ivozramet,62120
1856,4400,Mons-Lez-Liège,5.4600597,50.6224546,monslezliege,62120
1857,4430,Ans,5.5190612,50.6624326,ans,62003
1858,4432,Alleur,5.5129926,50.6742549,alleur,62003
1859,4460,Hollogne-Aux-Pierres,5.4757847,50.6385937,hollogneauxpierres,62118
1860,4460,Velroux,5.4254194,50.6436521,velroux,62118
1861,4520,Antheit,5.2358517,50.5512026,antheit,61072
1862,4520,Vinalmont,5.2261382,50.5627464,vinalmont,61072
1863,4540,Amay,5.3240992,50.5497761,amay,61003
1864,4550,Saint-Séverin,5.4130878,50.5290054,saintseverin,61043
1865,4560,Les Avins,5.299356,50.4154227,lesavins,61012
1866,4560,Pailhe,5.2579288,50.4229708,pailhe,61012
1867,4570,Marchin,5.2263372,50.4802051,marchin,61039
1868,4607,Berneau,5.731253,50.7423427,berneau,62027
1869,4608,Neufchâteau,5.7764464,50.7195828,neufchateau,62027
1870,4608,Warsage,5.773045637996,50.73466495,warsage,62027
1871,4610,Bellaire,5.6654685,50.6447087,bellaire,62015
1872,4621,Retinne,5.6978166,50.6302993,retinne,62038
1873,4623,Magnée,5.6811009,50.6028765,magnee,62038
1874,4630,Ayeneux,5.7147473,50.6087645,ayeneux,62099
1875,4632,Cérexhe-Heuseux,5.7262388,50.6508837,cerexheheuseux,62099
1876,4654,Charneux,5.8048204,50.669117,charneux,63035
1877,4671,Saive,5.6820303,50.6525478,saive,62119
1878,4681,Hermalle-Sous-Argenteau,5.6808711,50.710544,hermallesousargenteau,62079
1879,4684,Haccourt,5.6667674,50.7339784,haccourt,62079
1880,4690,Bassenge,5.6094772,50.7583596,bassenge,62011
1881,4700,Eupen,6.031452,50.6306134,eupen,63023
1882,4770,Amblève,6.1705559,50.3543055,ambleve,63001
1883,4780,Saint-Vith,6.1258953,50.2803881,saintvith,63067
1884,4782,Schoenberg,6.2642498,50.2888095,schoenberg,63067
1885,4800,Ensival,5.843182,50.582172,ensival,63079
1886,4800,Petit-Rechain,5.8341784,50.6143044,petitrechain,63079
1887,4800,Polleur,5.873929354985,50.542907,polleur,63076
1888,4830,Limbourg,5.9402987,50.6122761,limbourg,63046
1889,4851,Sippenaeken,5.9336285,50.7509012,sippenaeken,63088
1890,4852,Hombourg,5.9207511,50.723243,hombourg,63088
1891,4890,Clermont,5.883668,50.6589677,clermont,63089
1892,4920,Aywaille,5.6742167,50.4734827,aywaille,62009
1893,4920,Louveigné,5.7172477995985,50.5248417,louveigne,62100
1894,4950,Robertville,6.1224661,50.4550294,robertville,63080
1895,4960,Malmedy,6.0266001,50.4239904,malmedy,63049
1896,4990,Arbrefontaine,5.8353999,50.3012606,arbrefontaine,63045
1897,5024,Marche-Les-Dames,4.9615056,50.4864453,marchelesdames,92094
1898,5030,Beuzet,4.7481633,50.5329777,beuzet,92142
1899,5060,Moignelée,4.5885625,50.4378354,moignelee,92137
1900,5060,Velaine-Sur-Sambre,4.60725,50.4713313,velainesursambre,92137
1901,5070,Le Roux,4.6237797,50.3885408,leroux,92048
1902,5070,Sart-Eustache,4.5998195,50.3760693,sarteustache,92048
1903,5170,Lesve,4.7748094,50.3773499,lesve,92101
1904,5170,Lustin,4.8965971,50.379305,lustin,92101
1905,5190,Ham-Sur-Sambre,4.6734915,50.44449,hamsursambre,92140
1906,5190,Mornimont,4.7043344,50.4555129,mornimont,92140
1907,5190,Spy,4.7027047,50.4811696,spy,92140
1908,5300,Coutisse,5.1169603,50.4636595,coutisse,92003
1909,5300,Maizeret,4.978173,50.4598458,maizeret,92003
1910,5300,Namêche,4.9947316,50.4712487,nameche,92003
1911,5300,Thon,5.0133577,50.4641615,thon,92003
1912,5310,Boneffe,4.957465,50.623868,boneffe,92035
1913,5310,Upigny,4.8653991,50.5756144,upigny,92035
1914,5330,Assesse,5.0233625,50.3704203,assesse,92006
1915,5340,Mozet,4.9846704,50.4416402,mozet,92054
1916,5350,Evelette,5.171436,50.4135772,evelette,92097
1917,5353,Goesnes,5.2217845,50.440101,goesnes,92097
1918,5354,Jallet,5.1821601,50.4432621,jallet,92097
1919,5362,Achet,5.1751963,50.3334777,achet,91059
1920,5363,Emptinne,5.1212547,50.3253905,emptinne,91059
1921,5370,Jeneffe,5.2451952,50.3563281,jeneffe,91064
1922,5372,Méan,5.333856,50.3619241,mean,91064
1923,5377,Sinsin,5.2623625,50.275734,sinsin,91120
1924,5377,Somme-Leuze,5.3669021,50.336585,sommeleuze,91120
1925,5380,Tillier,4.946342,50.544287,tillier,92138
1926,5500,Bouvignes-Sur-Meuse,4.8984129,50.2725677,bouvignessurmeuse,91034
1927,5500,Dinant,4.91242,50.2608166,dinant,91034
1928,5500,Furfooz,4.9584822,50.223335,furfooz,91034
1929,5501,Lisogne,4.9715412,50.2814293,lisogne,91034
1930,5520,Anthée,4.7604034,50.2395304,anthee,91103
1931,5521,Serville,4.7806526,50.2500754,serville,91103
1932,5522,Falaen,4.793357,50.2782156,falaen,91103
1933,5530,Godinne,4.875987,50.3505281,godinne,91141
1934,5530,Purnode,4.9455473,50.3142896,purnode,91141
1935,5550,Alle,4.9726784,49.8421207,alle,91143
1936,5550,Bohan,4.8860106,49.864219,bohan,91143
1937,5550,Laforet,4.9294849,49.8639125,laforet,91143
1938,5550,Vresse-Sur-Semois,4.9340633,49.8729769,vressesursemois,91143
1939,5555,Gros-Fays,4.9830915,49.869524,grosfays,91015
1940,5555,Oizy,5.0089274,49.8934868,oizy,91015
1941,5560,Finnevaux,4.9452635,50.1581671,finnevaux,91072
1942,5560,Mesnil-Saint-Blaise,4.8854633,50.1671763,mesnilsaintblaise,91072
1943,5570,Baronville,4.9468551,50.1262206,baronville,91013
1944,5575,Bourseigne-Vieille,4.871198,50.0221032,bourseignevieille,91054
1945,5575,Louette-Saint-Denis,4.9572488,49.9589147,louettesaintdenis,91054
1946,5575,Louette-Saint-Pierre,4.9276767,49.960145,louettesaintpierre,91054
1947,5580,Buissonville,5.1958839,50.2172183,buissonville,91114
1948,5580,Lessive,5.1458087816947,50.13800485,lessive,91114
1949,5590,Achêne,5.0458772,50.2668644,achene,91030
1950,5590,Conneux,5.0603857,50.2496153,conneux,91030
1951,5590,Haversin,5.208871,50.2531051,haversin,91030
1952,5590,Serinchamps,5.2343634,50.2319269,serinchamps,91030
1953,5590,Sovet,5.0349178,50.296303,sovet,91030
1954,5600,Philippeville,4.5449033,50.195588,philippeville,93056
1955,5600,Romedenne,4.6979645,50.1724056,romedenne,93056
1956,5600,Surice,4.6962604,50.1824646,surice,93056
1957,5620,Hemptinne-Lez-Florennes,4.5631279,50.2282738,hemptinnelezflorennes,93022
1958,5620,Saint-Aubin,4.5778492,50.2469253,saintaubin,93022
1959,5630,Silenrieux,4.4103561,50.2251302,silenrieux,93010
1960,5650,Castillon,4.3528279,50.2472813,castillon,93088
1961,5650,Clermont,4.3173399,50.2598853,clermont,93088
1962,5650,Fontenelle,4.3827342,50.2490122,fontenelle,93088
1963,5650,Vogenée,4.4523592,50.2398955,vogenee,93088
1964,5651,Gourdinne,4.456597,50.2899588,gourdinne,93088
1965,5651,Somzée,4.4829777,50.2951613,somzee,93088
1966,5651,Thy-Le-Château,4.4278716,50.2827004,thylechateau,93088
1967,5660,Aublain,4.4090395,50.0672297,aublain,93014
1968,5660,Brûly,4.5296813,49.9695906,bruly,93014
1969,5660,Frasnes,4.5105493,50.0796144,frasnes,93014
1970,5660,Gonrieux,4.4236449,50.0374018,gonrieux,93014
1971,5660,Pesche,4.4584819,50.0431267,pesche,93014
1972,5660,Petigny,4.5324267,50.0583821,petigny,93014
1973,5670,Mazée,4.6964875,50.1008805,mazee,93090
1974,5680,Soulme,4.7367955,50.1873423,soulme,93018
1975,6020,Dampremy,4.4322464,50.4186181,dampremy,52011
1976,6032,Mont-Sur-Marchienne,4.4046365,50.3902046,montsurmarchienne,52011
1977,6111,Landelies,4.3496404,50.377822,landelies,52048
1978,6120,Jamioulx,4.4127635,50.3528702,jamioulx,56086
1979,6200,Bouffioulx,4.5151961,50.390213,bouffioulx,52012
1980,6200,Châtelet,4.5243511,50.4046075,chatelet,52012
1981,6200,Châtelineau,4.5179328,50.4155938,chatelineau,52012
1982,6220,Fleurus,4.5446545325944,50.47194905,fleurus,52021
1983,6220,Lambusart,4.5579198971642,50.45472595,lambusart,52021
1984,6221,Saint-Amand,4.5319238043004,50.5111679,saintamand,52021
1985,6224,Wanfercée-Baulet,4.5816274059151,50.47584335,wanferceebaulet,52021
1986,6230,Thiméon,4.4306784623925,50.4842821,thimeon,52055
1987,6280,Acoz,4.5323568,50.3588065,acoz,52025
1988,6280,Gougnies,4.5771625,50.3544437,gougnies,52025
1989,6440,Boussu-Lez-Walcourt,4.3767743,50.2262753,boussulezwalcourt,56029
1990,6440,Froidchapelle,4.3269129,50.1511597,froidchapelle,56029
1991,6462,Vaulx-Lez-Chimay,4.363579,50.061113,vaulxlezchimay,56016
1992,6463,Lompret,4.3790041,50.0642146,lompret,56016
1993,6470,Montbliart,4.224365,50.1344457,montbliart,56088
1994,6511,Strée,4.2980462,50.2766332,stree,56005
1995,6530,Leers-Et-Fosteau,4.244767,50.3041589,leersetfosteau,56078
1996,6543,Bienne-Lez-Happart,4.2155807,50.3512087,biennelezhappart,56044
1997,6560,Bersillies-L'abbaye,4.1520931,50.2631919,bersilliesl'abbaye,56022
1998,6560,Grand-Reng,4.0705909,50.3287642,grandreng,56022
1999,6592,Monceau-Imbrechies,4.224118,50.036452,monceauimbrechies,56051
2000,6600,Noville,5.7616864,50.0651684,noville,82003
2001,6640,Vaux-Lez-Rosières,5.5705339,49.9133632,vauxlezrosieres,82036
2002,6661,Mont,5.7909538,50.5341607,mont,63076
2003,6661,Tailles,5.7447558,50.2272012,tailles,82014
2004,6666,Wibrin,5.7156009,50.1661182,wibrin,82014
2005,6670,Limerlé,5.9393768987183,50.1608553,limerle,82037
2006,6671,Bovigny,5.9182421,50.2244199,bovigny,82037
2007,6672,Beho,5.9972692,50.220365,beho,82037
2008,6674,Montleban,5.8288862,50.1876021,montleban,82037
2009,6686,Flamierge,5.6038758,50.0333519,flamierge,82005
2010,6687,Bertogne,5.6675577,50.0842908,bertogne,82005
2011,6700,Arlon,5.811919,49.6827625,arlon,81001
2012,6720,Habay,5.5932514325174,49.73558035,habay,85046
2013,6723,Habay-La-Vieille,5.6225107,49.7228424,habaylavieille,85046
2014,6724,Rulles,5.558116,49.7181041,rulles,85046
2015,6740,Etalle,5.5982415,49.6729527,etalle,85009
2016,6767,Lamorteau,5.4795124,49.5262083,lamorteau,85047
2017,6767,Rouvroy,5.48971,49.539075,rouvroy,85047
2018,6769,Meix-Devant-Virton,5.4816156,49.6055933,meixdevantvirton,85024
2019,6769,Sommethonne,5.4456876,49.5764582,sommethonne,85024
2020,6782,Habergy,5.7608307,49.6153377,habergy,81015
2021,6791,Athus,5.8317661,49.5642065,athus,81004
2022,6792,Halanzy,5.7422467,49.5590364,halanzy,81004
2023,6800,Freux,5.4497307,49.9708428,freux,84077
2024,6811,Les Bulles,5.4263273,49.7031011,lesbulles,85007
2025,6813,Termes,5.4579753,49.7071328,termes,85007
2026,6830,Poupehan,5.0035785,49.8115586,poupehan,84010
2027,6830,Rochehaut,5.0070138,49.8404522,rochehaut,84010
2028,6831,Noirfontaine,5.412251,50.6175774,noirfontaine,62120
2029,6833,Ucimont,5.0573896,49.8314004,ucimont,84010
2030,6838,Corbion,5.0065337,49.7976297,corbion,84010
2031,6840,Grapfontaine,5.4076005,49.8215033,grapfontaine,84043
2032,6840,Neufchâteau,5.4339147,49.8411765,neufchateau,84043
2033,6880,Jehonville,5.2022069,49.9065515,jehonville,84009
2034,6887,Saint-Médard,5.3277128,49.8158829,saintmedard,84029
2035,6890,Libin,5.2569017,49.9809464,libin,84035
2036,6900,Hargimont,5.3094652,50.1825868,hargimont,83034
2037,6920,Sohier,5.0702515,50.0685885,sohier,84075
2038,6921,Chanly,5.1559991,50.0786533,chanly,84075
2039,6922,Halma,5.1374206,50.0754135,halma,84075
2040,6929,Haut-Fays,5.016947,50.0017421,hautfays,84016
2041,6953,Forrières,5.2842239,50.1324941,forrieres,83040
2042,6960,Manhay,5.6756341,50.2929635,manhay,83055
2043,6971,Champlon,5.5034047,50.1077503,champlon,83049
2044,6982,Samrée,5.6394828,50.209256,samree,83031
2045,6983,Ortho,5.6138065,50.1249111,ortho,83031
2046,6986,Halleux,5.5020384,50.1717133,halleux,83031
2047,6987,Hodister,5.4954367,50.2006652,hodister,83044
2048,6990,Fronville,5.4221284,50.2943293,fronville,83028
2049,6997,Mormont,5.7189108,50.1458065,mormont,82014
2050,7011,Ghlin,3.903746,50.4760502,ghlin,53053
2051,7012,Flénu,3.8878381,50.4367571,flenu,53053
2052,7020,Nimy,3.9545894,50.4759358,nimy,53053
2053,7022,Harmignies,4.0177899,50.4076446,harmignies,53053
2054,7022,Harveng,3.986884,50.3949004,harveng,53053
2055,7031,Villers-Saint-Ghislain,4.0389071,50.4312421,villerssaintghislain,53053
2056,7040,Quévy,3.9439033,50.3667226,quevy,53084
2057,7041,Givry,4.0293435,50.3795142,givry,53084
2058,7050,Masnuy-Saint-Jean,3.9423599,50.5310206,masnuysaintjean,53044
2059,7060,Soignies,4.0732968,50.5775309,soignies,55040
2060,7061,Casteau,4.0031319,50.5130195,casteau,55040
2061,7061,Thieusies,4.0489552,50.5151015,thieusies,55040
2062,7070,Le Roeulx,4.112245,50.5034034,leroeulx,55035
2063,7080,Noirchain,3.9298869,50.4018707,noirchain,53028
2064,7080,Sars-La-Bruyère,3.8764088,50.3719019,sarslabruyere,53028
2065,7090,Petit-Roeulx-Lez-Braine,4.0894781,50.6240857,petitroeulxlezbraine,55004
2066,7110,Strépy-Bracquegnies,4.1207031,50.474474,strepybracquegnies,58001
2067,7120,Estinnes-Au-Mont,4.0989347,50.3952117,estinnesaumont,58003
2068,7120,Estinnes-Au-Val,4.1064835,50.4127908,estinnesauval,58003
2069,7130,Battignies,4.1685575,50.4165125,battignies,58002
2070,7141,Carnières,4.2542126,50.443039,carnieres,58004
2071,7141,Mont-Sainte-Aldegonde,4.2340727,50.4293887,montsaintealdegonde,58004
2072,7160,Chapelle-Lez-Herlaimont,4.2804202,50.4713265,chapellelezherlaimont,52010
2073,7160,Godarville,4.2865899,50.4955503,godarville,52010
2074,7170,Bellecourt,4.254013,50.4843145,bellecourt,55086
2075,7322,Pommeroeul,3.7107354,50.4611322,pommeroeul,51009
2076,7334,Hautrage,3.7650049,50.4823864,hautrage,53070
2077,7334,Villerot,3.7902777,50.4861629,villerot,53070
2078,7340,Paturages,3.8629223,50.4136507,paturages,53082
2079,7380,Baisieux,3.6957835,50.387884,baisieux,53068
2080,7387,Fayt-Le-Franc,3.7724828,50.3566928,faytlefranc,53083
2081,7387,Roisin,3.6938101,50.333082,roisin,53083
2082,7390,Quaregnon,3.8636971,50.4421804,quaregnon,53065
2083,7500,Saint-Maur,3.3923658,50.5721668,saintmaur,57081
2084,7503,Froyennes,3.3569842,50.6195489,froyennes,57081
2085,7521,Chercq,3.4212542,50.5885516,chercq,57081
2086,7522,Blandain,3.3035015,50.6249665,blandain,57081
2087,7540,Kain,3.3809106,50.6379097,kain,57081
2088,7548,Warchin,3.4267528,50.6096187,warchin,57081
2089,7601,Roucourt,3.5870901,50.529165,roucourt,57064
2090,7618,Taintignies,3.3416855,50.5502028,taintignies,57072
2091,7620,Brunehaut,3.3795619,50.5178063,brunehaut,57093
2092,7620,Jollain-Merlin,3.4041047456312,50.54598165,jollainmerlin,57093
2093,7640,Maubray,3.5020267,50.5515108,maubray,57003
2094,7711,Dottignies,3.3037301,50.7273981,dottignies,57096
2095,7730,Bailleul,3.3176015,50.6689214,bailleul,57027
2096,7730,Evregnies,3.2875443,50.7130523,evregnies,57027
2097,7730,Saint-Léger,3.3149729,50.7056533,saintleger,57027
2098,7743,Esquelmes,3.347779,50.665077,esquelmes,57062
2099,7760,Celles,3.4571664,50.7125435,celles,57018
2100,7760,Escanaffles,3.4486114,50.7546292,escanaffles,57018
2101,7760,Pottes,3.4050325,50.7314164,pottes,57018
2102,7803,Bouvignies,3.7677307,50.6477056,bouvignies,51004
2103,7812,Houtaing,3.67998,50.6397485,houtaing,51004
2104,7822,Ghislenghien,3.875818,50.6566864,ghislenghien,51004
2105,7822,Isières,3.8181687,50.6637962,isieres,51004
2106,7866,Ollignies,3.8598773,50.6874157,ollignies,51069
2107,7870,Lens,3.9005461,50.5570816,lens,53046
2108,7880,Flobecq,3.7378707,50.7371675,flobecq,51019
2109,7890,Ellezelles,3.6802062,50.7338701,ellezelles,51017
2110,7900,Grandmetz,3.6322713,50.6220544,grandmetz,57094
2111,7903,Chapelle-À-Oie,3.6709445,50.5967927,chapelleaoie,57094
2112,7910,Wattripont,3.5489704,50.7282535,wattripont,51065
2113,7911,Frasnes-Lez-Buissenal,3.6194481,50.667755,frasneslezbuissenal,51065
2114,7950,Grosage,3.7571017,50.5444446,grosage,51014
2115,7973,Grandglise,3.6966742,50.5044413,grandglise,51008
2116,7973,Stambruges,3.7202435,50.508349,stambruges,51008
2117,8000,Brugge,3.2073611,51.2147083,brugge,31005
2118,8000,Koolkerke,3.2473789,51.2419954,koolkerke,31005
2119,8020,Oostkamp,3.2497137262681,51.1511469,oostkamp,31022
2120,8200,Sint-Michiels,3.2111722,51.1884619,sintmichiels,31005
2121,8300,Knokke-Heist,3.2702133,51.3396066,knokkeheist,31043
2122,8377,Houtave,3.1071768079055,51.2388018,houtave,31042
2123,8420,Klemskerke,3.0238828,51.242521,klemskerke,35029
2124,8420,Wenduine,3.0927740709639,51.3019771,wenduine,35029
2125,8421,Vlissegem,3.0635598193415,51.2641695,vlissegem,35029
2126,8432,Leffinge,2.8776766,51.1746761,leffinge,35011
2127,8434,Westende,2.7777512824641,51.15833025,westende,35011
2128,8480,Ichtegem,3.0296222129927,51.08742745,ichtegem,35006
2129,8510,Rollegem,3.2564730180436,50.77232975,rollegem,34022
2130,8560,Wevelgem,3.1864450062666,50.8121065,wevelgem,34041
2131,8570,Anzegem,3.463734552107,50.844003,anzegem,34002
2132,8570,Vichte,3.4068379,50.8353247,vichte,34002
2133,8573,Tiegem,3.4697738543929,50.8130531,tiegem,34002
2134,8600,Diksmuide,2.8647185,51.0333408,diksmuide,32003
2135,8600,Pervijze,2.7914713556336,51.08053165,pervijze,32003
2136,8610,Kortemark,3.0441178,51.0285109,kortemark,32011
2137,8620,Sint-Joris,2.7781339,51.1300222,sintjoris,38016
2138,8630,Avekapelle,2.7457710712354,51.0631103,avekapelle,38025
2139,8640,Vleteren,2.7289867,50.930143,vleteren,33041
2140,8647,Lo-Reninge,2.7643391,50.9638066,loreninge,32030
2141,8647,Pollinkhove,2.7198585358008,50.9726562,pollinkhove,32030
2142,8650,Klerken,2.9155135952546,50.99044185,klerken,32006
2143,8650,Merkem,2.8736172801014,50.962074,merkem,32006
2144,8691,Izenberge,2.6608332486701,50.9896601,izenberge,38002
2145,8700,Tielt,3.3414263284671,50.99996475,tielt,37015
2146,8710,Ooigem,3.3304964142362,50.8949817,ooigem,37017
2147,8710,Wielsbeke,3.3604037488967,50.91140755,wielsbeke,37017
2148,8750,Zwevezele,3.2053756921268,51.0422255,zwevezele,37018
2149,8755,Ruiselede,3.3789495803068,51.062755,ruiselede,37012
2150,8760,Meulebeke,3.2859605761212,50.9484788,meulebeke,37007
2151,8791,Beveren,3.3427472358752,50.871701,beveren,34040
2152,8870,Emelgem,3.2212852352972,50.9336597,emelgem,36008
2153,8870,Kachtem,3.1890400909612,50.93988415,kachtem,36008
2154,8904,Zuidschote,2.8285726,50.9129617,zuidschote,33011
2155,8920,Langemark,2.912173087276,50.91011515,langemark,33040
2156,8920,Langemark-Poelkapelle,2.9338635,50.9122567,langemarkpoelkapelle,33040
2157,8930,Rekkem,3.1658835832872,50.7743769,rekkem,34027
2158,8950,Heuvelland,2.8457459110391,50.76764855,heuvelland,33039
2159,8972,Proven,2.6542871,50.8903437,proven,33021
2160,8978,Watou,2.6449117149406,50.84518645,watou,33021
2161,9030,Mariakerke,3.6781210300259,51.0731177,mariakerke,44021
2162,9041,Oostakker,3.7644128,51.1001986,oostakker,44021
2163,9042,Desteldonk,3.7836111,51.1221778,desteldonk,44021
2164,9042,Mendonk,3.8221384,51.1467255,mendonk,44021
2165,9051,Sint-Denijs-Westrem,3.6676767,51.0199405,sintdenijswestrem,44021
2166,9070,Heusden,3.8003347,51.0287341,heusden,44013
2167,9112,Sinaai-Waas,3.9795579,51.1866966,sinaaiwaas,44045
2168,9120,Vrasene,4.194377,51.2191283,vrasene,46003
2169,9150,Kruibeke,4.3091107,51.1712275,kruibeke,46013
2170,9185,Wachtebeke,3.8574284,51.1701927,wachtebeke,44073
2171,9190,Stekene,4.0240412532131,51.2104744,stekene,46024
2172,9200,Baasrode,4.1444016705284,51.03987315,baasrode,42006
2173,9220,Hamme,4.1202807810427,51.0881618,hamme,42008
2174,9250,Waasmunster,4.0842158,51.1097147,waasmunster,42023
2175,9260,Schellebelle,3.928141226004,51.0102518,schellebelle,42026
2176,9260,Serskamp,3.9309567805899,50.98997155,serskamp,42026
2177,9280,Denderbelle,4.0954432870762,51.0011357,denderbelle,42011
2178,9280,Wieze,4.0981810157403,50.9786275,wieze,42011
2179,9310,Herdersem,4.0687165350537,50.97349005,herdersem,41002
2180,9400,Okegem,4.0561164,50.8563924,okegem,41048
2181,9420,Erpe,3.976602,50.9333485,erpe,41082
2182,9420,Erpe-Mere,3.9459888,50.9226391,erpemere,41082
2183,9420,Mere,3.9710267,50.923005,mere,41082
2184,9450,Heldergem,3.9548012,50.8816742,heldergem,41024
2185,9472,Iddergem,4.0440509206633,50.8746795,iddergem,41011
2186,9500,Goeferdinge,3.8392513,50.7654043,goeferdinge,41018
2187,9500,Moerbeke,3.9446436,51.1742698,moerbeke,44045
2188,9506,Grimminge,3.9525416,50.7945316,grimminge,41018
2189,9506,Nieuwenhove,3.9891935,50.7875051,nieuwenhove,41018
2190,9506,Schendelbeke,3.8989486,50.7968671,schendelbeke,41018
2191,9520,Bavegem,3.8680104604272,50.9449691,bavegem,41063
2192,9520,Sint-Lievens-Houtem,3.8521321366835,50.91972825,sintlievenshoutem,41063
2193,9550,Hillegem,3.853568,50.895806,hillegem,41027
2194,9550,Sint-Antelinks,3.9249438,50.8495126,sintantelinks,41027
2195,9550,Steenhuize-Wijnhuize,3.8903745,50.8411146,steenhuizewijnhuize,41027
2196,9620,Strijpen,3.7893247,50.8690354,strijpen,41081
2197,9630,Sint-Blasius-Boekel,3.7206404,50.8515679,sintblasiusboekel,45065
2198,9688,Schorisse,3.6782376,50.8061799,schorisse,45064
2199,9690,Kwaremont,3.5230939,50.7750908,kwaremont,45060
2200,9700,Edelare,3.6281646,50.8316945,edelare,45035
2201,9700,Heurne,3.6405818,50.8878782,heurne,45035
2202,9700,Leupegem,3.6086057,50.8336184,leupegem,45035
2203,9700,Mater,3.6636488,50.8428971,mater,45035
2204,9700,Oudenaarde,3.604782,50.8442604,oudenaarde,45035
2205,9700,Welden,3.6536587,50.8791033,welden,45035
2206,9750,Huise,3.5907777,50.8988246,huise,45068
2207,9750,Ouwegem,3.5978246,50.9121208,ouwegem,45068
2208,9800,Astene,3.5628186,50.9845547,astene,44083
2209,9800,Petegem-Aan-De-Leie,3.5324987,50.969075,petegemaandeleie,44083
2210,9850,Hansbeke,3.5345703,51.0747776,hansbeke,44083
2211,9850,Poesele,3.5117304815871,51.03238865,poesele,44083
2212,9860,Balegem,3.7896135,50.9252028,balegem,44052
2213,9860,Landskouter,3.7928259,50.9694937,landskouter,44052
2214,9890,Baaigem,3.721942,50.9309503,baaigem,44020
2215,9921,Vinderhoute,3.6412401,51.0876396,vinderhoute,44085
2216,9940,Ertvelde,3.7471789,51.1793505,ertvelde,44019
2217,9961,Boekhoute,3.7059614986083,51.2509311,boekhoute,43002
2218,9982,Sint-Jan-In-Eremo,3.580094,51.2682182,sintjanineremo,43014
2219,9988,Waterland-Oudeman,3.5905485,51.2891181,waterlandoudeman,43014
2220,9990,Maldegem,3.4154538,51.2263133,maldegem,43010
2221,1000,Bruxelles,4.351697,50.8465573,bruxelles,21004
2222,1082,Berchem-Sainte-Agathe,4.292702,50.8639835,berchemsainteagathe,21003
2223,1310,La Hulpe,4.4796542,50.7315053,lahulpe,25050
2224,1315,Glimes,4.8384018,50.6799948,glimes,25043
2225,1315,Piètrebais,4.7433685,50.7311108,pietrebais,25043
2226,1320,Beauvechain,4.7716774,50.7810287,beauvechain,25005
2227,1320,Hamme-Mille,4.7205562,50.7819118,hammemille,25005
2228,1320,Nodebais,4.733891,50.7725266,nodebais,25005
2229,1325,Chaumont-Gistoux,4.6974182,50.6839808,chaumontgistoux,25018
2230,1330,Rixensart,4.5272896887008,50.7133548,rixensart,25091
2231,1332,Genval,4.4971389344121,50.72074495,genval,25091
2232,1342,Limelette,4.5549022761211,50.6851551,limelette,25121
2233,1350,Jandrain-Jandrenouille,4.9792652,50.6740112,jandrainjandrenouille,25120
2234,1350,Orp-Jauche,4.9889872,50.7001001,orpjauche,25120
2235,1360,Malèves-Sainte-Marie-Wastines,4.7801225,50.6564717,malevessaintemariewastines,25084
2236,1360,Thorembais-Saint-Trond,4.7839333,50.6357579,thorembaissainttrond,25084
2237,1367,Gérompont,4.8807352,50.6467516,gerompont,25122
2238,1370,Mélin,4.8286208,50.7400918,melin,25048
2239,1370,Piétrain,4.9175477,50.7255018,pietrain,25048
2240,1370,Zétrud-Lumay,4.8838518,50.7592057,zetrudlumay,25048
2241,1380,Lasne-Chapelle-Saint-Lambert,4.5004885,50.6927451,lasnechapellesaintlambert,25119
2242,1390,Bossut-Gottechain,4.6990692,50.7616193,bossutgottechain,25037
2243,1400,Monstreux,4.2860216341575,50.5931607,monstreux,25072
2244,1404,Bornival,4.2649262209555,50.6048658,bornival,25072
2245,1410,Waterloo,4.3978047,50.7173563,waterloo,25110
2246,1421,Ophain-Bois-Seigneur-Isaac,4.3507902353934,50.65630215,ophainboisseigneurisaac,25014
2247,1428,Lillois-Witterzée,4.3670582,50.6483743,lilloiswitterzee,25014
2248,1450,Chastre-Villeroux-Blanmont,4.6377941108725,50.6106296,chastrevillerouxblanmont,25117
2249,1450,Cortil-Noirmont,4.6406799,50.5908074,cortilnoirmont,25117
2250,1457,Tourinnes-Saint-Lambert,4.7220185,50.6395479,tourinnessaintlambert,25124
2251,1460,Virginal-Samme,4.2199759440369,50.6413403,virginalsamme,25044
2252,1461,Haut-Ittre,4.2964719513591,50.6488039,hautittre,25044
2253,1470,Baisy-Thy,4.4880778189719,50.6040225,baisythy,25031
2254,1470,Genappe,4.4479459851741,50.60800575,genappe,25031
2255,1480,Clabecq,4.2214131,50.6893737,clabecq,25105
2256,1480,Oisquercq,4.2167874,50.6700726,oisquercq,25105
2257,1480,Saintes,4.1600612857846,50.70737205,saintes,25105
2258,1490,Court-Saint-Etienne,4.5685766,50.6443208,courtsaintetienne,25023
2259,1502,Lembeek,4.2143430588907,50.7092954,lembeek,23027
2260,1560,Hoeilaart,4.474407,50.7674846,hoeilaart,23033
2261,1570,Tollembeek,4.004789341376,50.7430853,tollembeek,23023
2262,1653,Dworp,4.2950152833964,50.73423975,dworp,23003
2263,1670,Bogaarden,4.1367803,50.7398062,bogaarden,23064
2264,1703,Schepdaal,4.195149072634,50.8363077,schepdaal,23016
2265,1730,Bekkerzeel,4.2381789,50.8853713,bekkerzeel,23002
2266,1730,Mollem,4.2239826,50.9328497,mollem,23002
2267,1731,Relegem,4.2790265927797,50.9019808,relegem,23002
2268,1750,Gaasbeek,4.1888025,50.7998923,gaasbeek,23104
2269,1755,Gooik,4.1029840674511,50.7979738,gooik,23024
2270,1760,Onze-Lieve-Vrouw-Lombeek,4.1119573,50.8220387,onzelievevrouwlombeek,23097
2271,1790,Essene,4.1390421,50.8973851,essene,23105
2272,1800,Vilvoorde,4.4329052514838,50.92813655,vilvoorde,23088
2273,1830,Machelen,4.4353614,50.9124219,machelen,23047
2274,1840,Londerzeel,4.2990729416338,51.0122466,londerzeel,23045
2275,1853,Strombeek-Bever,4.342355501959,50.91096285,strombeekbever,23025
2276,1861,Wolvertem,4.3085198,50.9510266,wolvertem,23050
2277,1880,Ramsdonk,4.3374964007802,51.0114961,ramsdonk,23039
2278,1970,Wezembeek-Oppem,4.4871796,50.8440554,wezembeekoppem,23103
2279,2020,Antwerpen,4.3997081,51.2211097,antwerpen,11002
2280,2070,Burcht,4.3416362,51.2028046,burcht,11056
2281,2070,Zwijndrecht,4.3188693282188,51.23062085,zwijndrecht,11056
2282,2110,Wijnegem,4.5225318,51.2270761,wijnegem,11050
2283,2160,Wommelgem,4.5238022,51.2031044,wommelgem,11052
2284,2222,Itegem,4.731894344605,51.10403005,itegem,12014
2285,2230,Herselt,4.9018080031354,51.0554081,herselt,13013
2286,2240,Viersel,4.6503063,51.187272,viersel,11054
2287,2250,Olen,4.8597257,51.1438611,olen,13029
2288,2260,Oevel,4.9053101,51.1377568,oevel,13049
2289,2270,Herenthout,4.7543972,51.1392427,herenthout,13012
2290,2275,Poederlee,4.8359528,51.2267185,poederlee,13019
2291,2275,Wechelderzande,4.7910582697468,51.26541275,wechelderzande,13019
2292,2290,Vorselaar,4.769482,51.2023448,vorselaar,13044
2293,2321,Meer,4.7372548575575,51.46092495,meer,13014
2294,2328,Meerle,4.8051679,51.4743516,meerle,13014
2295,2350,Vosselaar,4.8878026,51.3129153,vosselaar,13046
2296,2430,Laakdal,5.0073022,51.0802695,laakdal,13053
2297,2460,Tielen,4.8965455,51.2422595,tielen,13017
2298,2500,Koningshooikt,4.6033828110877,51.0929433,koningshooikt,12021
2299,2520,Ranst,4.5637563614009,51.1961732,ranst,11035
2300,2530,Boechout,4.510406865149,51.1596941,boechout,11004
2301,2531,Vremde,4.5226229,51.1753099,vremde,11004
2302,2580,Putte,4.6310473,51.0570823,putte,12029
2303,2600,Berchem,4.4317026387884,51.1918493,berchem,11002
2304,2640,Mortsel,4.4593335,51.1741789,mortsel,11029
2305,2840,Terhagen,4.3993623,51.078277,terhagen,11037
2306,2845,Niel,4.3303396,51.1098649,niel,11030
2307,2890,Sint-Amands,4.2107348196593,51.0463409,sintamands,12041
2308,2900,Schoten,4.4980446,51.2516344,schoten,11040
2309,3018,Wijgmaal,4.7001214,50.926428,wijgmaal,24062
2310,3061,Leefdaal,4.5905043649411,50.8419887,leefdaal,24009
2311,3078,Everberg,4.5545949589597,50.87266065,everberg,24055
2312,3080,Duisburg,4.545208431698,50.8110528,duisburg,24104
2313,3120,Tremelo,4.6755134,50.9900457,tremelo,24109
2314,3140,Keerbergen,4.6265551,51.0049242,keerbergen,24048
2315,3190,Boortmeerbeek,4.575800525,50.97828585,boortmeerbeek,24014
2316,3210,Linden,4.7756847507269,50.89891075,linden,24066
2317,3211,Binkom,4.8908885858013,50.8721422,binkom,24066
2318,3221,Nieuwrode,4.8338045392342,50.9470265,nieuwrode,24043
2319,3290,Schaffen,5.086792549946,51.0130411,schaffen,24020
2320,3290,Webbekom,5.054414061955,50.9649291,webbekom,24020
2321,3293,Kaggevinne,5.0299404926122,50.9776976,kaggevinne,24020
2322,3300,Goetsenhoven,4.9603301209235,50.77139835,goetsenhoven,24107
2323,3300,Kumtich,4.8863798378559,50.8245511,kumtich,24107
2324,3300,Sint-Margriete-Houtem,4.9623805201831,50.83464645,sintmargrietehoutem,24107
2325,3300,Tienen,4.9464292134294,50.80843175,tienen,24107
2326,3320,Meldert,4.8294566856141,50.78956675,meldert,24041
2327,3350,Orsmaal-Gussenhoven,5.0674769,50.8054143,orsmaalgussenhoven,24133
2328,3360,Bierbeek,4.7714318076029,50.8241245,bierbeek,24011
2329,3370,Willebringen,4.8387022883011,50.80664425,willebringen,24016
2330,3390,Houwaart,4.8605997436813,50.93414405,houwaart,24135
2331,3390,Sint-Joris-Winge,4.8754116537611,50.9121762,sintjoriswinge,24135
2332,3400,Wange,5.0302723897201,50.7838394,wange,24059
2333,3440,Budingen,5.0871237674967,50.8653457,budingen,24130
2334,3440,Dormaal,5.0920421498928,50.8063449,dormaal,24130
2335,3440,Zoutleeuw,5.1186447480147,50.8415653,zoutleeuw,24130
2336,3460,Bekkevoort,4.984616971522,50.9338977,bekkevoort,24008
2337,3473,Waanrode,5.0037716328589,50.9129375,waanrode,24054
2338,3500,Sint-Lambrechts-Herk,5.3119462785891,50.90358435,sintlambrechtsherk,71022
2339,3511,Stokrooie,5.2747491372719,50.97085355,stokrooie,71022
2340,3530,Houthalen,5.4121547136036,51.036563,houthalen,72039
2341,3540,Donk,4.9053567,50.9582088,donk,24001
2342,3545,Loksbergen,5.0656234079577,50.9321193,loksbergen,71020
2343,3550,Heusden-Zolder,5.2750485,51.0233485,heusdenzolder,71070
2344,3550,Zolder,5.3135203,51.0236553,zolder,71070
2345,3560,Linkhout,5.1372552,50.9657859,linkhout,71037
2346,3631,Uikhoven,5.7199198507341,50.9264738,uikhoven,73107
2347,3640,Ophoven,5.7881529659009,51.13225635,ophoven,72018
2348,3650,Lanklaar,5.6747570297643,51.01085805,lanklaar,72041
2349,3668,Niel-Bij-As,5.6161660037867,51.0182495,nielbijas,71002
2350,3680,Neeroeteren,5.7027136767689,51.0946499,neeroeteren,72021
2351,3700,Overrepen,5.4301056,50.8067083,overrepen,73083
2352,3700,Riksingen,5.4616724,50.8065023,riksingen,73083
2353,3700,Rutten,5.4421316,50.747053,rutten,73083
2354,3700,Tongeren,5.4648131,50.7810151,tongeren,73083
2355,3721,Vliermaalroot,5.4298574663068,50.8667966,vliermaalroot,73040
2356,3722,Wintershoven,5.4073456316551,50.85566395,wintershoven,73040
2357,3730,Hoeselt,5.4865309,50.8500788,hoeselt,73032
2358,3740,Kleine-Spouwen,5.5473874,50.8379653,kleinespouwen,73006
2359,3740,Mopertingen,5.5760673,50.862295,mopertingen,73006
2360,3740,Munsterbilzen,5.5270242,50.8883348,munsterbilzen,73006
2361,3742,Martenslinde,5.5340486411054,50.8523326,martenslinde,73006
2362,3770,Kanne,5.6692203,50.8141622,kanne,73066
2363,3770,Riemst,5.5978716,50.8115825,riemst,73066
2364,3770,Vroenhoven,5.6374847,50.828018,vroenhoven,73066
2365,3770,Zichen-Zussen-Bolder,5.6153404,50.7943475,zichenzussenbolder,73066
2366,3803,Runkelen,5.1519921,50.8477735,runkelen,71053
2367,3803,Wilderen,5.1423025876022,50.81773655,wilderen,71053
2368,3840,Bommershoven,5.3823531554707,50.78522885,bommershoven,73009
2369,3840,Borgloon,5.3569929252994,50.8004351,borgloon,73009
2370,3840,Hoepertingen,5.2852748851765,50.81158915,hoepertingen,73009
2371,3840,Jesseren,5.3905151,50.8058717,jesseren,73009
2372,3870,Batsheers,5.2807989,50.7381794,batsheers,73022
2373,3890,Boekhout,5.2314326932833,50.7456072,boekhout,71017
2374,3890,Jeuk,5.2095391018082,50.73257605,jeuk,71017
2375,3890,Niel-Bij-Sint-Truiden,5.14193594683,50.7404614,nielbijsinttruiden,71017
2376,3890,Vorsen,5.1713288748516,50.705232,vorsen,71017
2377,3910,Neerpelt,5.4314419,51.2289746,neerpelt,72043
2378,3930,Hamont-Achel,5.5128696,51.2547636,hamontachel,72037
2379,3945,Oostham,5.1838556043202,51.10876505,oostham,71069
2380,3950,Kaulille,5.5172805548337,51.19391715,kaulille,72003
2381,3960,Gerdingen,5.5648743785157,51.1304481,gerdingen,72004
2382,3960,Tongerlo,5.6788533966978,51.1305517,tongerlo,72004
2383,3970,Leopoldsburg,5.2638924294785,51.1220584,leopoldsburg,71034
2384,3990,Kleine-Brogel,5.4623610101885,51.1726086,kleinebrogel,72030
2385,3990,Peer,5.4491572190061,51.10874,peer,72030
2386,4000,Rocourt,5.547616,50.678042,rocourt,62063
2387,4020,Bressoux,5.6111443,50.6412964,bressoux,62063
2388,4020,Jupille-Sur-Meuse,5.6301266,50.6431909,jupillesurmeuse,62063
2389,4020,Wandre,5.6596627,50.670247,wandre,62063
2390,4051,Vaux-Sous-Chèvremont,5.6335963,50.6018717,vauxsouschevremont,62022
2391,4100,Boncelles,5.5355698,50.5742979,boncelles,62096
2392,4100,Seraing,5.5083375,50.5966392,seraing,62096
2393,4101,Jemeppe-Sur-Meuse,5.5049541,50.6168289,jemeppesurmeuse,62096
2394,4130,Esneux,5.5757727440324,50.5337249,esneux,62032
2395,4130,Tilff,5.594232762079,50.5613241,tilff,62032
2396,4140,Gomzé-Andoumont,5.6835772963268,50.54506305,gomzeandoumont,62100
2397,4160,Anthisnes,5.5225261,50.481662,anthisnes,61079
2398,4180,Comblain-La-Tour,5.5699525,50.4553077,comblainlatour,61024
2399,4190,My,5.5726031,50.40526,my,61019
2400,4210,Burdinne,5.072436,50.5812607,burdinne,61010
2401,4219,Acosse,5.0485902,50.5945676,acosse,64075
2402,4250,Geer,5.1710529,50.6684881,geer,64029
2403,4250,Hollogne-Sur-Geer,5.2045681,50.6770806,hollognesurgeer,64029
2404,4280,Cras-Avernas,5.122837,50.6978983,crasavernas,64034
2405,4287,Pellaines,5.0055524,50.7228078,pellaines,64047
2406,4287,Racour,5.0290114,50.7388269,racour,64047
2407,4300,Waremme,5.2546191,50.6976875,waremme,64074
2408,4347,Noville,5.3827164,50.6598522,noville,64025
2409,4347,Roloux,5.3960063,50.6494928,roloux,64025
2410,4357,Jeneffe,5.3559477,50.6532256,jeneffe,64023
2411,4400,Chokier,5.4528969,50.5936483,chokier,62120
2412,4432,Xhendremael,5.4805775,50.7043671,xhendremael,62003
2413,4451,Voroux-Lez-Liers,5.552484,50.687631,vorouxlezliers,62060
2414,4460,Grâce-Berleur,5.501194,50.6323331,graceberleur,62118
2415,4460,Horion-Hozémont,5.3886713,50.6149668,horionhozemont,62118
2416,4470,Saint-Georges-Sur-Meuse,5.3579041,50.6000686,saintgeorgessurmeuse,64065
2417,4480,Engis,5.4043113,50.582433,engis,61080
2418,4540,Ampsin,5.286736,50.540238,ampsin,61003
2419,4550,Yernée-Fraineux,5.3819538,50.5284301,yerneefraineux,61043
2420,4557,Tinlot,5.3786954,50.4777419,tinlot,61081
2421,4560,Bois-Et-Borsu,5.3302671,50.3946271,boisetborsu,61012
2422,4560,Ocquier,5.3954539,50.3965212,ocquier,61012
2423,4577,Modave,5.3017936,50.4416137,modave,61041
2424,4590,Ouffet,5.4653273,50.4377341,ouffet,61048
2425,4600,Lixhe,5.680109,50.7550757,lixhe,62108
2426,4601,Argenteau,5.686015,50.6957645,argenteau,62108
2427,4607,Dalhem,5.7229816,50.7139302,dalhem,62027
2428,4620,Fléron,5.6832219,50.6168354,fleron,62038
2429,4624,Romsée,5.6655488,50.6068155,romsee,62038
2430,4633,Melen,5.7370469,50.6460841,melen,62099
2431,4650,Julémont,5.7718682,50.6856398,julemont,63035
2432,4680,Oupeye,5.6450671,50.7091889,oupeye,62079
2433,4683,Vivegnis,5.6527071,50.697932,vivegnis,62079
2434,4690,Wonck,5.6333621,50.7677078,wonck,62011
2435,4730,Hauset,6.0708402,50.7080172,hauset,63061
2436,4731,Eynatten,6.081697,50.6935863,eynatten,63061
2437,4760,Manderfeld,6.3400555,50.3310938,manderfeld,63012
2438,4780,Recht,6.0431296,50.3349273,recht,63067
2439,4783,Lommersweiler,6.1651484,50.2389236,lommersweiler,63067
2440,4802,Heusy,5.867539,50.57804,heusy,63079
2441,4834,Goé,5.9562188,50.6086202,goe,63046
2442,4841,Henri-Chapelle,5.9318018,50.6768234,henrichapelle,63084
2443,4845,Sart-Lez-Spa,5.933482,50.51744,sartlezspa,63038
2444,4850,Moresnet,5.9880362,50.7208739,moresnet,63088
2445,4860,Wegnez,5.8175559,50.5789617,wegnez,63058
2446,4870,Forêt,5.7002354,50.583997,foret,62122
2447,4910,Theux,5.8198955843753,50.52586075,theux,63076
2448,4980,Trois-Ponts,5.8704355,50.3727015,troisponts,63086
2449,4990,Bra,5.7309407,50.3208964,bra,63045
2450,4990,Lierneux,5.7920929,50.28574,lierneux,63045
2451,5001,Belgrade,4.8222958522639,50.46923485,belgrade,92094
2452,5020,Champion,4.9035112119756,50.49862565,champion,92094
2453,5020,Suarlée,4.7780268559488,50.4883008,suarlee,92094
2454,5020,Temploux,4.7509248,50.4829793,temploux,92094
2455,5030,Grand-Manil,4.683029,50.556923,grandmanil,92142
2456,5032,Bossière,4.6919946070362,50.52340745,bossiere,92142
2457,5060,Auvelais,4.6354624,50.4470193,auvelais,92137
2458,5070,Vitrival,4.6558828,50.3941596,vitrival,92048
2459,5100,Dave,4.9043004277231,50.4110871,dave,92094
2460,5100,Wierde,4.9497445929374,50.4286275,wierde,92094
2461,5101,Erpent,4.9094515331252,50.4474046,erpent,92094
2462,5140,Sombreffe,4.6025925,50.5246589,sombreffe,92114
2463,5150,Floriffoux,4.7694348,50.4515822,floriffoux,92045
2464,5150,Soye,4.730789,50.4494828,soye,92045
2465,5170,Arbre,4.820627,50.365529,arbre,92101
2466,5170,Bois-De-Villers,4.823377,50.389973,boisdevillers,92101
2467,5170,Rivière,4.8724268,50.3580729,riviere,92101
2468,5190,Jemeppe-Sur-Sambre,4.6545986012407,50.46299585,jemeppesursambre,92140
2469,5300,Seilles,5.0805501,50.4984249,seilles,92003
2470,5300,Vezin,5.0114611,50.4966018,vezin,92003
2471,5310,Eghezée,4.9049523,50.5917416,eghezee,92035
2472,5310,Liernu,4.8311032,50.5821124,liernu,92035
2473,5310,Longchamps,4.8962185,50.5772925,longchamps,92035
2474,5310,Mehaigne,4.8762345,50.5942203,mehaigne,92035
2475,5310,Taviers,4.9318579,50.6170592,taviers,92035
2476,5340,Faulx-Les-Tombes,5.0191438,50.4272928,faulxlestombes,92054
2477,5340,Sorée,5.1258806,50.4001817,soree,92054
2478,5351,Haillot,5.1491871,50.4405961,haillot,92097
2479,5370,Porcheresse,5.2408578,50.3384304,porcheresse,91064
2480,5376,Miécret,5.24941,50.365689,miecret,91064
2481,5377,Waillet,5.304196,50.260584,waillet,91120
2482,5500,Anseremme,4.907923,50.23791,anseremme,91034
2483,5500,Dréhance,4.9388148,50.2368273,drehance,91034
2484,5504,Foy-Notre-Dame,4.9897127,50.2471757,foynotredame,91034
2485,5530,Durnal,4.9857278,50.3380783,durnal,91141
2486,5530,Mont,5.7909538,50.5341607,mont,63076
2487,5537,Warnant,4.836084,50.3238206,warnant,91005
2488,5544,Agimont,4.7942801,50.16421,agimont,91142
2489,5555,Naomé,5.0894297,49.9226206,naome,91015
2490,5560,Ciergnon,5.0899109,50.1666464,ciergnon,91072
2491,5570,Beauraing,4.9576144,50.1105211,beauraing,91013
2492,5570,Wancennes,4.961015,50.0920374,wancennes,91013
2493,5575,Malvoisin,4.9609972,50.0121497,malvoisin,91054
2494,5575,Vencimont,4.9198406,50.0323702,vencimont,91054
2495,5576,Froidfontaine,5.000634,50.0604028,froidfontaine,91013
2496,5580,Ave-Et-Auffe,5.1530857761777,50.11195305,aveetauffe,91114
2497,5580,Jemelle,5.2624584,50.1624278,jemelle,91114
2498,5580,Wavreille,5.2419236738324,50.11639205,wavreille,91114
2499,5590,Braibant,5.0629626,50.3129076,braibant,91030
2500,5590,Ciney,5.0974251,50.2949558,ciney,91030
2501,5600,Fagnolle,4.5703749,50.1050216,fagnolle,93056
2502,5600,Merlemont,4.6072911,50.1728667,merlemont,93056
2503,5600,Omezée,4.6995791,50.1933288,omezee,93056
2504,5600,Roly,4.5381501,50.1356527,roly,93056
2505,5600,Sart-En-Fagne,4.6199447,50.1579167,sartenfagne,93056
2506,5600,Sautour,4.5612425,50.1694005,sautour,93056
2507,5600,Vodecée,4.5920788,50.1972001,vodecee,93056
2508,5620,Corenne,4.6792792,50.2519501,corenne,93022
2509,5620,Morville,4.7440112,50.2330003,morville,93022
2510,5621,Hanzinelle,4.5607099,50.2949873,hanzinelle,93022
2511,5621,Hanzinne,4.5435524,50.3084666,hanzinne,93022
2512,5621,Morialmé,4.5634203,50.2776442,morialme,93022
2513,5630,Cerfontaine,4.4125932,50.1687764,cerfontaine,93010
2514,5630,Senzeille,4.466208,50.1762834,senzeille,93010
2515,5640,Oret,4.615806,50.3004056,oret,92087
2516,5641,Furnaux,4.7055271,50.3080016,furnaux,92087
2517,5646,Stave,4.6590441,50.2828212,stave,92087
2518,5650,Fraire,4.5081639,50.2613846,fraire,93088
2519,5660,Boussu-En-Fagne,4.4710191,50.0754838,boussuenfagne,93014
2520,5670,Treignes,4.6692715,50.0922698,treignes,93090
2521,5670,Vierves-Sur-Viroin,4.634249,50.080269,viervessurviroin,93090
2522,5670,Viroinval,4.6270287,50.0516361,viroinval,93090
2523,5680,Doische,4.7458219,50.1357152,doische,93018
2524,5680,Gimnée,4.7141334,50.1315986,gimnee,93018
2525,5680,Matagne-La-Grande,4.6236448,50.1171293,matagnelagrande,93018
2526,5680,Matagne-La-Petite,4.6468816,50.1186008,matagnelapetite,93018
2527,5680,Niverlée,4.7026857,50.1177554,niverlee,93018
2528,5680,Vodelée,4.7323157,50.1702393,vodelee,93018
2529,6030,Goutroux,4.3611946147288,50.41684425,goutroux,52011
2530,6030,Marchienne-Au-Pont,4.3960065,50.4067102,marchienneaupont,52011
2531,6040,Jumet,4.4360232749854,50.44466065,jumet,52011
2532,6110,Montigny-Le-Tilleul,4.3602314806535,50.369072045553,montignyletilleul,52048
2533,6120,Cour-Sur-Heure,4.3868963,50.2974701,coursurheure,56086
2534,6120,Ham-Sur-Heure,4.3889214,50.3219897,hamsurheure,56086
2535,6142,Leernes,4.3307851,50.3974398,leernes,52022
2536,6150,Anderlues,4.2696102,50.4079969,anderlues,56001
2537,6180,Courcelles,4.3763406,50.4601576,courcelles,52015
2538,6210,Frasnes-Lez-Gosselies,4.4501525,50.5376477,frasneslezgosselies,52075
2539,6210,Wayaux,4.4723314,50.4896309,wayaux,52075
2540,6211,Mellet,4.4782005997401,50.50462075,mellet,52075
2541,6220,Wangenies,4.519112,50.4776689,wangenies,52021
2542,6222,Brye,4.561356496071,50.53007005,brye,52021
2543,6280,Joncret,4.5125952,50.3528064,joncret,52025
2544,6280,Loverval,4.47342,50.374997,loverval,52025
2545,6441,Erpion,4.3512321,50.2118893,erpion,56029
2546,6460,Salles,4.247403,50.0560102,salles,56016
2547,6461,Virelles,4.3329805,50.0648008,virelles,56016
2548,6464,Forges,4.3211041,50.022579,forges,56016
2549,6470,Sautin,4.226143,50.163816,sautin,56088
2550,6500,Barbençon,4.2859259,50.2206905,barbencon,56005
2551,6500,Thirimont,4.2364418,50.2608137,thirimont,56005
2552,6534,Gozée,4.3515595,50.3332279,gozee,56078
2553,6536,Thuillies,4.329007,50.2947304,thuillies,56078
2554,6560,Montignies-Saint-Christophe,4.1884975,50.2815734,montigniessaintchristophe,56022
2555,6591,Macon,4.2096331,50.052122,macon,56051
2556,6637,Fauvillers,5.665031,49.8509306,fauvillers,82009
2557,6660,Houffalize,5.7886928,50.1323761,houffalize,82014
2558,6660,Nadrin,5.6807442,50.1611829,nadrin,82014
2559,6680,Amberloup,5.5272931,50.0292955,amberloup,82038
2560,6680,Sainte-Ode,5.5245094,50.0362888,sainteode,82038
2561,6692,Petit-Thier,5.9672766,50.3074461,petitthier,82032
2562,6698,Grand-Halleux,5.9072517,50.3262753,grandhalleux,82032
2563,6717,Nobressart,5.7187077,49.7399333,nobressart,81003
2564,6717,Tontelange,5.8099377,49.7266352,tontelange,81003
2565,6720,Hachy,5.6805003,49.7015507,hachy,85046
2566,6730,Bellefontaine,5.4979103,49.6649541,bellefontaine,85039
2567,6743,Buzenol,5.5942184,49.6478969,buzenol,85009
2568,6750,Mussy-La-Ville,5.6617004,49.5714143,mussylaville,85026
2569,6760,Ruette,5.5937884,49.5376723,ruette,85045
2570,6781,Sélange,5.848409,49.6081105,selange,81015
2571,6800,Remagne,5.494626,49.9764499,remagne,84077
2572,6800,Saint-Pierre,5.386433,49.9047868,saintpierre,84077
2573,6851,Nollevaux,5.1220764,49.8710591,nollevaux,84050
2574,6870,Mirwart,5.2653304,50.0569945,mirwart,84059
2575,6890,Ochamps,5.2781878,49.9244612,ochamps,84035
2576,6890,Transinne,5.2026639,50.0004466,transinne,84035
2577,6890,Villance,5.2221196,49.9709626,villance,84035
2578,6900,Waha,5.3441742,50.2119666,waha,83034
2579,6940,Durbuy,5.456248,50.3524116,durbuy,83012
2580,6953,Masbourg,5.3136921,50.1143521,masbourg,83040
2581,6960,Dochamps,5.6230297,50.234199,dochamps,83055
2582,6960,Odeigne,5.682551,50.2563686,odeigne,83055
2583,6980,Beausaint,5.5532565,50.170322,beausaint,83031
2584,6987,Beffe,5.5230608,50.245425,beffe,83044
2585,6987,Rendeux,5.5043243,50.2330466,rendeux,83044
2586,6990,Hotton,5.4463304,50.2688011,hotton,83028
2587,7000,Mons,3.951958,50.4549568,mons,53053
2588,7022,Nouvelles,3.9689185,50.4100798,nouvelles,53053
2589,7040,Aulnois,3.9031862,50.340829,aulnois,53084
2590,7040,Blaregnies,3.8980429,50.357777,blaregnies,53084
2591,7040,Goegnies-Chaussée,3.9442029,50.3422836,goegnieschaussee,53084
2592,7040,Quévy-Le-Grand,3.9492347,50.3609637,quevylegrand,53084
2593,7062,Naast,4.1011662,50.5536883,naast,55040
2594,7063,Chaussée-Notre-Dame-Louvignies,3.9979808,50.5921606,chausseenotredamelouvignies,55040
2595,7080,Eugies,3.8883703,50.3906692,eugies,53028
2596,7090,Hennuyères,4.1715689,50.6386981,hennuyeres,55004
2597,7110,Boussoit,4.081995,50.4588091,boussoit,58001
2598,7110,Maurage,4.0979858,50.4577279,maurage,58001
2599,7120,Haulchin,4.0801348,50.3831523,haulchin,58003
2600,7120,Peissant,4.1208612,50.3512136,peissant,58003
2601,7120,Vellereille-Les-Brayeux,4.1507915,50.3790081,vellereillelesbrayeux,58003
2602,7131,Waudrez,4.150981,50.4137808,waudrez,58002
2603,7300,Boussu,3.7960902,50.4331253,boussu,53014
2604,7322,Ville-Pommeroeul,3.7304437,50.471652,villepommeroeul,51009
2605,7331,Baudour,3.8327577,50.4814352,baudour,53070
2606,7332,Neufmaison,3.7918519,50.5304672,neufmaison,53070
2607,7333,Tertre,3.8081735,50.4673149,tertre,53070
2608,7350,Hainin,3.7661218,50.4311514,hainin,53039
2609,7387,Marchipont,3.666982,50.377885,marchipont,53083
2610,7500,Ere,3.3668477,50.5822217,ere,57081
2611,7501,Orcq,3.3492864,50.6049549,orcq,57081
2612,7520,Templeuve,3.2831577,50.6449056,templeuve,57081
2613,7530,Gaurain-Ramecroix,3.4834445,50.5924891,gaurainramecroix,57081
2614,7531,Havinnes,3.4655917,50.6156953,havinnes,57081
2615,7610,Rumes,3.3039251,50.5557678,rumes,57072
2616,7611,La Glanerie,3.3010202,50.5298416,laglanerie,57072
2617,7622,Laplaigne,3.4418587625525,50.52296155,laplaigne,57093
2618,7643,Fontenoy,3.473373,50.567887,fontenoy,57003
2619,7700,Luingne,3.2344942,50.7386186,luingne,57096
2620,7700,Mouscron,3.2139093,50.7433351,mouscron,57096
2621,7750,Amougies,3.5066795,50.743719,amougies,57095
2622,7760,Popuelles,3.5192597,50.6621501,popuelles,57018
2623,7810,Maffle,3.8060162,50.615068,maffle,51004
2624,7812,Mainvault,3.7184421,50.6495829,mainvault,51004
2625,7812,Villers-Saint-Amand,3.730712,50.6226624,villerssaintamand,51004
2626,7863,Ghoy,3.8094385,50.7283427,ghoy,51069
2627,7901,Thieulain,3.6085857,50.6179826,thieulain,57094
2628,7903,Blicquy,3.6857513,50.5878005,blicquy,57094
2629,7906,Gallaix,3.5748349,50.6060715,gallaix,57094
2630,7910,Cordes,3.5342514,50.688202,cordes,51065
2631,7911,Hacquegnies,3.5938505,50.6522435,hacquegnies,51065
2632,7911,Montroeul-Au-Bois,3.571359,50.642909,montroeulaubois,51065
2633,7911,Oeudeghien,3.7117971,50.6780664,oeudeghien,51065
2634,7912,Dergneau,3.5666,50.712579,dergneau,51065
2635,7942,Mévergnies-Lez-Lens,3.8507081,50.6044689,mevergnieslezlens,51012
2636,7950,Ladeuze,3.7713023,50.567984,ladeuze,51014
2637,7951,Tongre-Notre-Dame,3.7748043,50.581313,tongrenotredame,51014
2638,7971,Wadelincourt,3.6483678,50.5385955,wadelincourt,51008
2639,7972,Quevaucamps,3.6909731,50.5302519,quevaucamps,51008
2640,8020,Ruddervoorde,3.2014781027698,51.08464525,ruddervoorde,31022
2641,8020,Waardamme,3.2222872,51.1123296,waardamme,31022
2642,8210,Zedelgem,3.1404473279372,51.1355326,zedelgem,31040
2643,8300,Westkapelle,3.3172865697943,51.3207807,westkapelle,31043
2644,8310,Sint-Kruis,3.2506508,51.2142018,sintkruis,31005
2645,8340,Damme,3.2920911130762,51.2553021,damme,31006
2646,8340,Hoeke,3.3302838831505,51.2936953,hoeke,31006
2647,8370,Blankenberge,3.1297578035057,51.31651475,blankenberge,31004
2648,8377,Nieuwmunster,3.0994149719104,51.275802,nieuwmunster,31042
2649,8380,Dudzele,3.2292277,51.2747463,dudzele,31005
2650,8420,De Haan,3.0049248,51.2415107,dehaan,35029
2651,8433,Sint-Pieters-Kapelle,2.8859081205773,51.1228258,sintpieterskapelle,35011
2652,8450,Bredene,2.9725769468284,51.23890495,bredene,35002
2653,8460,Westkerke,3.0047445512126,51.16355795,westkerke,35014
2654,8470,Moere,2.9565554411399,51.1319588,moere,35005
2655,8490,Snellegem,3.1229871043255,51.17552695,snellegem,31012
2656,8490,Varsenare,3.1361350320817,51.19920035,varsenare,31012
2657,8501,Bissegem,3.2284723,50.8228226,bissegem,34022
2658,8531,Bavikhove,3.3126044844799,50.8790473,bavikhove,34013
2659,8531,Hulste,3.2990273,50.8820656,hulste,34013
2660,8552,Moen,3.3825263241918,50.775415,moen,34042
2661,8581,Waarmaarde,3.4854202,50.7903789,waarmaarde,34003
2662,8583,Bossuit,3.4080819304802,50.74804505,bossuit,34003
2663,8587,Espierres-Helchin,3.3465264652837,50.72568025,espierreshelchin,34043
2664,8600,Leke,2.8993179258716,51.10066415,leke,32003
2665,8600,Stuivekenskerke,2.823381776939,51.07690075,stuivekenskerke,32003
2666,8610,Zarren,2.9597764,51.0181095,zarren,32011
2667,8630,De Moeren,2.5953950379549,51.03587905,demoeren,38025
2668,8630,Eggewaartskapelle,2.7298247748665,51.0495264,eggewaartskapelle,38025
2669,8630,Houtem,2.604305716244,51.0069146,houtem,38025
2670,8647,Lo,2.7607800723908,50.9931276,lo,32030
2671,8660,Adinkerke,2.5896028375712,51.06926315,adinkerke,38008
2672,8670,Oostduinkerke,2.7012679966518,51.12531835,oostduinkerke,38014
2673,8690,Hoogstade,2.6903321,50.9800701,hoogstade,38002
2674,8690,Sint-Rijkers,2.6881434,50.9945231,sintrijkers,38002
2675,8691,Gijverinkhove,2.6727552,50.9761749,gijverinkhove,38002
2676,8700,Aarsele,3.4139884196625,50.9972412,aarsele,37015
2677,8720,Wakken,3.4009830853574,50.93483565,wakken,37002
2678,8730,Beernem,3.3144732597608,51.12774395,beernem,31003
2679,8792,Desselgem,3.3669119563274,50.88302825,desselgem,34040
2680,8830,Gits,3.1103285411089,50.9975916,gits,36006
2681,8840,Oostnieuwkerke,3.0641586047981,50.94159445,oostnieuwkerke,36019
2682,8840,Westrozebeke,3.0095525945894,50.933009,westrozebeke,36019
2683,8880,Ledegem,3.1176598783352,50.86898195,ledegem,36010
2684,8880,Rollegem-Kapelle,3.1510232055719,50.87005025,rollegemkapelle,36010
2685,8906,Elverdinge,2.8086072093094,50.88120105,elverdinge,33011
2686,8920,Poelkapelle,2.9632606863338,50.9278167,poelkapelle,33040
2687,8930,Lauwe,3.1938978797182,50.78879055,lauwe,34027
2688,8954,Westouter,2.7409610507934,50.8003371,westouter,33039
2689,8957,Messines,2.9001214234264,50.7596526,messines,33016
2690,8958,Loker,2.7797309731213,50.78372855,loker,33039
2691,8972,Krombeke,2.6729063768433,50.9045753,krombeke,33021
2692,8980,Zonnebeke,2.9874678,50.8731885,zonnebeke,33037
2693,9040,Sint-Amandsberg,3.7488657,51.061875,sintamandsberg,44021
2694,9042,Sint-Kruis-Winkel,3.8234371,51.1541943,sintkruiswinkel,44021
2695,9052,Zwijnaarde,3.7021790930106,51.00092235,zwijnaarde,44021
2696,9080,Lochristi,3.8271355,51.0991574,lochristi,44034
2697,9111,Belsele,4.0917750185456,51.1570236,belsele,46021
2698,9130,Kieldrecht,4.1983386657846,51.3038751,kieldrecht,46003
2699,9130,Verrebroek,4.1871839695525,51.2540739,verrebroek,46003
2700,9140,Tielrode,4.1736809973609,51.12202775,tielrode,46025
2701,9160,Daknam,3.9808547859604,51.12798595,daknam,46014
2702,9160,Lokeren,3.9911114,51.1042159,lokeren,46014
2703,9190,Kemzeke,4.0771037,51.2065228,kemzeke,46024
2704,9200,Appels,4.0562275450955,51.02983825,appels,42006
2705,9230,Westrem,3.8614248,50.9697855,westrem,42025
2706,9255,Buggenhout,4.192804319009,51.0113077,buggenhout,42004
2707,9270,Kalken,3.918568,51.0370133,kalken,42010
2708,9290,Uitbergen,3.9639785004366,51.0278435,uitbergen,42003
2709,9300,Aalst,4.0396424203486,50.9429755,aalst,41002
2710,9308,Hofstade,4.0298563154701,50.96682385,hofstade,41002
2711,9340,Smetlede,3.9269566,50.9660712,smetlede,41034
2712,9401,Pollare,3.9969451,50.8168641,pollare,41048
2713,9420,Aaigem,3.9366909,50.8894174,aaigem,41082
2714,9450,Denderhoutem,4.0059338596505,50.878059,denderhoutem,41024
2715,9451,Kerksken,3.9792346670559,50.88457295,kerksken,41024
2716,9473,Welle,4.0448599,50.9005405,welle,41011
2717,9506,Idegem,3.9295308016087,50.8043243,idegem,41018
2718,9506,Smeerebbe-Vloerzegem,3.9259210427614,50.81624535,smeerebbevloerzegem,41018
2719,9520,Oombergen,3.8381185,50.8988376,oombergen,41081
2720,9520,Zonnegem,3.9163011372068,50.93017155,zonnegem,41063
2721,9550,Herzele,3.8873953834097,50.88830225,herzele,41027
2722,9550,Sint-Lievens-Esse,3.8871129,50.8553127,sintlievensesse,41027
2723,9571,Hemelveerdegem,3.8638783508569,50.8088369,hemelveerdegem,45063
2724,9572,Sint-Martens-Lierde,3.8157846440419,50.80452055,sintmartenslierde,45063
2725,9620,Erwetegem,3.8142328,50.8558332,erwetegem,41081
2726,9620,Godveerdegem,3.8204374,50.8594123,godveerdegem,41081
2727,9620,Sint-Maria-Oudenhove,3.7998568349562,50.82512665,sintmariaoudenhove,41081
2728,9620,Zottegem,3.8155460176798,50.86909165,zottegem,41081
2729,9630,Beerlegem,3.719796314005,50.90267645,beerlegem,45065
2730,9630,Dikkele,3.7418503,50.9034583,dikkele,45065
2731,9630,Hundelgem,3.7552865,50.8891513,hundelgem,45065
2732,9630,Zwalm,3.719334,50.8793307,zwalm,45065
2733,9667,Horebeke,3.6920346,50.8348628,horebeke,45062
2734,9667,Sint-Kornelis-Horebeke,3.6991826,50.8356339,sintkornelishorebeke,45062
2735,9680,Etikhove,3.625998,50.8129246,etikhove,45064
2736,9690,Kluisbergen,3.5212498,50.7782986,kluisbergen,45060
2737,9690,Ruien,3.4860074,50.7739701,ruien,45060
2738,9690,Zulzeke,3.569982,50.7912081,zulzeke,45060
2739,9700,Bevere,3.5955691,50.8513634,bevere,45035
2740,9770,Kruishoutem,3.5404462768494,50.9200896,kruishoutem,45068
2741,9790,Moregem,3.5623575,50.8503548,moregem,45061
2742,9800,Grammene,3.468333,50.9764412,grammene,44083
2743,9820,Bottelare,3.7552702,50.9635195,bottelare,44043
2744,9820,Munte,3.7445458,50.9452452,munte,44043
2745,9820,Schelderode,3.7131906,50.9698809,schelderode,44043
2746,9830,Sint-Martens-Latem,3.6306291238782,51.0134462,sintmartenslatem,44064
2747,9860,Gijzenzele,3.8164475,50.971061,gijzenzele,44052
2748,9870,Olsene,3.4651619,50.9357958,olsene,44081
2749,9890,Gavere,3.6614192,50.9292335,gavere,44020
2750,9931,Oostwinkel,3.5253176,51.150867,oostwinkel,44085
2751,9940,Kluizen,3.732612,51.1547125,kluizen,44019
2752,9970,Kaprijke,3.6219251372375,51.228952,kaprijke,43007
2753,9971,Lembeke,3.6346312134542,51.19424,lembeke,43007
2754,9981,Sint-Margriete,3.5315005565828,51.26767195,sintmargriete,43014
2755,9991,Adegem,3.4858471,51.2035291,adegem,43010
2756,9992,Middelburg,3.4071425562584,51.25583235,middelburg,43010
